,NAME,ADDRESS,CITY,STATE,ZIP,COUNTY_CODE,COUNTY_NAME,MSA,MARKET_SEGMENT,EMPLOYEES_NON_COMMERCIAL,ENROLLMENT_RANGE,CAPACITY_BEDS_RANGE,NUMBER_OF_SCHOOLS_RANGE,OPERATION_TYPE,OWNERSHIP_TYPE,NUMBER_OF_MEALS_PER_DAY_RANGE,AVERAGE_DAILY_CENSUS
0,HERITAGE HALL NORTH NURSING HOME,55 COOPER ST,AGAWAM,MA,1001,25013,HAMPDEN,1122.0,NURSING HOME,UNCODED,NOT APPLICABLE,101 TO 500,NOT APPLICABLE,UNCODED,PUBLIC,>2000,120.0
1,AGAWAM COUNCIL ON AGING SENIOR CENTER,68 MEADOWBROOK MNR,AGAWAM,MA,1001,25013,HAMPDEN,1122.0,"SOCIAL AND PRIVATE CLUBS, LEGIONS, FRATERNITIES",UNCODED,NOT APPLICABLE,NOT APPLICABLE,NOT APPLICABLE,UNCODED,UNCODED,51 TO 100,102.0
2,CENTER FOR EXTENDED CARE-AMHERST,150 UNIVERSITY DR,AMHERST,MA,1002,25015,HAMPSHIRE,8000.0,NURSING HOME,UNCODED,NOT APPLICABLE,101 TO 500,NOT APPLICABLE,UNCODED,PUBLIC,>2000,125.0
3,HAMPSHIRE COLLEGE,893 WEST ST,AMHERST,MA,1002,25015,HAMPSHIRE,8000.0,4 YEAR COLLEGE & UNIVERSITIES,UNCODED,1001 TO 2000,NOT APPLICABLE,NOT APPLICABLE,SODEXO,PRIVATE,1001 TO 2000,102.0
4,UNIVERSITY OF MASSACHUSETTS,168 WHITMORE,AMHERST,MA,1003,25015,HAMPSHIRE,8000.0,4 YEAR COLLEGE & UNIVERSITIES,UNCODED,OVER 5000,NOT APPLICABLE,NOT APPLICABLE,SELF-OPERATED,PUBLIC,>2000,102.0
5,CENTER FOR LANG-SPEECH-HEAR-UNIV OF MA,715 N PLEASANT ST,AMHERST,MA,1003,25015,HAMPSHIRE,8000.0,"CENTERS FOR REHABILITATION AND READAPTION, ADULT DAY CARE",UNCODED,NOT APPLICABLE,UNCODED,NOT APPLICABLE,UNCODED,UNCODED,51 TO 100,102.0
6,QUABBIN REGIONAL SCHOOL DISTRICT,872 SOUTH ST,BARRE,MA,1005,25027,WORCESTER,1122.0,SCHOOL DISTRICTS,251-500,2001 TO 5000,NOT APPLICABLE,6 TO 9,UNCODED,PUBLIC,>2000,102.0
7,BELCHERTOWN PUBLIC SCHOOLS,PO BOX 841,BELCHERTOWN,MA,1007,25015,HAMPSHIRE,8000.0,SCHOOL DISTRICTS,UNCODED,2001 TO 5000,NOT APPLICABLE,3 TO 5,UNCODED,PUBLIC,>2000,102.0
8,BELCHERTOWN SENIOR CENTER,60 STATE ST,BELCHERTOWN,MA,1007,25015,HAMPSHIRE,8000.0,"SOCIAL AND PRIVATE CLUBS, LEGIONS, FRATERNITIES",UNCODED,NOT APPLICABLE,NOT APPLICABLE,NOT APPLICABLE,UNCODED,UNCODED,51 TO 100,102.0
9,BRIMFIELD COUNCIL ON AGING SENIOR CENTER,PO BOX 172,BRIMFIELD,MA,1010,25013,HAMPDEN,1122.0,"SOCIAL AND PRIVATE CLUBS, LEGIONS, FRATERNITIES",UNCODED,NOT APPLICABLE,NOT APPLICABLE,NOT APPLICABLE,UNCODED,UNCODED,51 TO 100,102.0
10,COMMUNITY HEALTHCARE-SBSTNC ABUSE SVCS,628 CENTER ST,CHICOPEE,MA,1013,25013,HAMPDEN,1122.0,OTHER HEALTHCARE ESTABLISHMENTS,UNCODED,NOT APPLICABLE,UNCODED,NOT APPLICABLE,UNCODED,UNCODED,51 TO 100,102.0
11,STEFANIK MEMORIAL SCHOOL,720 MEADOW ST,CHICOPEE,MA,1013,25013,HAMPDEN,1122.0,PRIMARY SCHOOL,UNCODED,251 TO 500,NOT APPLICABLE,NOT APPLICABLE,UNCODED,PRIVATE,251 TO 500,102.0
12,WILLIMANSETT NURSING HOME CENTER EAST,11 SAINT ANTHONY ST,CHICOPEE,MA,1013,25013,HAMPDEN,1122.0,NURSING HOME,UNCODED,NOT APPLICABLE,51 TO 100,NOT APPLICABLE,UNCODED,PUBLIC,1001 TO 2000,82.0
13,OUR LADY OF THE ELMS COLLEGE,291 SPRINGFIELD ST,CHICOPEE,MA,1013,25013,HAMPDEN,1122.0,4 YEAR COLLEGE & UNIVERSITIES,UNCODED,501 TO 1000,NOT APPLICABLE,NOT APPLICABLE,UNCODED,RELIGIOUS,501 TO 1000,102.0
14,CHICOPEE SENIOR CENTER,7 VALLEY VIEW CT,CHICOPEE,MA,1020,25013,HAMPDEN,1122.0,"SOCIAL AND PRIVATE CLUBS, LEGIONS, FRATERNITIES",UNCODED,NOT APPLICABLE,NOT APPLICABLE,NOT APPLICABLE,UNCODED,UNCODED,51 TO 100,102.0
15,LAMBERT-LAVOIE MEMORIAL SCHOOL,91 KENDALL ST,CHICOPEE,MA,1020,25013,HAMPDEN,1122.0,PRIMARY SCHOOL,UNCODED,251 TO 500,NOT APPLICABLE,NOT APPLICABLE,UNCODED,PRIVATE,251 TO 500,102.0
16,CHICOPEE PUBLIC SCHOOL DISTRICT,180 BROADWAY ST,CHICOPEE,MA,1020,25013,HAMPDEN,1122.0,SCHOOL DISTRICTS,1000+,OVER 5000,NOT APPLICABLE,10 AND PLUS,UNCODED,PUBLIC,>2000,102.0
17,THE ARBORS KIDS CHILDCARE,999 MEMORIAL DR,CHICOPEE,MA,1020,25013,HAMPDEN,1122.0,"PRE-K, KINDERGARTEN, CHILD CARE",UNCODED,UNCODED,NOT APPLICABLE,NOT APPLICABLE,UNCODED,UNCODED,501 TO 1000,102.0
18,BIRCH MANOR REHAB-SKILLED NURSING CENTER,44 NEW LOMBARD RD,CHICOPEE,MA,1020,25013,HAMPDEN,1122.0,NURSING HOME,UNCODED,NOT APPLICABLE,51 TO 100,NOT APPLICABLE,UNCODED,PUBLIC,1001 TO 2000,65.0
19,WESTOVER JOB CORPS RESIDENTIAL PROGRAM,103 JOHNSON RD,CHICOPEE,MA,1022,25013,HAMPDEN,1122.0,"CENTERS FOR REHABILITATION AND READAPTION, ADULT DAY CARE",UNCODED,NOT APPLICABLE,UNCODED,NOT APPLICABLE,OTHER CONTRACTED,UNCODED,51 TO 100,102.0
20,BOWIE MEMORIAL SCHOOL,80 DARE WAY,CHICOPEE,MA,1022,25013,HAMPDEN,1122.0,PRIMARY SCHOOL,UNCODED,251 TO 500,NOT APPLICABLE,NOT APPLICABLE,UNCODED,PUBLIC,251 TO 500,102.0
21,THE ACADEMY AT SWIFT RIVER RSDNTL TRTMNT,151 SOUTH ST,CUMMINGTON,MA,1026,25015,HAMPSHIRE,8000.0,"CENTERS FOR REHABILITATION AND READAPTION, ADULT DAY CARE",UNCODED,NOT APPLICABLE,UNCODED,NOT APPLICABLE,UNCODED,UNCODED,51 TO 100,102.0
22,NORTHEAST CENTER FOR YOUTH AND FAMILIES,203 EAST ST,EASTHAMPTON,MA,1027,25015,HAMPSHIRE,8000.0,"CENTERS FOR REHABILITATION AND READAPTION, ADULT DAY CARE",UNCODED,NOT APPLICABLE,UNCODED,NOT APPLICABLE,UNCODED,UNCODED,51 TO 100,102.0
23,SUPERVISORY UNION 66,19 STAGE RD,WESTHAMPTON,MA,1027,25015,HAMPSHIRE,8000.0,SCHOOL DISTRICTS,UNCODED,1001 TO 2000,NOT APPLICABLE,6 TO 9,UNCODED,PUBLIC,1001 TO 2000,102.0
24,EAST LONGMEADOW COUNCIL ON AGING SR CTR,328 N MAIN ST,EAST LONGMEADOW,MA,1028,25013,HAMPDEN,1122.0,"SOCIAL AND PRIVATE CLUBS, LEGIONS, FRATERNITIES",UNCODED,NOT APPLICABLE,NOT APPLICABLE,NOT APPLICABLE,UNCODED,UNCODED,51 TO 100,102.0
25,EAST LONGMEADOW SKILLED NURSING CTR,305 MAPLE ST,EAST LONGMEADOW,MA,1028,25013,HAMPDEN,1122.0,NURSING HOME,UNCODED,NOT APPLICABLE,101 TO 500,NOT APPLICABLE,OTHER CONTRACTED,PUBLIC,>2000,113.0
26,REDSTONE REHAB AND NURSING CENTER,135 BENTON DR,EAST LONGMEADOW,MA,1028,25013,HAMPDEN,1122.0,NURSING HOME,UNCODED,NOT APPLICABLE,101 TO 500,NOT APPLICABLE,OTHER CONTRACTED,PUBLIC,>2000,216.0
27,AGAWAM COUNSELING CENTER-SBSTNC ABUSE,PO BOX 84,FEEDING HILLS,MA,1030,25013,HAMPDEN,1122.0,OTHER HEALTHCARE ESTABLISHMENTS,UNCODED,NOT APPLICABLE,UNCODED,NOT APPLICABLE,UNCODED,UNCODED,51 TO 100,102.0
28,AGAWAM PUBLIC SCHOOL DISTRICT,1305 SPRINGFIELD ST,FEEDING HILLS,MA,1030,25013,HAMPDEN,1122.0,SCHOOL DISTRICTS,1-250,2001 TO 5000,NOT APPLICABLE,6 TO 9,UNCODED,PUBLIC,>2000,102.0
29,GRANBY PUBLIC SCHOOL DISTRICT,387 E STATE ST,GRANBY,MA,1033,25015,HAMPSHIRE,8000.0,SCHOOL DISTRICTS,1-250,1001 TO 2000,NOT APPLICABLE,3 TO 5,UNCODED,PUBLIC,1001 TO 2000,102.0
30,SUNBRIDGE CARE AND REHAB-HADLEY,PO BOX 720,HADLEY,MA,1035,25015,HAMPSHIRE,8000.0,NURSING HOME,UNCODED,NOT APPLICABLE,101 TO 500,NOT APPLICABLE,UNCODED,PUBLIC,>2000,152.0
31,HAMPDEN SENIOR CENTER,104 ALLEN ST,HAMPDEN,MA,1036,25013,HAMPDEN,1122.0,"SOCIAL AND PRIVATE CLUBS, LEGIONS, FRATERNITIES",UNCODED,NOT APPLICABLE,NOT APPLICABLE,NOT APPLICABLE,UNCODED,UNCODED,51 TO 100,102.0
32,HOLYOKE COMMUNITY COLLEGE,303 HOMESTEAD AVE,HOLYOKE,MA,1040,25013,HAMPDEN,1122.0,2 YEAR COLLEGE & UNIVERSITIES,UNCODED,OVER 5000,NOT APPLICABLE,NOT APPLICABLE,OTHER CONTRACTED,PUBLIC,>2000,102.0
33,HOLYOKE SOLDIERS HOME,110 CHERRY ST,HOLYOKE,MA,1040,25013,HAMPDEN,1122.0,NURSING HOME,UNCODED,NOT APPLICABLE,101 TO 500,NOT APPLICABLE,OTHER CONTRACTED,PUBLIC,>2000,250.0
34,HOLYOKE REHABILITATION CENTER,260 EASTHAMPTON RD,HOLYOKE,MA,1040,25013,HAMPDEN,1122.0,NURSING HOME,UNCODED,NOT APPLICABLE,101 TO 500,NOT APPLICABLE,OTHER CONTRACTED,PUBLIC,>2000,157.0
35,LOOMIS HOUSE NURSING RETIREMENT CENTER,298 JARVIS AVE,HOLYOKE,MA,1040,25013,HAMPDEN,1122.0,NURSING HOME,UNCODED,NOT APPLICABLE,51 TO 100,NOT APPLICABLE,UNCODED,PUBLIC,>2000,87.0
36,HOLYOKE HOSPITAL TRANSITIONAL CARE CTR,575 BEECH ST,HOLYOKE,MA,1040,25013,HAMPDEN,1122.0,NURSING HOME,UNCODED,NOT APPLICABLE,1 TO 50,NOT APPLICABLE,UNCODED,PUBLIC,501 TO 1000,25.0
37,HOLYOKE MEDICAL CENTER,575 BEECH ST,HOLYOKE,MA,1040,25013,HAMPDEN,1122.0,HOSPITALS,751-999,NOT APPLICABLE,101 TO 500,NOT APPLICABLE,SELF-OPERATED,UNCODED,>2000,75.7
38,MONT MARIE HEALTH CARE CENTER INC,34 LOWER WESTFIELD RD,HOLYOKE,MA,1040,25013,HAMPDEN,1122.0,NURSING HOME,UNCODED,NOT APPLICABLE,51 TO 100,NOT APPLICABLE,UNCODED,PUBLIC,1001 TO 2000,84.0
39,MOUNT SAINT VINCENT NURSING HOME,35 HOLY FAMILY RD,HOLYOKE,MA,1040,25013,HAMPDEN,1122.0,NURSING HOME,UNCODED,NOT APPLICABLE,101 TO 500,NOT APPLICABLE,UNCODED,PUBLIC,>2000,122.0
40,RENAISSANCE MANOR ON CABOT,279 CABOT ST,HOLYOKE,MA,1040,25013,HAMPDEN,1122.0,NURSING HOME,UNCODED,NOT APPLICABLE,51 TO 100,NOT APPLICABLE,UNCODED,PUBLIC,501 TO 1000,32.0
41,GANDARA RESIDENTIAL SVC WOMEN-AODA SVCS,507 APPLETON ST,HOLYOKE,MA,1040,25013,HAMPDEN,1122.0,OTHER HEALTHCARE ESTABLISHMENTS,UNCODED,NOT APPLICABLE,UNCODED,NOT APPLICABLE,UNCODED,UNCODED,51 TO 100,102.0
42,HOLYOKE CNCL ON AGING SENIOR CTR,310 APPLETON ST,HOLYOKE,MA,1040,25013,HAMPDEN,1122.0,"SOCIAL AND PRIVATE CLUBS, LEGIONS, FRATERNITIES",UNCODED,NOT APPLICABLE,NOT APPLICABLE,NOT APPLICABLE,UNCODED,UNCODED,51 TO 100,102.0
43,HOLYOKE CITY SCHOOL DISTRICT,57 SUFFOLK ST,HOLYOKE,MA,1040,25013,HAMPDEN,1122.0,SCHOOL DISTRICTS,1000+,OVER 5000,NOT APPLICABLE,10 AND PLUS,UNCODED,PUBLIC,>2000,102.0
44,MSPCC FAMILY COUNSELING CTR,113 HAMPDEN ST,HOLYOKE,MA,1040,25013,HAMPDEN,1122.0,OTHER HEALTHCARE ESTABLISHMENTS,UNCODED,NOT APPLICABLE,UNCODED,NOT APPLICABLE,UNCODED,UNCODED,51 TO 100,102.0
45,SISTERS OF PROVIDENCE-SNF,1233 MAIN ST,HOLYOKE,MA,1040,25013,HAMPDEN,1122.0,NURSING HOME,UNCODED,NOT APPLICABLE,1 TO 50,NOT APPLICABLE,UNCODED,PUBLIC,501 TO 1000,25.0
46,PROVIDENCE BEHAVIORAL HEALTH,1233 MAIN ST,HOLYOKE,MA,1040,25013,HAMPDEN,1122.0,HOSPITALS,UNCODED,NOT APPLICABLE,101 TO 500,NOT APPLICABLE,UNCODED,UNCODED,>2000,102.0
47,BOYS AND GIRLS CLUB AFTER SCHOOL,PO BOX 6256,HOLYOKE,MA,1041,25013,HAMPDEN,1122.0,"PRE-K, KINDERGARTEN, CHILD CARE",UNCODED,UNCODED,NOT APPLICABLE,NOT APPLICABLE,UNCODED,UNCODED,501 TO 1000,102.0
48,GATEWAY REGIONAL SCHOOL DISTRICT,12 LITTLEVILLE RD,HUNTINGTON,MA,1050,25015,HAMPSHIRE,8000.0,SCHOOL DISTRICTS,1-250,1001 TO 2000,NOT APPLICABLE,6 TO 9,UNCODED,PUBLIC,1001 TO 2000,102.0
49,HAMPSHIRE CARE,PO BOX 313,LEEDS,MA,1053,25015,HAMPSHIRE,8000.0,NURSING HOME,UNCODED,NOT APPLICABLE,101 TO 500,NOT APPLICABLE,UNCODED,PUBLIC,>2000,91.0
50,LEEDS ELEMENTARY SCHOOL,20 FLORENCE ST,LEEDS,MA,1053,25015,HAMPSHIRE,8000.0,PRIMARY SCHOOL,UNCODED,251 TO 500,NOT APPLICABLE,NOT APPLICABLE,UNCODED,PRIVATE,251 TO 500,102.0
51,VA MEDICAL CENTER-NURSING HOME CARE UNIT,421 N MAIN ST,LEEDS,MA,1053,25015,HAMPSHIRE,8000.0,NURSING HOME,UNCODED,NOT APPLICABLE,51 TO 100,NOT APPLICABLE,UNCODED,PUBLIC,1001 TO 2000,75.0
52,LINDA MANOR EXTENDED CARE FACILITY,349 HAYDENVILLE RD,LEEDS,MA,1053,25015,HAMPSHIRE,8000.0,NURSING HOME,UNCODED,NOT APPLICABLE,101 TO 500,NOT APPLICABLE,OTHER CONTRACTED,PUBLIC,>2000,114.0
53,HAMPDEN CO HOUSE CORRECTION-SHERIFF DEPT,627 RANDALL RD,LUDLOW,MA,1056,25013,HAMPDEN,1122.0,PRISONS,UNCODED,NOT APPLICABLE,UNCODED,NOT APPLICABLE,UNCODED,UNCODED,51 TO 100,102.0
54,HAMPDEN COUNTY PRE-RELEASE JAIL,325 ALABAMA ST,LUDLOW,MA,1056,25013,HAMPDEN,1122.0,PRISONS,UNCODED,NOT APPLICABLE,UNCODED,NOT APPLICABLE,UNCODED,UNCODED,>2000,102.0
55,LUDLOW COMM CTR-RANDALL BOYS-GIRLS CLUB,91 CLAUDIAS WAY,LUDLOW,MA,1056,25013,HAMPDEN,1122.0,"PRE-K, KINDERGARTEN, CHILD CARE",UNCODED,UNCODED,NOT APPLICABLE,NOT APPLICABLE,UNCODED,UNCODED,501 TO 1000,102.0
56,LUDLOW COUNCIL ON AGING SENIOR CENTER,37 CHESTNUT ST,LUDLOW,MA,1056,25013,HAMPDEN,1122.0,"SOCIAL AND PRIVATE CLUBS, LEGIONS, FRATERNITIES",UNCODED,NOT APPLICABLE,NOT APPLICABLE,NOT APPLICABLE,UNCODED,UNCODED,51 TO 100,102.0
57,LUDLOW PUBLIC SCHOOL DISTRICT,63 CHESTNUT ST,LUDLOW,MA,1056,25013,HAMPDEN,1122.0,SCHOOL DISTRICTS,251-500,2001 TO 5000,NOT APPLICABLE,6 TO 9,UNCODED,PUBLIC,>2000,102.0
58,HEALTHSOUTH REHAB HOSPITAL WESTERN MA,14 CHESTNUT PL,LUDLOW,MA,1056,25013,HAMPDEN,1122.0,HOSPITALS,UNCODED,NOT APPLICABLE,51 TO 100,NOT APPLICABLE,OTHER CONTRACTED,UNCODED,1001 TO 2000,102.0
59,MONSON SCHOOL DISTRICT,PO BOX 159,MONSON,MA,1057,25013,HAMPDEN,1122.0,SCHOOL DISTRICTS,1-250,1001 TO 2000,NOT APPLICABLE,3 TO 5,UNCODED,PUBLIC,1001 TO 2000,102.0
60,MONSON COUNCIL ON AGING SENIOR CENTER,106 MAIN ST,MONSON,MA,1057,25013,HAMPDEN,1122.0,"SOCIAL AND PRIVATE CLUBS, LEGIONS, FRATERNITIES",UNCODED,NOT APPLICABLE,NOT APPLICABLE,NOT APPLICABLE,UNCODED,UNCODED,51 TO 100,102.0
61,NORTHAMPTON REHAB AND NURSING CTR,737 BRIDGE RD,NORTHAMPTON,MA,1060,25015,HAMPSHIRE,8000.0,NURSING HOME,UNCODED,NOT APPLICABLE,101 TO 500,NOT APPLICABLE,UNCODED,PUBLIC,>2000,138.0
62,SMITH VOC AND AGRICULTURAL HIGH SCHOOL,80 LOCUST ST,NORTHAMPTON,MA,1060,25015,HAMPSHIRE,8000.0,PRIMARY SCHOOL,UNCODED,251 TO 500,NOT APPLICABLE,NOT APPLICABLE,UNCODED,PUBLIC,251 TO 500,102.0
63,CLARKE SCHOOL FOR THE DEAF,47 ROUND HILL RD,NORTHAMPTON,MA,1060,25015,HAMPSHIRE,8000.0,"CENTERS FOR REHABILITATION AND READAPTION, ADULT DAY CARE",UNCODED,NOT APPLICABLE,UNCODED,NOT APPLICABLE,UNCODED,UNCODED,51 TO 100,102.0
64,CALVIN COOLIDGE NURSING AND REHAB CENTER,548 ELM ST,NORTHAMPTON,MA,1060,25015,HAMPSHIRE,8000.0,NURSING HOME,UNCODED,NOT APPLICABLE,101 TO 500,NOT APPLICABLE,OTHER CONTRACTED,PUBLIC,>2000,102.0
65,PEOPLES INSTITUTE AFTER SCHOOL PROGRAM,38 GOTHIC ST,NORTHAMPTON,MA,1060,25015,HAMPSHIRE,8000.0,"PRE-K, KINDERGARTEN, CHILD CARE",UNCODED,UNCODED,NOT APPLICABLE,NOT APPLICABLE,UNCODED,UNCODED,501 TO 1000,102.0
66,HAIRSTON HOUSE SUBSTANCE ABUSE TREATMENT,25 GRAVES AVE,NORTHAMPTON,MA,1060,25015,HAMPSHIRE,8000.0,OTHER HEALTHCARE ESTABLISHMENTS,UNCODED,NOT APPLICABLE,UNCODED,NOT APPLICABLE,UNCODED,UNCODED,51 TO 100,102.0
67,NORTH CTR FOR CHILDREN/FAMILIES,78 POMEROY TER,NORTHAMPTON,MA,1060,25015,HAMPSHIRE,8000.0,"CENTERS FOR REHABILITATION AND READAPTION, ADULT DAY CARE",UNCODED,NOT APPLICABLE,UNCODED,NOT APPLICABLE,UNCODED,UNCODED,51 TO 100,102.0
68,SERVICENET INC-SUBSTANCE ABUSE TREATMENT,129 KING ST,NORTHAMPTON,MA,1060,25015,HAMPSHIRE,8000.0,OTHER HEALTHCARE ESTABLISHMENTS,UNCODED,NOT APPLICABLE,UNCODED,NOT APPLICABLE,UNCODED,UNCODED,51 TO 100,102.0
69,COOLEY DICKINSON HOSPITAL,PO BOX 5001,NORTHAMPTON,MA,1061,25015,HAMPSHIRE,8000.0,HOSPITALS,1000+,NOT APPLICABLE,101 TO 500,NOT APPLICABLE,SELF-OPERATED,UNCODED,>2000,84.1
70,HAMPSHIRE COUNTY JAIL-SHERIFF DEPARTMENT,PO BOX 7000,NORTHAMPTON,MA,1061,25015,HAMPSHIRE,8000.0,PRISONS,UNCODED,NOT APPLICABLE,UNCODED,NOT APPLICABLE,UNCODED,UNCODED,51 TO 100,102.0
71,CDH-OUTPATIENT BEHAVORIAL HLTH SVCS-AODA,10 MAIN ST,FLORENCE,MA,1062,25015,HAMPSHIRE,8000.0,OTHER HEALTHCARE ESTABLISHMENTS,UNCODED,NOT APPLICABLE,UNCODED,NOT APPLICABLE,UNCODED,UNCODED,51 TO 100,102.0
72,SMITH COLLEGE,98 GREEN ST,NORTHAMPTON,MA,1063,25015,HAMPSHIRE,8000.0,4 YEAR COLLEGE & UNIVERSITIES,UNCODED,2001 TO 5000,NOT APPLICABLE,NOT APPLICABLE,SELF-OPERATED,PRIVATE,>2000,102.0
73,WING MEMORIAL HOSPITAL AND MEDICAL CTR,40 WRIGHT ST,PALMER,MA,1069,25013,HAMPDEN,1122.0,HOSPITALS,UNCODED,NOT APPLICABLE,51 TO 100,NOT APPLICABLE,UNCODED,UNCODED,501 TO 1000,102.0
74,PALMER HOUSE CARE CENTER,250 SHEARER ST,PALMER,MA,1069,25013,HAMPDEN,1122.0,NURSING HOME,UNCODED,NOT APPLICABLE,51 TO 100,NOT APPLICABLE,UNCODED,PUBLIC,1001 TO 2000,58.0
75,PALMER COA SENIOR CENTER,1029 CENTRAL ST,PALMER,MA,1069,25013,HAMPDEN,1122.0,"SOCIAL AND PRIVATE CLUBS, LEGIONS, FRATERNITIES",UNCODED,NOT APPLICABLE,NOT APPLICABLE,NOT APPLICABLE,UNCODED,UNCODED,51 TO 100,102.0
76,PALMER PUBLIC SCHOOL DISTRICT,24 CONVERSE ST,PALMER,MA,1069,25013,HAMPDEN,1122.0,SCHOOL DISTRICTS,251-500,1001 TO 2000,NOT APPLICABLE,3 TO 5,UNCODED,PUBLIC,1001 TO 2000,102.0
77,MOUNT HOLYOKE COLLEGE,50 COLLEGE ST,SOUTH HADLEY,MA,1075,25015,HAMPSHIRE,8000.0,4 YEAR COLLEGE & UNIVERSITIES,UNCODED,2001 TO 5000,NOT APPLICABLE,NOT APPLICABLE,SELF-OPERATED,PRIVATE,>2000,102.0
78,SOUTH HADLEY CNCL ON AG SENIOR CENTER,45 DAYTON ST,SOUTH HADLEY,MA,1075,25015,HAMPSHIRE,8000.0,"SOCIAL AND PRIVATE CLUBS, LEGIONS, FRATERNITIES",UNCODED,NOT APPLICABLE,NOT APPLICABLE,NOT APPLICABLE,UNCODED,UNCODED,51 TO 100,102.0
79,WINGATE AT SOUTH HADLEY,573 GRANBY RD,SOUTH HADLEY,MA,1075,25015,HAMPSHIRE,8000.0,NURSING HOME,UNCODED,NOT APPLICABLE,101 TO 500,NOT APPLICABLE,UNCODED,PUBLIC,>2000,119.0
80,OPEN ARMS CHILDCARE CENTER,PO BOX 1107,SOUTHWICK,MA,1077,25013,HAMPDEN,1122.0,"PRE-K, KINDERGARTEN, CHILD CARE",UNCODED,UNCODED,NOT APPLICABLE,NOT APPLICABLE,UNCODED,UNCODED,501 TO 1000,102.0
81,SOUTHWICK-TOLLAND REGIONAL SCHOOL DIST,86 POWDER MILL RD,SOUTHWICK,MA,1077,25013,HAMPDEN,1122.0,SCHOOL DISTRICTS,251-500,1001 TO 2000,NOT APPLICABLE,3 TO 5,UNCODED,PUBLIC,1001 TO 2000,102.0
82,WARE SCHOOL DISTRICT,PO BOX 240,WARE,MA,1082,25015,HAMPSHIRE,8000.0,SCHOOL DISTRICTS,1-250,1001 TO 2000,NOT APPLICABLE,3 TO 5,UNCODED,PUBLIC,1001 TO 2000,102.0
83,WARE SENIOR CENTER,11 CHURCH ST,WARE,MA,1082,25015,HAMPSHIRE,8000.0,"SOCIAL AND PRIVATE CLUBS, LEGIONS, FRATERNITIES",UNCODED,NOT APPLICABLE,NOT APPLICABLE,NOT APPLICABLE,UNCODED,UNCODED,51 TO 100,102.0
84,VALLEY HUMAN SERVICES-SUBSTANCE ABUSE,96 SOUTH ST,WARE,MA,1082,25015,HAMPSHIRE,8000.0,OTHER HEALTHCARE ESTABLISHMENTS,UNCODED,NOT APPLICABLE,UNCODED,NOT APPLICABLE,UNCODED,UNCODED,51 TO 100,102.0
85,BAYSTATE MARY LANE HOSPITAL,85 SOUTH ST,WARE,MA,1082,25015,HAMPSHIRE,8000.0,HOSPITALS,UNCODED,NOT APPLICABLE,1 TO 50,NOT APPLICABLE,OTHER CONTRACTED,UNCODED,501 TO 1000,102.0
86,QUABOAG REGIONAL SCHOOL DISTRICT,PO BOX 1538,WARREN,MA,1083,25027,WORCESTER,1122.0,SCHOOL DISTRICTS,1-250,1001 TO 2000,NOT APPLICABLE,3 TO 5,UNCODED,PUBLIC,1001 TO 2000,102.0
87,COMMUNITY HEALTH CARE METHADONE SVCS,125 N ELM ST,WESTFIELD,MA,1085,25013,HAMPDEN,1122.0,OTHER HEALTHCARE ESTABLISHMENTS,UNCODED,NOT APPLICABLE,UNCODED,NOT APPLICABLE,UNCODED,UNCODED,51 TO 100,102.0
88,WESTFIELD YOUTH SERVICE DETENTION CENTER,51 E MOUNTAIN RD,WESTFIELD,MA,1085,25013,HAMPDEN,1122.0,PRISONS,UNCODED,NOT APPLICABLE,UNCODED,NOT APPLICABLE,UNCODED,UNCODED,1001 TO 2000,102.0
89,WESTERN MASSACHUSETTS HOSPITAL,91 E MOUNTAIN RD,WESTFIELD,MA,1085,25013,HAMPDEN,1122.0,HOSPITALS,UNCODED,NOT APPLICABLE,51 TO 100,NOT APPLICABLE,UNCODED,UNCODED,1001 TO 2000,102.0
90,GOVERNORS CENTER,66 BROAD ST,WESTFIELD,MA,1085,25013,HAMPDEN,1122.0,NURSING HOME,UNCODED,NOT APPLICABLE,51 TO 100,NOT APPLICABLE,OTHER CONTRACTED,PUBLIC,1001 TO 2000,89.0
91,WESTFIELD PUBLIC SCHOOL DISTRICT,22 ASHLEY ST,WESTFIELD,MA,1085,25013,HAMPDEN,1122.0,SCHOOL DISTRICTS,751-999,OVER 5000,NOT APPLICABLE,10 AND PLUS,UNCODED,PUBLIC,>2000,102.0
92,HARBORSIDE HEALTHCARE WESTFIELD,60 E SILVER ST,WESTFIELD,MA,1085,25013,HAMPDEN,1122.0,"CENTERS FOR REHABILITATION AND READAPTION, ADULT DAY CARE",UNCODED,NOT APPLICABLE,51 TO 100,NOT APPLICABLE,UNCODED,PUBLIC,1001 TO 2000,102.0
93,RENAISSANCE MANOR OF WESTFIELD,37 FEEDING HILLS RD,WESTFIELD,MA,1085,25013,HAMPDEN,1122.0,NURSING HOME,UNCODED,NOT APPLICABLE,51 TO 100,NOT APPLICABLE,UNCODED,PUBLIC,1001 TO 2000,71.0
94,WESTFIELD STATE COLLEGE,PO BOX 1630,WESTFIELD,MA,1086,25013,HAMPDEN,1122.0,4 YEAR COLLEGE & UNIVERSITIES,UNCODED,OVER 5000,NOT APPLICABLE,NOT APPLICABLE,SODEXO,PUBLIC,>2000,102.0
95,NOBLE HOSPITAL,PO BOX 1634,WESTFIELD,MA,1086,25013,HAMPDEN,1122.0,HOSPITALS,UNCODED,NOT APPLICABLE,51 TO 100,NOT APPLICABLE,UNCODED,UNCODED,1001 TO 2000,102.0
96,BRIGHTSIDE FOR FAMILIES AND CHILDREN,2112 RIVERDALE ST,WEST SPRINGFIELD,MA,1089,25013,HAMPDEN,1122.0,"CENTERS FOR REHABILITATION AND READAPTION, ADULT DAY CARE",UNCODED,NOT APPLICABLE,UNCODED,NOT APPLICABLE,UNCODED,UNCODED,51 TO 100,102.0
97,CHILD AND FAMILY SERVICES-SUBSTANCE ABS,425 UNION ST,WEST SPRINGFIELD,MA,1089,25013,HAMPDEN,1122.0,OTHER HEALTHCARE ESTABLISHMENTS,UNCODED,NOT APPLICABLE,UNCODED,NOT APPLICABLE,UNCODED,UNCODED,51 TO 100,102.0
98,WINGATE AT WEST SPRINGFIELD,42 PROSPECT AVE,WEST SPRINGFIELD,MA,1089,25013,HAMPDEN,1122.0,NURSING HOME,UNCODED,NOT APPLICABLE,101 TO 500,NOT APPLICABLE,UNCODED,PUBLIC,>2000,138.0
99,WARREN SENIOR CENTER,PO BOX 428,WEST WARREN,MA,1092,25027,WORCESTER,1122.0,"SOCIAL AND PRIVATE CLUBS, LEGIONS, FRATERNITIES",UNCODED,NOT APPLICABLE,NOT APPLICABLE,NOT APPLICABLE,UNCODED,UNCODED,51 TO 100,102.0
100,WILBRAHAM COA SENIOR CENTER,45B POST OFFICE PARK,WILBRAHAM,MA,1095,25013,HAMPDEN,1122.0,"SOCIAL AND PRIVATE CLUBS, LEGIONS, FRATERNITIES",UNCODED,NOT APPLICABLE,NOT APPLICABLE,NOT APPLICABLE,UNCODED,UNCODED,51 TO 100,102.0
101,LIFE CARE CENTER OF WILBRAHAM,2399 BOSTON RD,WILBRAHAM,MA,1095,25013,HAMPDEN,1122.0,NURSING HOME,UNCODED,NOT APPLICABLE,101 TO 500,NOT APPLICABLE,UNCODED,PUBLIC,>2000,118.0
102,WINGATE AT WILBRAHAM,9 MAPLE ST,WILBRAHAM,MA,1095,25013,HAMPDEN,1122.0,NURSING HOME,UNCODED,NOT APPLICABLE,101 TO 500,NOT APPLICABLE,UNCODED,PUBLIC,>2000,127.0
103,SALVATION ARMY ADULT REHAB CENTER-AODA,PO BOX 1569,SPRINGFIELD,MA,1101,25013,HAMPDEN,1122.0,OTHER HEALTHCARE ESTABLISHMENTS,UNCODED,NOT APPLICABLE,UNCODED,NOT APPLICABLE,UNCODED,UNCODED,51 TO 100,102.0
104,SPRINGFIELD TECHNICAL COMMUNITY COLLEGE,PO BOX 9000,SPRINGFIELD,MA,1102,25013,HAMPDEN,1122.0,2 YEAR COLLEGE & UNIVERSITIES,UNCODED,OVER 5000,NOT APPLICABLE,NOT APPLICABLE,OTHER CONTRACTED,PUBLIC,>2000,102.0
105,MERCY MEDICAL CENTER,PO BOX 9012,SPRINGFIELD,MA,1102,25013,HAMPDEN,1122.0,HOSPITALS,UNCODED,NOT APPLICABLE,101 TO 500,NOT APPLICABLE,UNCODED,UNCODED,>2000,102.0
106,SPRINGFIELD COA SENIOR CENTER,1600 E COLUMBUS AVE,SPRINGFIELD,MA,1103,25013,HAMPDEN,1122.0,"SOCIAL AND PRIVATE CLUBS, LEGIONS, FRATERNITIES",UNCODED,NOT APPLICABLE,NOT APPLICABLE,NOT APPLICABLE,UNCODED,UNCODED,51 TO 100,102.0
107,COMMUNITY CARE MENTAL HEALTH-SBSTNC ABS,273 STATE ST,SPRINGFIELD,MA,1103,25013,HAMPDEN,1122.0,OTHER HEALTHCARE ESTABLISHMENTS,UNCODED,NOT APPLICABLE,UNCODED,NOT APPLICABLE,UNCODED,UNCODED,51 TO 100,102.0
108,CHILDRENS REHAB SVCS-THE WELDON CENTER,233 CAREW ST,SPRINGFIELD,MA,1104,25013,HAMPDEN,1122.0,"CENTERS FOR REHABILITATION AND READAPTION, ADULT DAY CARE",UNCODED,NOT APPLICABLE,UNCODED,NOT APPLICABLE,UNCODED,UNCODED,51 TO 100,102.0
109,SHRINERS HOSPITAL FOR CHILDREN,516 CAREW ST,SPRINGFIELD,MA,1104,25013,HAMPDEN,1122.0,HOSPITALS,UNCODED,NOT APPLICABLE,1 TO 50,NOT APPLICABLE,SELF-OPERATED,UNCODED,501 TO 1000,102.0
110,CHAPIN CENTER,200 KENDALL ST,SPRINGFIELD,MA,1104,25013,HAMPDEN,1122.0,NURSING HOME,UNCODED,NOT APPLICABLE,101 TO 500,NOT APPLICABLE,OTHER CONTRACTED,PUBLIC,>2000,142.0
111,GANDARA MENTAL HEALTH CENTER-AODA PRGMS,2155 MAIN ST,SPRINGFIELD,MA,1104,25013,HAMPDEN,1122.0,OTHER HEALTHCARE ESTABLISHMENTS,UNCODED,NOT APPLICABLE,UNCODED,NOT APPLICABLE,UNCODED,UNCODED,51 TO 100,102.0
112,SPRINGFIELD YMCA SCHOOLS OUT,275 CHESTNUT ST,SPRINGFIELD,MA,1104,25013,HAMPDEN,1122.0,"PRE-K, KINDERGARTEN, CHILD CARE",UNCODED,UNCODED,NOT APPLICABLE,NOT APPLICABLE,UNCODED,UNCODED,501 TO 1000,102.0
113,THREE RIVERS RESIDENTIAL TREATMENT,26 RIDGEWOOD TER,SPRINGFIELD,MA,1105,25013,HAMPDEN,1122.0,"CENTERS FOR REHABILITATION AND READAPTION, ADULT DAY CARE",UNCODED,NOT APPLICABLE,UNCODED,NOT APPLICABLE,UNCODED,UNCODED,51 TO 100,102.0
114,PHOENIX HOUSE SPRINGFIELD CTR-SBSTNC ABS,5 MADISON AVE,SPRINGFIELD,MA,1105,25013,HAMPDEN,1122.0,OTHER HEALTHCARE ESTABLISHMENTS,UNCODED,NOT APPLICABLE,UNCODED,NOT APPLICABLE,UNCODED,UNCODED,51 TO 100,102.0
115,PHOENIX ACADEMY-SUBSTANCE ABUSE TRTMNT,33 MULBERRY ST,SPRINGFIELD,MA,1105,25013,HAMPDEN,1122.0,OTHER HEALTHCARE ESTABLISHMENTS,UNCODED,NOT APPLICABLE,UNCODED,NOT APPLICABLE,UNCODED,UNCODED,51 TO 100,102.0
116,NRTHRN EDUC SVC ETHOS RECOVERY HOME AODA,56 TEMPLE ST,SPRINGFIELD,MA,1105,25013,HAMPDEN,1122.0,OTHER HEALTHCARE ESTABLISHMENTS,UNCODED,NOT APPLICABLE,UNCODED,NOT APPLICABLE,UNCODED,UNCODED,51 TO 100,102.0
117,CHILD-FAMILY SERVICE PIONEER VALLEY AODA,367 PINE ST,SPRINGFIELD,MA,1105,25013,HAMPDEN,1122.0,OTHER HEALTHCARE ESTABLISHMENTS,UNCODED,NOT APPLICABLE,UNCODED,NOT APPLICABLE,UNCODED,PUBLIC,51 TO 100,102.0
118,JULIAN J LEAVITT FAMILY JEWISH NRSG HOME,770 CONVERSE ST,LONGMEADOW,MA,1106,25013,HAMPDEN,1122.0,NURSING HOME,UNCODED,NOT APPLICABLE,101 TO 500,NOT APPLICABLE,UNCODED,PUBLIC,>2000,196.0
119,LONGMEADOW PUBLIC SCHOOLS,127 GRASSY GUTTER RD,LONGMEADOW,MA,1106,25013,HAMPDEN,1122.0,SCHOOL DISTRICTS,251-500,2001 TO 5000,NOT APPLICABLE,6 TO 9,COMPASS,PUBLIC,>2000,102.0
120,BAY PATH COLLEGE,588 LONGMEADOW ST,LONGMEADOW,MA,1106,25013,HAMPDEN,1122.0,4 YEAR COLLEGE & UNIVERSITIES,UNCODED,501 TO 1000,NOT APPLICABLE,NOT APPLICABLE,ARAMARK,PRIVATE,501 TO 1000,102.0
121,GREENWOOD CHILDRENS CENTER-EXTENDED DAY,231 MAPLE RD,LONGMEADOW,MA,1106,25013,HAMPDEN,1122.0,"PRE-K, KINDERGARTEN, CHILD CARE",UNCODED,UNCODED,NOT APPLICABLE,NOT APPLICABLE,UNCODED,UNCODED,501 TO 1000,102.0
122,HABIT MANAGEMENT INSTITUTE-METH SERVICES,2257 MAIN ST,SPRINGFIELD,MA,1107,25013,HAMPDEN,1122.0,OTHER HEALTHCARE ESTABLISHMENTS,UNCODED,NOT APPLICABLE,UNCODED,NOT APPLICABLE,UNCODED,UNCODED,51 TO 100,102.0
123,GANDARA ADDICTION RECOVERY PROGRAM,29 ARCH ST,SPRINGFIELD,MA,1107,25013,HAMPDEN,1122.0,OTHER HEALTHCARE ESTABLISHMENTS,UNCODED,NOT APPLICABLE,UNCODED,NOT APPLICABLE,UNCODED,UNCODED,51 TO 100,102.0
124,SISTERS OF PROVIDENCE METHADONE PROGRAM,227 MILL ST,SPRINGFIELD,MA,1108,25013,HAMPDEN,1122.0,OTHER HEALTHCARE ESTABLISHMENTS,UNCODED,NOT APPLICABLE,UNCODED,NOT APPLICABLE,UNCODED,UNCODED,51 TO 100,102.0
125,MY SISTERS HOUSE-SUBSTANCE ABUSE SERVICE,89 BELMONT AVE,SPRINGFIELD,MA,1108,25013,HAMPDEN,1122.0,OTHER HEALTHCARE ESTABLISHMENTS,UNCODED,NOT APPLICABLE,UNCODED,NOT APPLICABLE,UNCODED,UNCODED,51 TO 100,102.0
126,SPRINGFIELD JEWISH COMM CTR PRE-K,1160 DICKINSON ST,SPRINGFIELD,MA,1108,25013,HAMPDEN,1122.0,"PRE-K, KINDERGARTEN, CHILD CARE",UNCODED,UNCODED,NOT APPLICABLE,NOT APPLICABLE,UNCODED,UNCODED,501 TO 1000,102.0
127,REEDS LANDING HEALTH CENTER,807 WILBRAHAM RD,SPRINGFIELD,MA,1109,25013,HAMPDEN,1122.0,NURSING HOME,UNCODED,NOT APPLICABLE,1 TO 50,NOT APPLICABLE,UNCODED,PUBLIC,>2000,38.0
128,KINDRED HOSPITAL-PARKVIEW,1400 STATE ST,SPRINGFIELD,MA,1109,25013,HAMPDEN,1122.0,HOSPITALS,251-500,NOT APPLICABLE,101 TO 500,NOT APPLICABLE,SELF-OPERATED,PRIVATE,>2000,25.8
129,MARTIN LUTH KING COMMUNITY CTR CHILDCARE,106 WILBRAHAM RD,SPRINGFIELD,MA,1109,25013,HAMPDEN,1122.0,"PRE-K, KINDERGARTEN, CHILD CARE",UNCODED,UNCODED,NOT APPLICABLE,NOT APPLICABLE,UNCODED,UNCODED,501 TO 1000,102.0
130,AMERICAN INTERNATIONAL COLLEGE,1000 STATE ST,SPRINGFIELD,MA,1109,25013,HAMPDEN,1122.0,4 YEAR COLLEGE & UNIVERSITIES,UNCODED,1001 TO 2000,NOT APPLICABLE,NOT APPLICABLE,UNCODED,PRIVATE,1001 TO 2000,102.0
131,EARLY CHILDHOOD CENTERS OF GREATER SPRIN,15 CATHARINE ST,SPRINGFIELD,MA,1109,25013,HAMPDEN,1122.0,"PRE-K, KINDERGARTEN, CHILD CARE",UNCODED,UNCODED,NOT APPLICABLE,NOT APPLICABLE,UNCODED,UNCODED,501 TO 1000,102.0
132,CHILDREN STUDY HOME RES TREATMENT CENTER,44 SHERMAN ST,SPRINGFIELD,MA,1109,25013,HAMPDEN,1122.0,"CENTERS FOR REHABILITATION AND READAPTION, ADULT DAY CARE",UNCODED,NOT APPLICABLE,UNCODED,NOT APPLICABLE,UNCODED,UNCODED,51 TO 100,102.0
133,WILLIAM N DEBERRY ELEMENTARY SCHOOL,670 UNION ST,SPRINGFIELD,MA,1109,25013,HAMPDEN,1122.0,PRIMARY SCHOOL,UNCODED,251 TO 500,NOT APPLICABLE,NOT APPLICABLE,UNCODED,PRIVATE,251 TO 500,102.0
134,SPRINGFIELD COLLEGE,263 ALDEN ST,SPRINGFIELD,MA,1109,25013,HAMPDEN,1122.0,4 YEAR COLLEGE & UNIVERSITIES,UNCODED,OVER 5000,NOT APPLICABLE,NOT APPLICABLE,ARAMARK,PRIVATE,>2000,102.0
135,OPPORTUNITY HOUSE-SUBSTANCE ABUSE PRGMS,61 SAINT JAMES AVE,SPRINGFIELD,MA,1109,25013,HAMPDEN,1122.0,OTHER HEALTHCARE ESTABLISHMENTS,UNCODED,NOT APPLICABLE,UNCODED,NOT APPLICABLE,UNCODED,UNCODED,51 TO 100,102.0
136,KEY PROGRAM-RESIDENTIAL TREATMENT CENTER,576 STATE ST,SPRINGFIELD,MA,1109,25013,HAMPDEN,1122.0,"CENTERS FOR REHABILITATION AND READAPTION, ADULT DAY CARE",UNCODED,NOT APPLICABLE,UNCODED,NOT APPLICABLE,UNCODED,UNCODED,51 TO 100,102.0
137,NORTHERN EDUCATIONAL SVCS ETHOS III-AODA,736 STATE ST,SPRINGFIELD,MA,1109,25013,HAMPDEN,1122.0,OTHER HEALTHCARE ESTABLISHMENTS,UNCODED,NOT APPLICABLE,UNCODED,NOT APPLICABLE,UNCODED,UNCODED,51 TO 100,102.0
138,DUNBAR COMMUNITY CENTER,33 OAK ST,SPRINGFIELD,MA,1109,25013,HAMPDEN,1122.0,"PRE-K, KINDERGARTEN, CHILD CARE",UNCODED,UNCODED,NOT APPLICABLE,NOT APPLICABLE,UNCODED,UNCODED,501 TO 1000,102.0
139,WINDGATE AT SPRINGFIELD,215 BICENTENNIAL HWY,SPRINGFIELD,MA,1118,25013,HAMPDEN,1122.0,NURSING HOME,UNCODED,NOT APPLICABLE,101 TO 500,NOT APPLICABLE,UNCODED,PUBLIC,>2000,110.0
140,WESTERN NEW ENGLAND COLLEGE,1215 WILBRAHAM RD,SPRINGFIELD,MA,1119,25013,HAMPDEN,1122.0,4 YEAR COLLEGE & UNIVERSITIES,UNCODED,2001 TO 5000,NOT APPLICABLE,NOT APPLICABLE,ARAMARK,PRIVATE,>2000,102.0
141,SHARP I-RESIDENTIAL TREATMENT,111 OLD ACRE RD,SPRINGFIELD,MA,1129,25013,HAMPDEN,1122.0,"CENTERS FOR REHABILITATION AND READAPTION, ADULT DAY CARE",UNCODED,NOT APPLICABLE,UNCODED,NOT APPLICABLE,UNCODED,UNCODED,51 TO 100,102.0
142,MOUNT GREYLOCK EXTENDED CARE FACILITY,1000 NORTH ST,PITTSFIELD,MA,1201,25003,BERKSHIRE,6320.0,NURSING HOME,UNCODED,NOT APPLICABLE,51 TO 100,NOT APPLICABLE,UNCODED,PUBLIC,1001 TO 2000,93.0
143,BERKSHIRE COUNTY SHERIFFS DEPT-JAIL,467 CHESHIRE RD,PITTSFIELD,MA,1201,25003,BERKSHIRE,6320.0,PRISONS,UNCODED,NOT APPLICABLE,UNCODED,NOT APPLICABLE,UNCODED,UNCODED,51 TO 100,102.0
144,HILLCREST COMMONS NURSING AND REHAB,169 VALENTINE RD,PITTSFIELD,MA,1201,25003,BERKSHIRE,6320.0,NURSING HOME,UNCODED,NOT APPLICABLE,101 TO 500,NOT APPLICABLE,OTHER CONTRACTED,PUBLIC,>2000,244.0
145,BERKSHIRE MEDICAL CENTER,725 NORTH ST,PITTSFIELD,MA,1201,25003,BERKSHIRE,6320.0,HOSPITALS,1000+,NOT APPLICABLE,101 TO 500,NOT APPLICABLE,SELF-OPERATED,UNCODED,>2000,152.6
146,BRIEN CENTER KEENAN HOUSE-SBSTNC ABUSE,131 BRADFORD ST,PITTSFIELD,MA,1201,25003,BERKSHIRE,6320.0,OTHER HEALTHCARE ESTABLISHMENTS,UNCODED,NOT APPLICABLE,UNCODED,NOT APPLICABLE,UNCODED,UNCODED,51 TO 100,102.0
147,CHRISTIAN CENTER-SUBSTANCE ABUSE SVCS,193 ROBBINS AVE,PITTSFIELD,MA,1201,25003,BERKSHIRE,6320.0,OTHER HEALTHCARE ESTABLISHMENTS,UNCODED,NOT APPLICABLE,UNCODED,NOT APPLICABLE,UNCODED,UNCODED,51 TO 100,102.0
148,KEENAN HOUSE-SUBSTANCE ABUSE TREATMENT,202 BRADFORD ST,PITTSFIELD,MA,1201,25003,BERKSHIRE,6320.0,OTHER HEALTHCARE ESTABLISHMENTS,UNCODED,NOT APPLICABLE,UNCODED,NOT APPLICABLE,UNCODED,UNCODED,51 TO 100,102.0
149,RALPH FROIO SENIOR CENTER,330 NORTH ST,PITTSFIELD,MA,1201,25003,BERKSHIRE,6320.0,"SOCIAL AND PRIVATE CLUBS, LEGIONS, FRATERNITIES",UNCODED,NOT APPLICABLE,NOT APPLICABLE,NOT APPLICABLE,UNCODED,UNCODED,51 TO 100,102.0
150,BMC-MENTAL HEALTH -SBSTNC ABUSE PROGRAM,251 FENN ST,PITTSFIELD,MA,1201,25003,BERKSHIRE,6320.0,OTHER HEALTHCARE ESTABLISHMENTS,UNCODED,NOT APPLICABLE,UNCODED,NOT APPLICABLE,UNCODED,UNCODED,51 TO 100,102.0
151,MILDRED ELLEY BUSINESS SCHOOL,505 EAST ST,PITTSFIELD,MA,1201,25003,BERKSHIRE,6320.0,2 YEAR COLLEGE & UNIVERSITIES,UNCODED,250 AND LESS,NOT APPLICABLE,NOT APPLICABLE,UNCODED,PRIVATE,101 TO 250,102.0
152,BEHAVIORAL TREATMENT RESIDENCE,484 WEST ST,PITTSFIELD,MA,1201,25003,BERKSHIRE,6320.0,"CENTERS FOR REHABILITATION AND READAPTION, ADULT DAY CARE",UNCODED,NOT APPLICABLE,UNCODED,NOT APPLICABLE,UNCODED,UNCODED,51 TO 100,102.0
153,EMERGENCY SHELTER-RESIDENTIAL TREATMENT,369 WEST ST,PITTSFIELD,MA,1201,25003,BERKSHIRE,6320.0,"CENTERS FOR REHABILITATION AND READAPTION, ADULT DAY CARE",UNCODED,NOT APPLICABLE,UNCODED,NOT APPLICABLE,UNCODED,UNCODED,51 TO 100,102.0
154,BERKSHIRE COMMUNITY COLLEGE,1350 WEST ST,PITTSFIELD,MA,1201,25003,BERKSHIRE,6320.0,2 YEAR COLLEGE & UNIVERSITIES,UNCODED,2001 TO 5000,NOT APPLICABLE,NOT APPLICABLE,OTHER CONTRACTED,PUBLIC,>2000,102.0
155,BERKSHIRE PLACE,89 SOUTH ST,PITTSFIELD,MA,1201,25003,BERKSHIRE,6320.0,NURSING HOME,UNCODED,NOT APPLICABLE,1 TO 50,NOT APPLICABLE,UNCODED,PUBLIC,501 TO 1000,22.0
156,THE CHILDRENS HOUSE-RES TREATMENT,753 WILLIAMS ST,PITTSFIELD,MA,1201,25003,BERKSHIRE,6320.0,"CENTERS FOR REHABILITATION AND READAPTION, ADULT DAY CARE",UNCODED,NOT APPLICABLE,UNCODED,NOT APPLICABLE,UNCODED,UNCODED,51 TO 100,102.0
157,KEY PROGRAM-HOWARD HOUSE RES TRTMNT CTR,942 WILLIAMS ST,PITTSFIELD,MA,1201,25003,BERKSHIRE,6320.0,"CENTERS FOR REHABILITATION AND READAPTION, ADULT DAY CARE",UNCODED,NOT APPLICABLE,UNCODED,NOT APPLICABLE,UNCODED,UNCODED,51 TO 100,102.0
158,SPRINGSIDE OF PITTSFIELD FACILITY,255 LEBANON AVE,PITTSFIELD,MA,1201,25003,BERKSHIRE,6320.0,NURSING HOME,UNCODED,NOT APPLICABLE,101 TO 500,NOT APPLICABLE,OTHER CONTRACTED,PUBLIC,>2000,88.0
159,HILLCREST EDUCATIONAL CTRS-RES TREATMENT,PO BOX 4699,PITTSFIELD,MA,1202,25003,BERKSHIRE,6320.0,"CENTERS FOR REHABILITATION AND READAPTION, ADULT DAY CARE",UNCODED,NOT APPLICABLE,UNCODED,NOT APPLICABLE,UNCODED,UNCODED,51 TO 100,102.0
160,ADAMS COUNCIL ON AGING-SENIOR CENTER,20 EAST ST,ADAMS,MA,1220,25003,BERKSHIRE,6320.0,"SOCIAL AND PRIVATE CLUBS, LEGIONS, FRATERNITIES",UNCODED,NOT APPLICABLE,NOT APPLICABLE,NOT APPLICABLE,UNCODED,UNCODED,51 TO 100,102.0
161,CHESHIRE SENIOR CITIZENS CLUB,19 SCHOOL ST,CHESHIRE,MA,1225,25003,BERKSHIRE,6320.0,"SOCIAL AND PRIVATE CLUBS, LEGIONS, FRATERNITIES",UNCODED,NOT APPLICABLE,NOT APPLICABLE,NOT APPLICABLE,UNCODED,UNCODED,51 TO 100,102.0
162,ADAMS-CHESHIRE REGIONAL SCHOOL DISTRICT,125 SAVOY RD,CHESHIRE,MA,1225,25003,BERKSHIRE,6320.0,SCHOOL DISTRICTS,251-500,1001 TO 2000,NOT APPLICABLE,3 TO 5,UNCODED,PUBLIC,1001 TO 2000,102.0
163,DALTON COUNCIL ON AGING-SENIOR NUTRITION,400 MAIN ST,DALTON,MA,1226,25003,BERKSHIRE,6320.0,"SOCIAL AND PRIVATE CLUBS, LEGIONS, FRATERNITIES",UNCODED,NOT APPLICABLE,NOT APPLICABLE,NOT APPLICABLE,UNCODED,UNCODED,51 TO 100,102.0
164,CRANEVILLE PLACE OF DALTON,265 MAIN ST,DALTON,MA,1226,25003,BERKSHIRE,6320.0,ASSISTED LIVING,UNCODED,NOT APPLICABLE,51 TO 100,NOT APPLICABLE,UNCODED,PUBLIC,1001 TO 2000,86.0
165,FAIRVIEW COMMONS NURSING-REHAB CENTER,151 CHRISTIAN HILL RD,GREAT BARRINGTON,MA,1230,25003,BERKSHIRE,6320.0,NURSING HOME,UNCODED,NOT APPLICABLE,101 TO 500,NOT APPLICABLE,OTHER CONTRACTED,PUBLIC,>2000,117.0
166,MENTAL HEALTH-SBSTNC ABUSE OF BERKSHIRES,60 COTTAGE ST,GREAT BARRINGTON,MA,1230,25003,BERKSHIRE,6320.0,OTHER HEALTHCARE ESTABLISHMENTS,UNCODED,NOT APPLICABLE,UNCODED,NOT APPLICABLE,UNCODED,UNCODED,51 TO 100,102.0
167,EAGLETON SCHOOL RESIDENTIAL TREATMENT,446 MONTEREY RD,GREAT BARRINGTON,MA,1230,25003,BERKSHIRE,6320.0,"CENTERS FOR REHABILITATION AND READAPTION, ADULT DAY CARE",UNCODED,NOT APPLICABLE,UNCODED,NOT APPLICABLE,UNCODED,PRIVATE,51 TO 100,102.0
168,FAIRVIEW HOSPITAL,29 LEWIS AVE,GREAT BARRINGTON,MA,1230,25003,BERKSHIRE,6320.0,HOSPITALS,UNCODED,NOT APPLICABLE,1 TO 50,NOT APPLICABLE,OTHER CONTRACTED,UNCODED,501 TO 1000,102.0
169,GREAT BARRINGTON REHAB AND NURSING CTR,148 MAPLE AVE,GREAT BARRINGTON,MA,1230,25003,BERKSHIRE,6320.0,NURSING HOME,UNCODED,NOT APPLICABLE,51 TO 100,NOT APPLICABLE,UNCODED,PUBLIC,>2000,87.0
170,CLAIRE TEAGUE SENIOR CENTER,909 1/2 MAIN ST,GREAT BARRINGTON,MA,1230,25003,BERKSHIRE,6320.0,"SOCIAL AND PRIVATE CLUBS, LEGIONS, FRATERNITIES",UNCODED,NOT APPLICABLE,NOT APPLICABLE,NOT APPLICABLE,UNCODED,UNCODED,51 TO 100,102.0
171,THE KOLBURNE SCHOOL,343 NEW MARLBORO SOUTHFIELD RD,NEW MARLBOROUGH,MA,1230,25003,BERKSHIRE,6320.0,PRIMARY SCHOOL,UNCODED,250 AND LESS,NOT APPLICABLE,NOT APPLICABLE,UNCODED,PRIVATE,101 TO 250,102.0
172,SIMONS ROCK COLLEGE OF BARD,84 ALFORD RD,GREAT BARRINGTON,MA,1230,25003,BERKSHIRE,6320.0,4 YEAR COLLEGE & UNIVERSITIES,UNCODED,251 TO 500,NOT APPLICABLE,NOT APPLICABLE,COMPASS,PRIVATE,251 TO 500,102.0
173,BERKSHIRE HILLS REGIONAL SCHOOL DISTRICT,PO BOX 596,HOUSATONIC,MA,1236,25003,BERKSHIRE,6320.0,SCHOOL DISTRICTS,1-250,1001 TO 2000,NOT APPLICABLE,3 TO 5,UNCODED,PUBLIC,1001 TO 2000,102.0
174,BERKSHIRE MEADOWS RESIDENTIAL TREATMENT,249 N PLAIN RD,HOUSATONIC,MA,1236,25003,BERKSHIRE,6320.0,"CENTERS FOR REHABILITATION AND READAPTION, ADULT DAY CARE",UNCODED,NOT APPLICABLE,UNCODED,NOT APPLICABLE,UNCODED,UNCODED,51 TO 100,102.0
175,LAUREL LAKE CTR HEALTH AND REHAB,620 LAUREL ST,LEE,MA,1238,25003,BERKSHIRE,6320.0,NURSING HOME,UNCODED,NOT APPLICABLE,51 TO 100,NOT APPLICABLE,UNCODED,PUBLIC,>2000,84.0
176,VALLEYHEAD RESIDENTIAL TREATMENT CENTER,PO BOX 714,LENOX,MA,1240,25003,BERKSHIRE,6320.0,"CENTERS FOR REHABILITATION AND READAPTION, ADULT DAY CARE",UNCODED,NOT APPLICABLE,UNCODED,NOT APPLICABLE,UNCODED,UNCODED,51 TO 100,102.0
177,KIMBALL FARMS NURSING CARE CENTER,40 SUNSET AVE,LENOX,MA,1240,25003,BERKSHIRE,6320.0,NURSING HOME,UNCODED,NOT APPLICABLE,51 TO 100,NOT APPLICABLE,OTHER CONTRACTED,PUBLIC,1001 TO 2000,73.0
178,PROVIDENCE CARE CENTER OF LENOX,320 PITTSFIELD RD,LENOX,MA,1240,25003,BERKSHIRE,6320.0,NURSING HOME,UNCODED,NOT APPLICABLE,51 TO 100,NOT APPLICABLE,UNCODED,PUBLIC,1001 TO 2000,63.0
179,COMMUNITY SENIOR CENTER,65 WALKER ST,LENOX,MA,1240,25003,BERKSHIRE,6320.0,"SOCIAL AND PRIVATE CLUBS, LEGIONS, FRATERNITIES",UNCODED,NOT APPLICABLE,NOT APPLICABLE,NOT APPLICABLE,UNCODED,UNCODED,51 TO 100,102.0
180,LENOX PUBLIC SCHOOLS,6 WALKER ST,LENOX,MA,1240,25003,BERKSHIRE,6320.0,SCHOOL DISTRICTS,1-250,501 TO 1000,NOT APPLICABLE,2,UNCODED,PUBLIC,501 TO 1000,102.0
181,THE BRIEN CTR FOR MNTL HLTH-SBSTNC ABUSE,25 MARSHALL ST,NORTH ADAMS,MA,1247,25003,BERKSHIRE,6320.0,OTHER HEALTHCARE ESTABLISHMENTS,UNCODED,NOT APPLICABLE,UNCODED,NOT APPLICABLE,UNCODED,UNCODED,51 TO 100,102.0
182,NORTH ADAMS REGIONAL HOSPITAL,71 HOSPITAL AVE,NORTH ADAMS,MA,1247,25003,BERKSHIRE,6320.0,HOSPITALS,251-500,NOT APPLICABLE,101 TO 500,NOT APPLICABLE,UNCODED,UNCODED,1001 TO 2000,28.1
183,NORTH ADAMS COMMON,175 FRANKLIN ST,NORTH ADAMS,MA,1247,25003,BERKSHIRE,6320.0,NURSING HOME,UNCODED,NOT APPLICABLE,101 TO 500,NOT APPLICABLE,UNCODED,PUBLIC,>2000,111.0
184,NORTH BERKSHIRE REGIONAL VOCATIONAL DIST,70 HODGES CROSSROADS,NORTH ADAMS,MA,1247,25003,BERKSHIRE,6320.0,SCHOOL DISTRICTS,1-250,251 TO 500,NOT APPLICABLE,1,UNCODED,PUBLIC,251 TO 500,102.0
185,MASSACHUSETTS COLLEGE OF LIBERAL ARTS,375 CHURCH ST,NORTH ADAMS,MA,1247,25003,BERKSHIRE,6320.0,4 YEAR COLLEGE & UNIVERSITIES,UNCODED,1001 TO 2000,NOT APPLICABLE,NOT APPLICABLE,ARAMARK,PUBLIC,1001 TO 2000,102.0
186,SPITZER SENIOR CENTER,116 ASHLAND ST,NORTH ADAMS,MA,1247,25003,BERKSHIRE,6320.0,"SOCIAL AND PRIVATE CLUBS, LEGIONS, FRATERNITIES",UNCODED,NOT APPLICABLE,NOT APPLICABLE,NOT APPLICABLE,UNCODED,UNCODED,51 TO 100,102.0
187,BURKSHIRE REHAB AND SKILLED CARE CENTER,PO BOX 215,SANDISFIELD,MA,1255,25003,BERKSHIRE,6320.0,NURSING HOME,UNCODED,NOT APPLICABLE,51 TO 100,NOT APPLICABLE,UNCODED,PUBLIC,1001 TO 2000,55.0
188,SOUTHERN BERKSHIRE REGIONAL SCHOOL DIST,PO BOX 339,SHEFFIELD,MA,1257,25003,BERKSHIRE,6320.0,SCHOOL DISTRICTS,1-250,1001 TO 2000,NOT APPLICABLE,3 TO 5,UNCODED,PUBLIC,1001 TO 2000,102.0
189,STOCKBRIDGE SENIOR CENTER,PO BOX 514,STOCKBRIDGE,MA,1262,25003,BERKSHIRE,6320.0,"SOCIAL AND PRIVATE CLUBS, LEGIONS, FRATERNITIES",UNCODED,NOT APPLICABLE,NOT APPLICABLE,NOT APPLICABLE,UNCODED,UNCODED,51 TO 100,102.0
190,AUSTEN RIGGS CENTER,PO BOX 962,STOCKBRIDGE,MA,1262,25003,BERKSHIRE,6320.0,HOSPITALS,UNCODED,NOT APPLICABLE,1 TO 50,NOT APPLICABLE,OTHER CONTRACTED,UNCODED,501 TO 1000,102.0
191,SUMMER CAMP KINGSMONT,RR 2,WEST STOCKBRIDGE,MA,1266,25003,BERKSHIRE,6320.0,"CENTERS FOR CHILDREN, SUMMER CAMPS",UNCODED,NOT APPLICABLE,NOT APPLICABLE,NOT APPLICABLE,UNCODED,UNCODED,>2000,102.0
192,CAMP OVERLAND,PO BOX 31,WILLIAMSTOWN,MA,1267,25003,BERKSHIRE,6320.0,"CENTERS FOR CHILDREN, SUMMER CAMPS",UNCODED,NOT APPLICABLE,NOT APPLICABLE,NOT APPLICABLE,UNCODED,UNCODED,>2000,102.0
193,WILLIAMS COLLEGE,PO BOX 687,WILLIAMSTOWN,MA,1267,25003,BERKSHIRE,6320.0,4 YEAR COLLEGE & UNIVERSITIES,UNCODED,2001 TO 5000,NOT APPLICABLE,NOT APPLICABLE,SELF-OPERATED,PRIVATE,>2000,102.0
194,HARPER SENIOR CENTER,118 CHURCH ST,WILLIAMSTOWN,MA,1267,25003,BERKSHIRE,6320.0,"SOCIAL AND PRIVATE CLUBS, LEGIONS, FRATERNITIES",UNCODED,NOT APPLICABLE,NOT APPLICABLE,NOT APPLICABLE,UNCODED,UNCODED,51 TO 100,102.0
195,WILLIAMSTOWN PUBLIC SCHOOL DISTRICT,115 CHURCH ST,WILLIAMSTOWN,MA,1267,25003,BERKSHIRE,6320.0,SCHOOL DISTRICTS,1-250,251 TO 500,NOT APPLICABLE,1,UNCODED,PUBLIC,251 TO 500,102.0
196,SWEET BROOK CARE CENTER,1561 COLD SPRING RD,WILLIAMSTOWN,MA,1267,25003,BERKSHIRE,6320.0,NURSING HOME,UNCODED,NOT APPLICABLE,101 TO 500,NOT APPLICABLE,OTHER CONTRACTED,PUBLIC,>2000,147.0
197,WILLIAMSTOWN COMMONS,25 ADAMS RD,WILLIAMSTOWN,MA,1267,25003,BERKSHIRE,6320.0,NURSING HOME,UNCODED,NOT APPLICABLE,101 TO 500,NOT APPLICABLE,OTHER CONTRACTED,PUBLIC,>2000,146.0
198,BEACON HOUSE FOR MEN-SUBSTANCE ABUSE SVC,57 BEACON ST,GREENFIELD,MA,1301,25011,FRANKLIN,8000.0,OTHER HEALTHCARE ESTABLISHMENTS,UNCODED,NOT APPLICABLE,UNCODED,NOT APPLICABLE,UNCODED,UNCODED,51 TO 100,102.0
199,FRANKLIN CO SHERIFF OFFICE-HOUSE OF CORR,160 ELM ST,GREENFIELD,MA,1301,25011,FRANKLIN,8000.0,PRISONS,UNCODED,NOT APPLICABLE,UNCODED,NOT APPLICABLE,UNCODED,UNCODED,51 TO 100,102.0
200,GREENFIELD PUBLIC SCHOOLS,141 DAVIS ST,GREENFIELD,MA,1301,25011,FRANKLIN,8000.0,SCHOOL DISTRICTS,251-500,1001 TO 2000,NOT APPLICABLE,6 TO 9,UNCODED,PUBLIC,1001 TO 2000,102.0
201,FRANKLIN COMM ACTION CORP YTH PRGM-AODA,154 FEDERAL ST,GREENFIELD,MA,1301,25011,FRANKLIN,8000.0,OTHER HEALTHCARE ESTABLISHMENTS,UNCODED,NOT APPLICABLE,UNCODED,NOT APPLICABLE,UNCODED,UNCODED,51 TO 100,102.0
202,BAYSTATE FRANKLIN MEDICAL CENTER,164 HIGH ST,GREENFIELD,MA,1301,25011,FRANKLIN,8000.0,HOSPITALS,UNCODED,NOT APPLICABLE,51 TO 100,NOT APPLICABLE,OTHER CONTRACTED,UNCODED,1001 TO 2000,102.0
203,POETS SEAT HEALTH CARE CENTER,359 HIGH ST,GREENFIELD,MA,1301,25011,FRANKLIN,8000.0,NURSING HOME,UNCODED,NOT APPLICABLE,51 TO 100,NOT APPLICABLE,UNCODED,PUBLIC,1001 TO 2000,54.0
204,BAY STATE REHAB/FRANKLIN MEDICAL CTR,48 SANDERSON ST,GREENFIELD,MA,1301,25011,FRANKLIN,8000.0,"CENTERS FOR REHABILITATION AND READAPTION, ADULT DAY CARE",UNCODED,NOT APPLICABLE,UNCODED,NOT APPLICABLE,UNCODED,UNCODED,51 TO 100,102.0
205,GREENFIELD SENIOR CENTER-COUNCIL AGING,54 HIGH ST,GREENFIELD,MA,1301,25011,FRANKLIN,8000.0,"SOCIAL AND PRIVATE CLUBS, LEGIONS, FRATERNITIES",UNCODED,NOT APPLICABLE,NOT APPLICABLE,NOT APPLICABLE,UNCODED,UNCODED,51 TO 100,102.0
206,BUCKLEY HEALTH CARE CENTER,95 LAUREL ST,GREENFIELD,MA,1301,25011,FRANKLIN,8000.0,NURSING HOME,UNCODED,NOT APPLICABLE,101 TO 500,NOT APPLICABLE,UNCODED,PUBLIC,>2000,108.0
207,CHARLENE MANOR EXTENDED CARE FACILITY,130 COLRAIN RD,GREENFIELD,MA,1301,25011,FRANKLIN,8000.0,NURSING HOME,UNCODED,NOT APPLICABLE,101 TO 500,NOT APPLICABLE,OTHER CONTRACTED,PUBLIC,>2000,122.0
208,GREENFIELD COMMUNITY COLLEGE,1 COLLEGE DR,GREENFIELD,MA,1301,25011,FRANKLIN,8000.0,2 YEAR COLLEGE & UNIVERSITIES,UNCODED,2001 TO 5000,NOT APPLICABLE,NOT APPLICABLE,UNCODED,PUBLIC,>2000,102.0
209,ATHOL SENIOR CENTER,416 MAIN ST,ATHOL,MA,1331,25027,WORCESTER,1122.0,"SOCIAL AND PRIVATE CLUBS, LEGIONS, FRATERNITIES",UNCODED,NOT APPLICABLE,NOT APPLICABLE,NOT APPLICABLE,UNCODED,UNCODED,51 TO 100,102.0
210,FMC-BEACON CLINIC SUBSTANCE ABUSE PRGMS,201 S MAIN ST,ATHOL,MA,1331,25027,WORCESTER,1122.0,OTHER HEALTHCARE ESTABLISHMENTS,UNCODED,NOT APPLICABLE,UNCODED,NOT APPLICABLE,UNCODED,UNCODED,51 TO 100,102.0
211,ATHOL-ROYALSTON REGIONAL MIDDLE SCHOOL,1062 PLEASANT ST,ATHOL,MA,1331,25027,WORCESTER,1122.0,PRIMARY SCHOOL,UNCODED,251 TO 500,NOT APPLICABLE,NOT APPLICABLE,UNCODED,PUBLIC,251 TO 500,102.0
212,ATHOL MEMORIAL HOSPITAL,2033 MAIN ST,ATHOL,MA,1331,25027,WORCESTER,1122.0,HOSPITALS,UNCODED,NOT APPLICABLE,1 TO 50,NOT APPLICABLE,OTHER CONTRACTED,UNCODED,501 TO 1000,102.0
213,QUABBIN VALLEY HEALTH CARE,821 DANIEL SHAYS HWY,ATHOL,MA,1331,25027,WORCESTER,1122.0,NURSING HOME,UNCODED,NOT APPLICABLE,101 TO 500,NOT APPLICABLE,UNCODED,PUBLIC,>2000,131.0
214,HEATH ELEM SCHOOL,18 JACOBS RD,CHARLEMONT,MA,1339,25011,FRANKLIN,8000.0,PRIMARY SCHOOL,UNCODED,250 AND LESS,NOT APPLICABLE,NOT APPLICABLE,UNCODED,PRIVATE,101 TO 250,102.0
215,CONWAY SCHOOL OF LANDSCAPE DESIGN,PO BOX 179,CONWAY,MA,1341,25011,FRANKLIN,8000.0,TECHNICAL AND TRADE SCHOOLS,UNCODED,250 AND LESS,NOT APPLICABLE,NOT APPLICABLE,UNCODED,PRIVATE,101 TO 250,102.0
216,STUDENT HOSTELING CAMP,PO BOX 419,CONWAY,MA,1341,25011,FRANKLIN,8000.0,"CENTERS FOR CHILDREN, SUMMER CAMPS",UNCODED,NOT APPLICABLE,NOT APPLICABLE,NOT APPLICABLE,UNCODED,UNCODED,>2000,102.0
217,ERVING SENIOR CENTER,18 PLEASANT ST,ERVING,MA,1344,25011,FRANKLIN,8000.0,"SOCIAL AND PRIVATE CLUBS, LEGIONS, FRATERNITIES",UNCODED,NOT APPLICABLE,NOT APPLICABLE,NOT APPLICABLE,UNCODED,UNCODED,51 TO 100,102.0
218,NEW SALEM SENIOR CENTER,15 S MAIN ST,NEW SALEM,MA,1355,25011,FRANKLIN,8000.0,"SOCIAL AND PRIVATE CLUBS, LEGIONS, FRATERNITIES",UNCODED,NOT APPLICABLE,NOT APPLICABLE,NOT APPLICABLE,UNCODED,UNCODED,51 TO 100,102.0
219,NORTHFIELD SENIOR CENTER,69 MAIN ST,NORTHFIELD,MA,1360,25011,FRANKLIN,8000.0,"SOCIAL AND PRIVATE CLUBS, LEGIONS, FRATERNITIES",UNCODED,NOT APPLICABLE,NOT APPLICABLE,NOT APPLICABLE,UNCODED,UNCODED,51 TO 100,102.0
220,PIONEER VALLEY REGIONAL SCHOOL DISTRICT,97 F SUMNER TURNER RD,NORTHFIELD,MA,1360,25011,FRANKLIN,8000.0,SCHOOL DISTRICTS,1-250,1001 TO 2000,NOT APPLICABLE,3 TO 5,UNCODED,PUBLIC,1001 TO 2000,102.0
221,CAMP NORTHFIELD,96 WANAMAKER RD,NORTHFIELD,MA,1360,25011,FRANKLIN,8000.0,"CENTERS FOR CHILDREN, SUMMER CAMPS",UNCODED,NOT APPLICABLE,NOT APPLICABLE,NOT APPLICABLE,UNCODED,UNCODED,>2000,102.0
222,LINDEN HILL SCHOOL RESIDENTIAL TREATMENT,154 S MOUNTAIN RD,NORTHFIELD,MA,1360,25011,FRANKLIN,8000.0,"CENTERS FOR REHABILITATION AND READAPTION, ADULT DAY CARE",UNCODED,NOT APPLICABLE,UNCODED,NOT APPLICABLE,UNCODED,PRIVATE,51 TO 100,102.0
223,ORANGE SENIOR CENTER,135 E MAIN ST,ORANGE,MA,1364,25011,FRANKLIN,8000.0,"SOCIAL AND PRIVATE CLUBS, LEGIONS, FRATERNITIES",UNCODED,NOT APPLICABLE,NOT APPLICABLE,NOT APPLICABLE,UNCODED,UNCODED,51 TO 100,102.0
224,PETERSHAM CENTER SCHOOL DISTRICT,PO BOX 148,PETERSHAM,MA,1366,25027,WORCESTER,1122.0,SCHOOL DISTRICTS,1-250,250 AND LESS,NOT APPLICABLE,1,UNCODED,PUBLIC,101 TO 250,102.0
225,ROWE CENTER SUMMER CAMPS,PO BOX 273,ROWE,MA,1367,25011,FRANKLIN,8000.0,"CENTERS FOR CHILDREN, SUMMER CAMPS",UNCODED,NOT APPLICABLE,NOT APPLICABLE,NOT APPLICABLE,UNCODED,UNCODED,>2000,102.0
226,SHELBURNE SENIOR CENTER,7 MAIN ST,SHELBURNE FALLS,MA,1370,25011,FRANKLIN,8000.0,"SOCIAL AND PRIVATE CLUBS, LEGIONS, FRATERNITIES",UNCODED,NOT APPLICABLE,NOT APPLICABLE,NOT APPLICABLE,UNCODED,UNCODED,51 TO 100,102.0
227,ANCHORAGE NURSING HOME,904 MOHAWK TRL,SHELBURNE FALLS,MA,1370,25011,FRANKLIN,8000.0,NURSING HOME,UNCODED,NOT APPLICABLE,1 TO 50,NOT APPLICABLE,UNCODED,PUBLIC,501 TO 1000,23.0
228,FRONTIER SENIOR CENTER,67 N MAIN ST,SOUTH DEERFIELD,MA,1373,25011,FRANKLIN,8000.0,"SOCIAL AND PRIVATE CLUBS, LEGIONS, FRATERNITIES",UNCODED,NOT APPLICABLE,NOT APPLICABLE,NOT APPLICABLE,UNCODED,UNCODED,51 TO 100,102.0
229,COZY CORNER NURSING HOME,PO BOX 405,SUNDERLAND,MA,1375,25011,FRANKLIN,8000.0,NURSING HOME,UNCODED,NOT APPLICABLE,51 TO 100,NOT APPLICABLE,UNCODED,PUBLIC,1001 TO 2000,33.0
230,MONTAGUE SENIOR CENTER,PO BOX 166,TURNERS FALLS,MA,1376,25011,FRANKLIN,8000.0,"SOCIAL AND PRIVATE CLUBS, LEGIONS, FRATERNITIES",UNCODED,NOT APPLICABLE,NOT APPLICABLE,NOT APPLICABLE,UNCODED,UNCODED,51 TO 100,102.0
231,FRANKLIN COUNTY VOCATIONAL TECH SCHOOL,82 INDUSTRIAL BLVD,TURNERS FALLS,MA,1376,25011,FRANKLIN,8000.0,TECHNICAL AND TRADE SCHOOLS,UNCODED,501 TO 1000,NOT APPLICABLE,NOT APPLICABLE,UNCODED,PUBLIC,501 TO 1000,102.0
232,FRANKLIN COUNTY TECHNICAL SCHOOL DIST,82 INDUSTRIAL BLVD,TURNERS FALLS,MA,1376,25011,FRANKLIN,8000.0,SCHOOL DISTRICTS,UNCODED,501 TO 1000,NOT APPLICABLE,1,UNCODED,PUBLIC,501 TO 1000,102.0
233,GILL-MONTAGUE REGIONAL SCHOOL DISTRICT,35 CROCKER AVE,TURNERS FALLS,MA,1376,25011,FRANKLIN,8000.0,SCHOOL DISTRICTS,1-250,1001 TO 2000,NOT APPLICABLE,6 TO 9,UNCODED,PUBLIC,1001 TO 2000,102.0
234,FARREN CARE CENTER INC,340 MONTAGUE CITY RD,TURNERS FALLS,MA,1376,25011,FRANKLIN,8000.0,NURSING HOME,UNCODED,NOT APPLICABLE,101 TO 500,NOT APPLICABLE,UNCODED,PUBLIC,>2000,121.0
235,LAKE GROVE AT MAPLE VALLEY RSDNTL TRTMNT,6 FARLEY RD,WENDELL,MA,1379,25011,FRANKLIN,8000.0,"CENTERS FOR REHABILITATION AND READAPTION, ADULT DAY CARE",UNCODED,NOT APPLICABLE,UNCODED,NOT APPLICABLE,UNCODED,UNCODED,51 TO 100,102.0
236,THE HIGHLANDS,335 NICHOLS RD,FITCHBURG,MA,1420,25027,WORCESTER,1122.0,NURSING HOME,UNCODED,NOT APPLICABLE,101 TO 500,NOT APPLICABLE,UNCODED,PUBLIC,>2000,161.0
237,HEALTH ALLIANCE BURBANK HOSPITAL,275 NICHOLS RD,FITCHBURG,MA,1420,25027,WORCESTER,1122.0,HOSPITALS,751-999,NOT APPLICABLE,101 TO 500,NOT APPLICABLE,UNCODED,UNCODED,>2000,73.7
238,FITCHBURG STATE COLLEGE,160 PEARL ST,FITCHBURG,MA,1420,25027,WORCESTER,1122.0,4 YEAR COLLEGE & UNIVERSITIES,UNCODED,OVER 5000,NOT APPLICABLE,NOT APPLICABLE,COMPASS,PUBLIC,>2000,102.0
239,FITCHBURG SENIOR CENTER,14 WALLACE AVE,FITCHBURG,MA,1420,25027,WORCESTER,1122.0,"SOCIAL AND PRIVATE CLUBS, LEGIONS, FRATERNITIES",UNCODED,NOT APPLICABLE,NOT APPLICABLE,NOT APPLICABLE,UNCODED,UNCODED,51 TO 100,102.0
240,YMCA CAMP LOWE,55 WALLACE AVE,FITCHBURG,MA,1420,25027,WORCESTER,1122.0,"CENTERS FOR CHILDREN, SUMMER CAMPS",UNCODED,NOT APPLICABLE,NOT APPLICABLE,NOT APPLICABLE,UNCODED,UNCODED,>2000,102.0
241,MONTACHUSETT REGIONAL VOC TECH SCH DIST,1050 WESTMINSTER ST,FITCHBURG,MA,1420,25027,WORCESTER,1122.0,SCHOOL DISTRICTS,UNCODED,1001 TO 2000,NOT APPLICABLE,1,UNCODED,PUBLIC,1001 TO 2000,102.0
242,LUK CRISIS CTR-LUK BHVRL HLTH CLNC-AODA,545 WESTMINSTER ST,FITCHBURG,MA,1420,25027,WORCESTER,1122.0,OTHER HEALTHCARE ESTABLISHMENTS,UNCODED,NOT APPLICABLE,UNCODED,NOT APPLICABLE,UNCODED,UNCODED,51 TO 100,102.0
243,HILLCREST NURSING HOME,94 SUMMER ST,FITCHBURG,MA,1420,25027,WORCESTER,1122.0,NURSING HOME,UNCODED,NOT APPLICABLE,51 TO 100,NOT APPLICABLE,UNCODED,PUBLIC,1001 TO 2000,78.0
244,ACADEMY SCHOOL,98 ACADEMY ST,FITCHBURG,MA,1420,25027,WORCESTER,1122.0,PRIMARY SCHOOL,UNCODED,251 TO 500,NOT APPLICABLE,NOT APPLICABLE,UNCODED,PRIVATE,251 TO 500,102.0
245,HABIT MANAGEMENT INSTITUTE-SBSTNC ABUSE,155 AIRPORT RD,FITCHBURG,MA,1420,25027,WORCESTER,1122.0,OTHER HEALTHCARE ESTABLISHMENTS,UNCODED,NOT APPLICABLE,UNCODED,NOT APPLICABLE,UNCODED,UNCODED,51 TO 100,102.0
246,MCLEAN AT NAUKEAG REHAB,216 LAKE RD,ASHBURNHAM,MA,1430,25027,WORCESTER,1122.0,HOSPITALS,UNCODED,NOT APPLICABLE,1 TO 50,NOT APPLICABLE,UNCODED,UNCODED,501 TO 1000,102.0
247,ASHBURNHAM COUNCIL ON AGING-SENIOR CTR,32 MAIN ST,ASHBURNHAM,MA,1430,25027,WORCESTER,1122.0,"SOCIAL AND PRIVATE CLUBS, LEGIONS, FRATERNITIES",UNCODED,NOT APPLICABLE,NOT APPLICABLE,NOT APPLICABLE,UNCODED,UNCODED,51 TO 100,102.0
248,ASHBURNHAM-WESTMINSTER REG SCH DIST,11 OAKMONT DR,ASHBURNHAM,MA,1430,25027,WORCESTER,1122.0,SCHOOL DISTRICTS,251-500,2001 TO 5000,NOT APPLICABLE,3 TO 5,COMPASS,PUBLIC,>2000,102.0
249,SUMMER CAMP CUSHING ACADEMY,PO BOX 8000,ASHBURNHAM,MA,1430,25027,WORCESTER,1122.0,"CENTERS FOR CHILDREN, SUMMER CAMPS",UNCODED,NOT APPLICABLE,NOT APPLICABLE,NOT APPLICABLE,UNCODED,UNCODED,>2000,102.0
250,FEDERAL MEDICAL CENTER,PO BOX 880,AYER,MA,1432,25017,MIDDLESEX,1122.0,PRISONS,UNCODED,NOT APPLICABLE,UNCODED,NOT APPLICABLE,UNCODED,UNCODED,>2000,102.0
251,AYER PUBLIC SCHOOLS,141 WASHINGTON ST,AYER,MA,1432,25017,MIDDLESEX,1122.0,SCHOOL DISTRICTS,UNCODED,1001 TO 2000,NOT APPLICABLE,2,UNCODED,PUBLIC,1001 TO 2000,102.0
252,NASHOBA VALLEY MEDICAL CENTER,200 GROTON RD,AYER,MA,1432,25017,MIDDLESEX,1122.0,HOSPITALS,UNCODED,NOT APPLICABLE,51 TO 100,NOT APPLICABLE,OTHER CONTRACTED,UNCODED,1001 TO 2000,102.0
253,APPLE VALLEY CENTER,400 GROTON RD,AYER,MA,1432,25017,MIDDLESEX,1122.0,NURSING HOME,UNCODED,NOT APPLICABLE,101 TO 500,NOT APPLICABLE,UNCODED,PUBLIC,>2000,101.0
254,THE CENTER SENIOR CENTER,18 POND ST,AYER,MA,1432,25017,MIDDLESEX,1122.0,"SOCIAL AND PRIVATE CLUBS, LEGIONS, FRATERNITIES",UNCODED,NOT APPLICABLE,NOT APPLICABLE,NOT APPLICABLE,UNCODED,UNCODED,51 TO 100,102.0
255,BALDWINVILLE NURSING HOME,PO BOX 24,BALDWINVILLE,MA,1436,25027,WORCESTER,1122.0,NURSING HOME,UNCODED,NOT APPLICABLE,51 TO 100,NOT APPLICABLE,UNCODED,PUBLIC,1001 TO 2000,94.0
256,NORTH CENTRAL HUMAN SERVICES-SBSTNC ABS,PO BOX 449,GARDNER,MA,1440,25027,WORCESTER,1122.0,OTHER HEALTHCARE ESTABLISHMENTS,UNCODED,NOT APPLICABLE,UNCODED,NOT APPLICABLE,UNCODED,UNCODED,51 TO 100,102.0
257,NORTH CENTRAL CORRECTIONAL INSTITUTION,PO BOX 466,GARDNER,MA,1440,25027,WORCESTER,1122.0,PRISONS,UNCODED,NOT APPLICABLE,UNCODED,NOT APPLICABLE,UNCODED,UNCODED,>2000,102.0
258,HEYWOOD HOSP TRANSITIONAL CARE CENTER,242 GREEN ST,GARDNER,MA,1440,25027,WORCESTER,1122.0,NURSING HOME,UNCODED,NOT APPLICABLE,1 TO 50,NOT APPLICABLE,UNCODED,PUBLIC,501 TO 1000,12.0
259,MOUNT WACHUSETT COMMUNITY COLLEGE,444 GREEN ST,GARDNER,MA,1440,25027,WORCESTER,1122.0,2 YEAR COLLEGE & UNIVERSITIES,UNCODED,2001 TO 5000,NOT APPLICABLE,NOT APPLICABLE,UNCODED,PUBLIC,>2000,102.0
260,GARDNER VNA ADULT DAY HEALTH CARE,34 PEARLY LN,GARDNER,MA,1440,25027,WORCESTER,1122.0,"CENTERS FOR REHABILITATION AND READAPTION, ADULT DAY CARE",UNCODED,NOT APPLICABLE,51 TO 100,NOT APPLICABLE,UNCODED,UNCODED,251 TO 500,102.0
261,WACHUSETT MANOR NURSING HOME,32 HOSPITAL HILL RD,GARDNER,MA,1440,25027,WORCESTER,1122.0,NURSING HOME,UNCODED,NOT APPLICABLE,51 TO 100,NOT APPLICABLE,UNCODED,PUBLIC,1001 TO 2000,92.0
262,GARDNER PUBLIC SCHOOL DISTRICT,70 WATERFORD ST,GARDNER,MA,1440,25027,WORCESTER,1122.0,SCHOOL DISTRICTS,251-500,2001 TO 5000,NOT APPLICABLE,3 TO 5,UNCODED,PUBLIC,>2000,102.0
263,GARDNER SENIOR CENTER,294 PLEASANT ST,GARDNER,MA,1440,25027,WORCESTER,1122.0,"SOCIAL AND PRIVATE CLUBS, LEGIONS, FRATERNITIES",UNCODED,NOT APPLICABLE,NOT APPLICABLE,NOT APPLICABLE,UNCODED,UNCODED,51 TO 100,102.0
264,PATHWAY HOUSE GAAMHA-SUBSTANCE ABUSE SVC,171 GRAHAM ST,GARDNER,MA,1440,25027,WORCESTER,1122.0,OTHER HEALTHCARE ESTABLISHMENTS,UNCODED,NOT APPLICABLE,UNCODED,NOT APPLICABLE,UNCODED,UNCODED,51 TO 100,102.0
265,LACHANCE CENTER FOR REHAB AND NURSING,59 EASTWOOD CIR,GARDNER,MA,1440,25027,WORCESTER,1122.0,NURSING HOME,UNCODED,NOT APPLICABLE,101 TO 500,NOT APPLICABLE,OTHER CONTRACTED,PUBLIC,>2000,109.0
266,GROTON-DUNSTABLE REGIONAL SCHOOL DIST,PO BOX 729,GROTON,MA,1450,25017,MIDDLESEX,1122.0,SCHOOL DISTRICTS,251-500,2001 TO 5000,NOT APPLICABLE,6 TO 9,UNCODED,PUBLIC,>2000,102.0
267,SEVEN HILLS AT GROTON,22 HILLSIDE AVE,GROTON,MA,1450,25017,MIDDLESEX,1122.0,NURSING HOME,UNCODED,NOT APPLICABLE,51 TO 100,NOT APPLICABLE,UNCODED,PUBLIC,1001 TO 2000,75.0
268,HARVARD PUBLIC SCHOOL DISTRICT,39 MASS AVE,HARVARD,MA,1451,25027,WORCESTER,1122.0,SCHOOL DISTRICTS,1-250,1001 TO 2000,NOT APPLICABLE,2,UNCODED,PUBLIC,1001 TO 2000,102.0
269,KEYSTONE CTR-GENESIS HEALTHCARE,44 KEYSTONE DR,LEOMINSTER,MA,1453,25027,WORCESTER,1122.0,NURSING HOME,UNCODED,NOT APPLICABLE,101 TO 500,NOT APPLICABLE,UNCODED,PUBLIC,>2000,81.0
270,LIFE CARE CENTER OF LEOMINSTER,370 WEST ST,LEOMINSTER,MA,1453,25027,WORCESTER,1122.0,NURSING HOME,UNCODED,NOT APPLICABLE,101 TO 500,NOT APPLICABLE,UNCODED,PUBLIC,>2000,120.0
271,HEALTH ALLIANCE HOSPITAL,60 HOSPITAL RD,LEOMINSTER,MA,1453,25027,WORCESTER,1122.0,HOSPITALS,UNCODED,NOT APPLICABLE,101 TO 500,NOT APPLICABLE,ARAMARK,UNCODED,>2000,102.0
272,COMM HEALTHLINK LIPTON RES TREATMENT CTR,45 SUMMER ST,LEOMINSTER,MA,1453,25027,WORCESTER,1122.0,"CENTERS FOR REHABILITATION AND READAPTION, ADULT DAY CARE",UNCODED,NOT APPLICABLE,UNCODED,NOT APPLICABLE,UNCODED,UNCODED,51 TO 100,102.0
273,LEOMINSTER SENIOR CENTER,5 POND ST,LEOMINSTER,MA,1453,25027,WORCESTER,1122.0,"SOCIAL AND PRIVATE CLUBS, LEGIONS, FRATERNITIES",UNCODED,NOT APPLICABLE,NOT APPLICABLE,NOT APPLICABLE,UNCODED,UNCODED,51 TO 100,102.0
274,LITTLETON MIDDLE SCHOOL,55 RUSSELL ST,LITTLETON,MA,1460,25017,MIDDLESEX,1122.0,PRIMARY SCHOOL,UNCODED,251 TO 500,NOT APPLICABLE,NOT APPLICABLE,UNCODED,PRIVATE,251 TO 500,102.0
275,LITTLETON GROUP HOME,22 KING ST,LITTLETON,MA,1460,25017,MIDDLESEX,1122.0,"CENTERS FOR REHABILITATION AND READAPTION, ADULT DAY CARE",UNCODED,NOT APPLICABLE,UNCODED,NOT APPLICABLE,UNCODED,UNCODED,51 TO 100,102.0
276,LIFE CARE CENTER OF NASHOBA VALLEY,191 FOSTER ST,LITTLETON,MA,1460,25017,MIDDLESEX,1122.0,NURSING HOME,UNCODED,NOT APPLICABLE,101 TO 500,NOT APPLICABLE,UNCODED,PUBLIC,>2000,115.0
277,NASHOBA CAMP,140 NASHOBA RD,LITTLETON,MA,1460,25017,MIDDLESEX,1122.0,"CENTERS FOR CHILDREN, SUMMER CAMPS",UNCODED,NOT APPLICABLE,NOT APPLICABLE,NOT APPLICABLE,UNCODED,UNCODED,>2000,102.0
278,EAGLE HOUSE SENIOR CENTER,25 MEMORIAL DR,LUNENBURG,MA,1462,25027,WORCESTER,1122.0,"SOCIAL AND PRIVATE CLUBS, LEGIONS, FRATERNITIES",UNCODED,NOT APPLICABLE,NOT APPLICABLE,NOT APPLICABLE,UNCODED,UNCODED,51 TO 100,102.0
279,LUNENBURG PUBLIC SCHOOL DISTRICT,1033 MASSACHUSETTS AVE,LUNENBURG,MA,1462,25027,WORCESTER,1122.0,SCHOOL DISTRICTS,1-250,1001 TO 2000,NOT APPLICABLE,3 TO 5,UNCODED,PUBLIC,1001 TO 2000,102.0
280,NISSITISSIT MIDDLE SCHOOL,33 CHASE AVE,PEPPERELL,MA,1463,25017,MIDDLESEX,1122.0,PRIMARY SCHOOL,UNCODED,501 TO 1000,NOT APPLICABLE,NOT APPLICABLE,UNCODED,PRIVATE,501 TO 1000,102.0
281,PEPPERELL COUNCIL ON AGING SENIOR CENTER,37 NASHUA RD,PEPPERELL,MA,1463,25017,MIDDLESEX,1122.0,"SOCIAL AND PRIVATE CLUBS, LEGIONS, FRATERNITIES",UNCODED,NOT APPLICABLE,NOT APPLICABLE,NOT APPLICABLE,UNCODED,UNCODED,51 TO 100,102.0
282,MASSACHUSETTS CORRECTIONAL INST-SHIRLEY,PO BOX 1218,SHIRLEY,MA,1464,25017,MIDDLESEX,1122.0,PRISONS,UNCODED,NOT APPLICABLE,UNCODED,NOT APPLICABLE,UNCODED,UNCODED,>2000,102.0
283,SOUZA-BARANOWSKI CORRECTIONAL CENTER,PO BOX 8000,SHIRLEY,MA,1464,25017,MIDDLESEX,1122.0,PRISONS,UNCODED,NOT APPLICABLE,UNCODED,NOT APPLICABLE,UNCODED,UNCODED,>2000,102.0
284,TOWNSEND COUNCIL ON AGING -SENIOR CENTER,222 MAIN ST,TOWNSEND,MA,1469,25017,MIDDLESEX,1122.0,"SOCIAL AND PRIVATE CLUBS, LEGIONS, FRATERNITIES",UNCODED,NOT APPLICABLE,NOT APPLICABLE,NOT APPLICABLE,UNCODED,UNCODED,51 TO 100,102.0
285,WINCHENDON PUBLIC SCHOOL DISTRICT,175 GROVE ST,WINCHENDON,MA,1475,25027,WORCESTER,1122.0,SCHOOL DISTRICTS,1-250,1001 TO 2000,NOT APPLICABLE,3 TO 5,UNCODED,PUBLIC,1001 TO 2000,102.0
286,THE WINCHENDON SCHOOL RSDNTL TREATMENT,172 ASH ST,WINCHENDON,MA,1475,25027,WORCESTER,1122.0,"CENTERS FOR REHABILITATION AND READAPTION, ADULT DAY CARE",UNCODED,NOT APPLICABLE,UNCODED,NOT APPLICABLE,UNCODED,PRIVATE,51 TO 100,102.0
287,AUBURN PUBLIC SCHOOL DISTRICT,5 WEST ST,AUBURN,MA,1501,25027,WORCESTER,1122.0,SCHOOL DISTRICTS,251-500,2001 TO 5000,NOT APPLICABLE,6 TO 9,UNCODED,PUBLIC,>2000,102.0
288,LIFE CARE CENTER OF AUBURN,14 MASONIC CIR,AUBURN,MA,1501,25027,WORCESTER,1122.0,NURSING HOME,UNCODED,NOT APPLICABLE,101 TO 500,NOT APPLICABLE,UNCODED,PUBLIC,>2000,145.0
289,AUBURN YOUTH AND FAMILY ERSVICES-AODA,21 PHEASANT CT,AUBURN,MA,1501,25027,WORCESTER,1122.0,OTHER HEALTHCARE ESTABLISHMENTS,UNCODED,NOT APPLICABLE,UNCODED,NOT APPLICABLE,UNCODED,UNCODED,51 TO 100,102.0
290,LORRAINE GLEICK NORDGREN SENIOR CENTER,4 GODDARD DR,AUBURN,MA,1501,25027,WORCESTER,1122.0,"SOCIAL AND PRIVATE CLUBS, LEGIONS, FRATERNITIES",UNCODED,NOT APPLICABLE,NOT APPLICABLE,NOT APPLICABLE,UNCODED,UNCODED,51 TO 100,102.0
291,THE GODDARD SCHOOL,494 WASHINGTON ST,AUBURN,MA,1501,25027,WORCESTER,1122.0,"PRE-K, KINDERGARTEN, CHILD CARE",UNCODED,UNCODED,NOT APPLICABLE,NOT APPLICABLE,UNCODED,UNCODED,501 TO 1000,102.0
292,AUBURN FAMILY INSTITUTE,6 SOUTH TER,AUBURN,MA,1501,25027,WORCESTER,1122.0,"CENTERS FOR REHABILITATION AND READAPTION, ADULT DAY CARE",UNCODED,NOT APPLICABLE,UNCODED,NOT APPLICABLE,UNCODED,UNCODED,51 TO 100,102.0
293,BLACKSTONE NURSING HOME,8 BUTLER ST,BLACKSTONE,MA,1504,25027,WORCESTER,1122.0,NURSING HOME,UNCODED,NOT APPLICABLE,1 TO 50,NOT APPLICABLE,UNCODED,PUBLIC,501 TO 1000,30.0
294,BLACKSTONE SENIOR CENTER,15 SAINT PAUL ST,BLACKSTONE,MA,1504,25027,WORCESTER,1122.0,"SOCIAL AND PRIVATE CLUBS, LEGIONS, FRATERNITIES",UNCODED,NOT APPLICABLE,NOT APPLICABLE,NOT APPLICABLE,UNCODED,UNCODED,51 TO 100,102.0
295,THE OVERLOOK MASONIC HEALTH CENTER,PO BOX 1000,CHARLTON,MA,1507,25027,WORCESTER,1122.0,NURSING HOME,UNCODED,NOT APPLICABLE,101 TO 500,NOT APPLICABLE,UNCODED,PUBLIC,>2000,138.0
296,BAY PATH REG VOCATIONAL TECH HIGH SCHOOL,57 OLD MUGGETT HILL RD,CHARLTON,MA,1507,25027,WORCESTER,1122.0,SECONDARY SCHOOL,UNCODED,1001 TO 2000,NOT APPLICABLE,NOT APPLICABLE,UNCODED,PUBLIC,1001 TO 2000,102.0
297,CLINTON HOSPITAL UMASS MEMORIAL,201 HIGHLAND ST,CLINTON,MA,1510,25027,WORCESTER,1122.0,HOSPITALS,UNCODED,NOT APPLICABLE,1 TO 50,NOT APPLICABLE,COMPASS,UNCODED,501 TO 1000,102.0
298,CLINTON SENIOR CITIZENS CENTER,200 HIGH ST,CLINTON,MA,1510,25027,WORCESTER,1122.0,"SOCIAL AND PRIVATE CLUBS, LEGIONS, FRATERNITIES",UNCODED,NOT APPLICABLE,NOT APPLICABLE,NOT APPLICABLE,UNCODED,UNCODED,51 TO 100,102.0
299,CLINTON PUBLIC SCHOOLS,150 SCHOOL ST,CLINTON,MA,1510,25027,WORCESTER,1122.0,SCHOOL DISTRICTS,251-500,2001 TO 5000,NOT APPLICABLE,3 TO 5,UNCODED,PUBLIC,>2000,102.0
300,HASSANAMESIT VLG EARLY LEARNING CENTER,PO BOX 566,GRAFTON,MA,1519,25027,WORCESTER,1122.0,"PRE-K, KINDERGARTEN, CHILD CARE",UNCODED,UNCODED,NOT APPLICABLE,NOT APPLICABLE,UNCODED,UNCODED,501 TO 1000,102.0
301,GRAFTON SENIOR CENTER,30 PROVIDENCE RD,GRAFTON,MA,1519,25027,WORCESTER,1122.0,"SOCIAL AND PRIVATE CLUBS, LEGIONS, FRATERNITIES",UNCODED,NOT APPLICABLE,NOT APPLICABLE,NOT APPLICABLE,UNCODED,UNCODED,51 TO 100,102.0
302,GRAFTON PUBLIC SCHOOL DISTRICT,30 PROVIDENCE RD,GRAFTON,MA,1519,25027,WORCESTER,1122.0,SCHOOL DISTRICTS,251-500,2001 TO 5000,NOT APPLICABLE,6 TO 9,UNCODED,PUBLIC,>2000,102.0
303,HOLDEN SENIOR CENTER,1130 MAIN ST,HOLDEN,MA,1520,25027,WORCESTER,1122.0,"SOCIAL AND PRIVATE CLUBS, LEGIONS, FRATERNITIES",UNCODED,NOT APPLICABLE,NOT APPLICABLE,NOT APPLICABLE,UNCODED,UNCODED,51 TO 100,102.0
304,HOLDEN REHAB AND NURSING CENTER,32 MAYO DR,HOLDEN,MA,1520,25027,WORCESTER,1122.0,NURSING HOME,UNCODED,NOT APPLICABLE,51 TO 100,NOT APPLICABLE,UNCODED,PUBLIC,1001 TO 2000,90.0
305,WACHUSETT EXTENDED CARE FACILITY,56 BOYDEN RD,HOLDEN,MA,1520,25027,WORCESTER,1122.0,NURSING HOME,UNCODED,NOT APPLICABLE,1 TO 50,NOT APPLICABLE,UNCODED,PUBLIC,501 TO 1000,40.0
306,WACHUSETT REGIONAL SCHOOL DISTRICT,1745 MAIN ST,JEFFERSON,MA,1522,25027,WORCESTER,1122.0,SCHOOL DISTRICTS,751-999,OVER 5000,NOT APPLICABLE,10 AND PLUS,UNCODED,PUBLIC,>2000,102.0
307,DR F PERKINS SCHOOL RESIDENTIAL TRTMNT,971 MAIN ST,LANCASTER,MA,1523,25027,WORCESTER,1122.0,"CENTERS FOR REHABILITATION AND READAPTION, ADULT DAY CARE",UNCODED,NOT APPLICABLE,UNCODED,NOT APPLICABLE,UNCODED,PRIVATE,51 TO 100,102.0
308,LEICESTER SENIOR CENTER,40 WINSLOW AVE,LEICESTER,MA,1524,25027,WORCESTER,1122.0,"SOCIAL AND PRIVATE CLUBS, LEGIONS, FRATERNITIES",UNCODED,NOT APPLICABLE,NOT APPLICABLE,NOT APPLICABLE,UNCODED,UNCODED,51 TO 100,102.0
309,LEICESTER PUBLIC SCHOOLS,1078 MAIN ST,LEICESTER,MA,1524,25027,WORCESTER,1122.0,SCHOOL DISTRICTS,1-250,2001 TO 5000,NOT APPLICABLE,3 TO 5,UNCODED,PUBLIC,>2000,102.0
310,BECKER COLLEGE-LEICESTER,964 MAIN ST,LEICESTER,MA,1524,25027,WORCESTER,1122.0,4 YEAR COLLEGE & UNIVERSITIES,UNCODED,251 TO 500,NOT APPLICABLE,NOT APPLICABLE,SODEXO,PRIVATE,251 TO 500,102.0
311,MILLBURY SENIOR CENTER,1 RIVER ST,MILLBURY,MA,1527,25027,WORCESTER,1122.0,"SOCIAL AND PRIVATE CLUBS, LEGIONS, FRATERNITIES",UNCODED,NOT APPLICABLE,NOT APPLICABLE,NOT APPLICABLE,UNCODED,UNCODED,51 TO 100,102.0
312,RADIUS HEALTHCARE CENTER,29 MAIN ST,MILLBURY,MA,1527,25027,WORCESTER,1122.0,NURSING HOME,UNCODED,NOT APPLICABLE,101 TO 500,NOT APPLICABLE,UNCODED,PUBLIC,>2000,250.0
313,MILLBURY PUBLIC SCHOOLS,12 MARTIN ST,MILLBURY,MA,1527,25027,WORCESTER,1122.0,SCHOOL DISTRICTS,1-250,2001 TO 5000,NOT APPLICABLE,3 TO 5,UNCODED,PUBLIC,>2000,102.0
314,MILLBURY HEALTH CARE CENTER,312 MILLBURY AVE,MILLBURY,MA,1527,25027,WORCESTER,1122.0,NURSING HOME,UNCODED,NOT APPLICABLE,101 TO 500,NOT APPLICABLE,OTHER CONTRACTED,PUBLIC,>2000,137.0
315,MILLVILLE SENIOR CENTER,PO BOX 703,MILLVILLE,MA,1529,25027,WORCESTER,1122.0,"SOCIAL AND PRIVATE CLUBS, LEGIONS, FRATERNITIES",UNCODED,NOT APPLICABLE,NOT APPLICABLE,NOT APPLICABLE,UNCODED,UNCODED,51 TO 100,102.0
316,SUPERVISORY UNION 3,44 BEARFOOT RD,NORTHBOROUGH,MA,1532,25027,WORCESTER,1122.0,SCHOOL DISTRICTS,UNCODED,2001 TO 5000,NOT APPLICABLE,10 AND PLUS,UNCODED,PUBLIC,>2000,102.0
317,BEAUMONT AT NORTHBOROUGH,238 W MAIN ST,NORTHBOROUGH,MA,1532,25027,WORCESTER,1122.0,NURSING HOME,UNCODED,NOT APPLICABLE,51 TO 100,NOT APPLICABLE,UNCODED,PUBLIC,>2000,93.0
318,COLEMAN HOUSE,112 W MAIN ST,NORTHBOROUGH,MA,1532,25027,WORCESTER,1122.0,NURSING HOME,UNCODED,NOT APPLICABLE,1 TO 50,NOT APPLICABLE,OTHER CONTRACTED,PUBLIC,501 TO 1000,44.0
319,NORTHBORO TOWN-FAMILY-YOUTH SVCS-AODA,63 MAIN ST,NORTHBOROUGH,MA,1532,25027,WORCESTER,1122.0,OTHER HEALTHCARE ESTABLISHMENTS,UNCODED,NOT APPLICABLE,UNCODED,NOT APPLICABLE,UNCODED,UNCODED,51 TO 100,102.0
320,NORTHBOROUGH SENIOR CENTER,1 CENTRE DR,NORTHBOROUGH,MA,1532,25027,WORCESTER,1122.0,"SOCIAL AND PRIVATE CLUBS, LEGIONS, FRATERNITIES",UNCODED,NOT APPLICABLE,NOT APPLICABLE,NOT APPLICABLE,UNCODED,UNCODED,51 TO 100,102.0
321,BEAUMONT REHAB SKILLED NURSING HOME,PO BOX 940,NORTHBRIDGE,MA,1534,25027,WORCESTER,1122.0,NURSING HOME,UNCODED,NOT APPLICABLE,101 TO 500,NOT APPLICABLE,UNCODED,PUBLIC,>2000,152.0
322,VALLEY VIEW SCHOOL,PO BOX 338,NORTH BROOKFIELD,MA,1535,25027,WORCESTER,1122.0,"CENTERS FOR REHABILITATION AND READAPTION, ADULT DAY CARE",UNCODED,NOT APPLICABLE,UNCODED,NOT APPLICABLE,UNCODED,UNCODED,51 TO 100,102.0
323,NORTH BROOKFIELD SENIOR CENTER,29 FOREST ST,NORTH BROOKFIELD,MA,1535,25027,WORCESTER,1122.0,"SOCIAL AND PRIVATE CLUBS, LEGIONS, FRATERNITIES",UNCODED,NOT APPLICABLE,NOT APPLICABLE,NOT APPLICABLE,UNCODED,UNCODED,51 TO 100,102.0
324,GRAFTON JOB CORPS RESIDENTIAL PROGRAM,100 PINE ST,NORTH GRAFTON,MA,1536,25027,WORCESTER,1122.0,"CENTERS FOR REHABILITATION AND READAPTION, ADULT DAY CARE",UNCODED,NOT APPLICABLE,UNCODED,NOT APPLICABLE,UNCODED,UNCODED,51 TO 100,102.0
325,CLARA BARTON CAMP,PO BOX 356,NORTH OXFORD,MA,1537,25027,WORCESTER,1122.0,"CENTERS FOR CHILDREN, SUMMER CAMPS",UNCODED,NOT APPLICABLE,NOT APPLICABLE,NOT APPLICABLE,UNCODED,UNCODED,>2000,102.0
326,OXFORD SENIOR CENTER,323 MAIN ST,OXFORD,MA,1540,25027,WORCESTER,1122.0,"SOCIAL AND PRIVATE CLUBS, LEGIONS, FRATERNITIES",UNCODED,NOT APPLICABLE,NOT APPLICABLE,NOT APPLICABLE,UNCODED,UNCODED,51 TO 100,102.0
327,OXFORD PUBLIC SCHOOLS,5 SIGOURNEY ST,OXFORD,MA,1540,25027,WORCESTER,1122.0,SCHOOL DISTRICTS,1-250,2001 TO 5000,NOT APPLICABLE,3 TO 5,UNCODED,PUBLIC,>2000,102.0
328,COOLIDGE ELEMENTARY SCHOOL,15 MAY ST,SHREWSBURY,MA,1545,25027,WORCESTER,1122.0,PRIMARY SCHOOL,UNCODED,251 TO 500,NOT APPLICABLE,NOT APPLICABLE,UNCODED,PRIVATE,251 TO 500,102.0
329,MULBERRY CHILD CARE AND PRESCHOOL,177 MAIN ST,SHREWSBURY,MA,1545,25027,WORCESTER,1122.0,"PRE-K, KINDERGARTEN, CHILD CARE",UNCODED,UNCODED,NOT APPLICABLE,NOT APPLICABLE,OTHER CONTRACTED,UNCODED,501 TO 1000,102.0
330,SHREWSBURY CHILDRENS CENTER INC,138 N QUINSIGAMOND AVE,SHREWSBURY,MA,1545,25027,WORCESTER,1122.0,"PRE-K, KINDERGARTEN, CHILD CARE",UNCODED,UNCODED,NOT APPLICABLE,NOT APPLICABLE,UNCODED,UNCODED,501 TO 1000,102.0
331,SHERWOOD MIDDLE SCHOOL,30 SHERWOOD AVE,SHREWSBURY,MA,1545,25027,WORCESTER,1122.0,PRIMARY SCHOOL,UNCODED,501 TO 1000,NOT APPLICABLE,NOT APPLICABLE,UNCODED,PRIVATE,501 TO 1000,102.0
332,SHREWSBURY NURSING AND REHAB CENTER,40 JULIO DR,SHREWSBURY,MA,1545,25027,WORCESTER,1122.0,NURSING HOME,UNCODED,NOT APPLICABLE,101 TO 500,NOT APPLICABLE,UNCODED,PUBLIC,>2000,90.0
333,FLORAL STREET SCHOOL,57 FLORAL ST,SHREWSBURY,MA,1545,25027,WORCESTER,1122.0,PRIMARY SCHOOL,UNCODED,501 TO 1000,NOT APPLICABLE,NOT APPLICABLE,UNCODED,PRIVATE,501 TO 1000,102.0
334,SHREWSBURY PUBLIC SCHOOLS,100 MAPLE AVE,SHREWSBURY,MA,1545,25027,WORCESTER,1122.0,SCHOOL DISTRICTS,251-500,OVER 5000,NOT APPLICABLE,6 TO 9,UNCODED,PUBLIC,>2000,102.0
335,G B WELLS HUMAN SERVICE CENTER-AODA SVCS,29 PINE ST,SOUTHBRIDGE,MA,1550,25027,WORCESTER,1122.0,OTHER HEALTHCARE ESTABLISHMENTS,UNCODED,NOT APPLICABLE,UNCODED,NOT APPLICABLE,UNCODED,UNCODED,51 TO 100,102.0
336,MARY E WELLS MIDDLE SCHOOL,82 MARCY ST,SOUTHBRIDGE,MA,1550,25027,WORCESTER,1122.0,PRIMARY SCHOOL,UNCODED,501 TO 1000,NOT APPLICABLE,NOT APPLICABLE,UNCODED,PRIVATE,501 TO 1000,102.0
337,YOU INC FAMILY SERVICES-SBSTNC ABUSE SVC,52 CHARLTON ST,SOUTHBRIDGE,MA,1550,25027,WORCESTER,1122.0,OTHER HEALTHCARE ESTABLISHMENTS,UNCODED,NOT APPLICABLE,UNCODED,NOT APPLICABLE,UNCODED,UNCODED,51 TO 100,102.0
338,RADIUS HEALTH CARE,84 CHAPIN ST,SOUTHBRIDGE,MA,1550,25027,WORCESTER,1122.0,NURSING HOME,UNCODED,NOT APPLICABLE,101 TO 500,NOT APPLICABLE,UNCODED,PUBLIC,>2000,141.0
339,SOUTHBRIDGE PUBLIC SCHOOL DISTRICT,41 ELM ST,SOUTHBRIDGE,MA,1550,25027,WORCESTER,1122.0,SCHOOL DISTRICTS,251-500,2001 TO 5000,NOT APPLICABLE,6 TO 9,UNCODED,PUBLIC,>2000,102.0
340,HARRINGTON MEMORIAL HOSPITAL,100 SOUTH ST,SOUTHBRIDGE,MA,1550,25027,WORCESTER,1122.0,HOSPITALS,501-750,NOT APPLICABLE,101 TO 500,NOT APPLICABLE,SELF-OPERATED,UNCODED,>2000,27.3
341,ATLANTIC UNION COLLEGE,PO BOX 1000,SOUTH LANCASTER,MA,1561,25027,WORCESTER,1122.0,4 YEAR COLLEGE & UNIVERSITIES,UNCODED,501 TO 1000,NOT APPLICABLE,NOT APPLICABLE,UNCODED,PRIVATE,501 TO 1000,102.0
342,4-H CAMP MARSHALL,92 MCCORMICK RD,SPENCER,MA,1562,25027,WORCESTER,1122.0,"CENTERS FOR CHILDREN, SUMMER CAMPS",UNCODED,NOT APPLICABLE,NOT APPLICABLE,NOT APPLICABLE,UNCODED,UNCODED,>2000,102.0
343,ST JOSEPHS INSTITUTE OF THEOLOGY,167 N SPENCER RD,SPENCER,MA,1562,25027,WORCESTER,1122.0,TECHNICAL AND TRADE SCHOOLS,UNCODED,250 AND LESS,NOT APPLICABLE,NOT APPLICABLE,UNCODED,RELIGIOUS,101 TO 250,102.0
344,SPENCER EAST BROOKFIELD REG SCHL DIST,306 MAIN ST,SPENCER,MA,1562,25027,WORCESTER,1122.0,SCHOOL DISTRICTS,251-500,2001 TO 5000,NOT APPLICABLE,6 TO 9,UNCODED,PUBLIC,>2000,102.0
345,STERLING SENIOR CENTER,PO BOX 243,STERLING,MA,1564,25027,WORCESTER,1122.0,"SOCIAL AND PRIVATE CLUBS, LEGIONS, FRATERNITIES",UNCODED,NOT APPLICABLE,NOT APPLICABLE,NOT APPLICABLE,UNCODED,UNCODED,51 TO 100,102.0
346,STERLING NURSERY SCHOOL,123 ROWLEY HILL RD,STERLING,MA,1564,25027,WORCESTER,1122.0,"PRE-K, KINDERGARTEN, CHILD CARE",UNCODED,UNCODED,NOT APPLICABLE,NOT APPLICABLE,UNCODED,UNCODED,501 TO 1000,102.0
347,STERLING HEALTH CARE CENTER,18 DANA HILL RD,STERLING,MA,1564,25027,WORCESTER,1122.0,NURSING HOME,UNCODED,NOT APPLICABLE,101 TO 500,NOT APPLICABLE,UNCODED,PUBLIC,>2000,139.0
348,STURBRIDGE COUNCIL ON AGING-SENIOR CTR,PO BOX 746,STURBRIDGE,MA,1566,25027,WORCESTER,1122.0,"SOCIAL AND PRIVATE CLUBS, LEGIONS, FRATERNITIES",UNCODED,NOT APPLICABLE,NOT APPLICABLE,NOT APPLICABLE,UNCODED,UNCODED,51 TO 100,102.0
349,UPTON SENIOR CENTER,PO BOX 610,UPTON,MA,1568,25027,WORCESTER,1122.0,"SOCIAL AND PRIVATE CLUBS, LEGIONS, FRATERNITIES",UNCODED,NOT APPLICABLE,NOT APPLICABLE,NOT APPLICABLE,UNCODED,UNCODED,51 TO 100,102.0
350,BLACKSTONE VALLEYVOC REG TECH SCH DIST,65 PLEASANT ST,UPTON,MA,1568,25027,WORCESTER,1122.0,SCHOOL DISTRICTS,UNCODED,1001 TO 2000,NOT APPLICABLE,1,UNCODED,PUBLIC,1001 TO 2000,102.0
351,LYDIA TAFT HOUSE,60 QUAKER HWY,UXBRIDGE,MA,1569,25027,WORCESTER,1122.0,NURSING HOME,UNCODED,NOT APPLICABLE,51 TO 100,NOT APPLICABLE,UNCODED,PUBLIC,1001 TO 2000,48.0
352,UXBRIDGE SENIOR CENTER,36 S MAIN ST,UXBRIDGE,MA,1569,25027,WORCESTER,1122.0,"SOCIAL AND PRIVATE CLUBS, LEGIONS, FRATERNITIES",UNCODED,NOT APPLICABLE,NOT APPLICABLE,NOT APPLICABLE,UNCODED,UNCODED,51 TO 100,102.0
353,UXBRIDGE PUBLIC SCHOOL DISTRICT,21 S MAIN ST,UXBRIDGE,MA,1569,25027,WORCESTER,1122.0,SCHOOL DISTRICTS,UNCODED,2001 TO 5000,NOT APPLICABLE,3 TO 5,UNCODED,PUBLIC,>2000,102.0
354,COMMERCE INSURANCE CHILDCARE CENTER,58 BIGELOW RD,WEBSTER,MA,1570,25027,WORCESTER,1122.0,"PRE-K, KINDERGARTEN, CHILD CARE",UNCODED,UNCODED,NOT APPLICABLE,NOT APPLICABLE,UNCODED,UNCODED,501 TO 1000,102.0
355,THE COLONIEL HEALTH GROUP-TCU,340 THOMPSON RD,WEBSTER,MA,1570,25027,WORCESTER,1122.0,NURSING HOME,UNCODED,NOT APPLICABLE,1 TO 50,NOT APPLICABLE,UNCODED,PUBLIC,501 TO 1000,13.0
356,OAKWOOD REHAB AND NURSING CENTER,11 PONTIAC AVE,WEBSTER,MA,1570,25027,WORCESTER,1122.0,NURSING HOME,UNCODED,NOT APPLICABLE,51 TO 100,NOT APPLICABLE,UNCODED,PUBLIC,1001 TO 2000,76.0
357,WEBSTER MANOR,745 SCHOOL ST,WEBSTER,MA,1570,25027,WORCESTER,1122.0,NURSING HOME,UNCODED,NOT APPLICABLE,101 TO 500,NOT APPLICABLE,OTHER CONTRACTED,PUBLIC,>2000,135.0
358,LANESSA EXTENDED CARE,751 SCHOOL ST,WEBSTER,MA,1570,25027,WORCESTER,1122.0,NURSING HOME,UNCODED,NOT APPLICABLE,51 TO 100,NOT APPLICABLE,UNCODED,PUBLIC,1001 TO 2000,95.0
359,WEBSTER SENIOR CENTER,116 SCHOOL ST,WEBSTER,MA,1570,25027,WORCESTER,1122.0,"SOCIAL AND PRIVATE CLUBS, LEGIONS, FRATERNITIES",UNCODED,NOT APPLICABLE,NOT APPLICABLE,NOT APPLICABLE,UNCODED,UNCODED,51 TO 100,102.0
360,NICHOLS COLLEGE,PO BOX 5000,DUDLEY,MA,1571,25027,WORCESTER,1122.0,4 YEAR COLLEGE & UNIVERSITIES,UNCODED,1001 TO 2000,NOT APPLICABLE,NOT APPLICABLE,SODEXO,PRIVATE,1001 TO 2000,102.0
361,DUDLEY-CHARLTON REGIONAL SCHOOL DISTRICT,68 DUDLEY OXFORD RD,DUDLEY,MA,1571,25027,WORCESTER,1122.0,SCHOOL DISTRICTS,251-500,2001 TO 5000,NOT APPLICABLE,6 TO 9,UNCODED,PUBLIC,>2000,102.0
362,CHAUNCY HALL ACADEMY RESIDENTIAL TRTMNT,187 LYMAN ST,WESTBOROUGH,MA,1581,25027,WORCESTER,1122.0,"CENTERS FOR REHABILITATION AND READAPTION, ADULT DAY CARE",UNCODED,NOT APPLICABLE,UNCODED,NOT APPLICABLE,UNCODED,UNCODED,51 TO 100,102.0
363,WESTBOROUGH STATE HOSPITAL,PO BOX 288,WESTBOROUGH,MA,1581,25027,WORCESTER,1122.0,HOSPITALS,251-500,NOT APPLICABLE,101 TO 500,NOT APPLICABLE,UNCODED,UNCODED,>2000,194.7
364,MULBERRY CHILD CARE AND PRESCHOOL,95 E MAIN ST,WESTBOROUGH,MA,1581,25027,WORCESTER,1122.0,"PRE-K, KINDERGARTEN, CHILD CARE",UNCODED,UNCODED,NOT APPLICABLE,NOT APPLICABLE,OTHER CONTRACTED,UNCODED,501 TO 1000,102.0
365,BEAUMONT REHABILITATION SKILLED NURSING,1 LYMAN ST,WESTBOROUGH,MA,1581,25027,WORCESTER,1122.0,NURSING HOME,UNCODED,NOT APPLICABLE,101 TO 500,NOT APPLICABLE,UNCODED,PUBLIC,>2000,147.0
366,WESTBORO SENIOR CENTER,4 ROGERS RD,WESTBOROUGH,MA,1581,25027,WORCESTER,1122.0,"SOCIAL AND PRIVATE CLUBS, LEGIONS, FRATERNITIES",UNCODED,NOT APPLICABLE,NOT APPLICABLE,NOT APPLICABLE,UNCODED,UNCODED,51 TO 100,102.0
367,NEXT GENERATION CHILDRENS CENTER,4600 COMPUTER DR,WESTBOROUGH,MA,1581,25027,WORCESTER,1122.0,"PRE-K, KINDERGARTEN, CHILD CARE",UNCODED,UNCODED,NOT APPLICABLE,NOT APPLICABLE,UNCODED,UNCODED,501 TO 1000,102.0
368,J HARDING ARMSTRONG ELEMENTARY SCHOOL,50 WEST ST,WESTBOROUGH,MA,1581,25027,WORCESTER,1122.0,PRIMARY SCHOOL,UNCODED,251 TO 500,NOT APPLICABLE,NOT APPLICABLE,UNCODED,PUBLIC,251 TO 500,102.0
369,WESTBORO AREA JEWISH COMM PRESCHOOL,45 OAK ST,WESTBOROUGH,MA,1581,25027,WORCESTER,1122.0,"PRE-K, KINDERGARTEN, CHILD CARE",UNCODED,UNCODED,NOT APPLICABLE,NOT APPLICABLE,UNCODED,UNCODED,501 TO 1000,102.0
370,SPECTRUM HOUSE PRIMARY CARE-AODA PRGMS,PO BOX 1208,WESTBOROUGH,MA,1581,25027,WORCESTER,1122.0,OTHER HEALTHCARE ESTABLISHMENTS,UNCODED,NOT APPLICABLE,UNCODED,NOT APPLICABLE,UNCODED,UNCODED,51 TO 100,102.0
371,WHITTIER REHABILITATION HOSPITAL,PO BOX 1250,WESTBOROUGH,MA,1581,25027,WORCESTER,1122.0,HOSPITALS,UNCODED,NOT APPLICABLE,51 TO 100,NOT APPLICABLE,UNCODED,UNCODED,1001 TO 2000,102.0
372,OAKDALE REHABILITATION,76 N MAIN ST,WEST BOYLSTON,MA,1583,25027,WORCESTER,1122.0,NURSING HOME,UNCODED,NOT APPLICABLE,51 TO 100,NOT APPLICABLE,UNCODED,PUBLIC,1001 TO 2000,78.0
373,WEST BOYLSTON COUNCIL ON AGING-SR CTR,120 PRESCOTT ST,WEST BOYLSTON,MA,1583,25027,WORCESTER,1122.0,"SOCIAL AND PRIVATE CLUBS, LEGIONS, FRATERNITIES",UNCODED,NOT APPLICABLE,NOT APPLICABLE,NOT APPLICABLE,UNCODED,UNCODED,51 TO 100,102.0
374,WORCESTER CO HOUSE OF CORR-SHERIFFS DEPT,5 PAUL X TIVNAN DR,WEST BOYLSTON,MA,1583,25027,WORCESTER,1122.0,PRISONS,UNCODED,NOT APPLICABLE,UNCODED,NOT APPLICABLE,UNCODED,UNCODED,51 TO 100,102.0
375,WEST BROOKFIELD SENIOR CENTER,PO BOX 207,WEST BROOKFIELD,MA,1585,25027,WORCESTER,1122.0,"SOCIAL AND PRIVATE CLUBS, LEGIONS, FRATERNITIES",UNCODED,NOT APPLICABLE,NOT APPLICABLE,NOT APPLICABLE,UNCODED,UNCODED,51 TO 100,102.0
376,QUABOAG ON THE COMMON,47 E MAIN ST,WEST BROOKFIELD,MA,1585,25027,WORCESTER,1122.0,NURSING HOME,UNCODED,NOT APPLICABLE,101 TO 500,NOT APPLICABLE,UNCODED,PUBLIC,>2000,128.0
377,ST CAMILLUS HEALTH CENTER,447 HILL ST,WHITINSVILLE,MA,1588,25027,WORCESTER,1122.0,NURSING HOME,UNCODED,NOT APPLICABLE,101 TO 500,NOT APPLICABLE,OTHER CONTRACTED,PUBLIC,>2000,114.0
378,NORTHBRIDGE SENIOR CENTER,20 HIGHLAND ST,WHITINSVILLE,MA,1588,25027,WORCESTER,1122.0,"SOCIAL AND PRIVATE CLUBS, LEGIONS, FRATERNITIES",UNCODED,NOT APPLICABLE,NOT APPLICABLE,NOT APPLICABLE,UNCODED,UNCODED,51 TO 100,102.0
379,SUTTON PUBLIC SCHOOLS,383 BOSTON RD,SUTTON,MA,1590,25027,WORCESTER,1122.0,SCHOOL DISTRICTS,1-250,2001 TO 5000,NOT APPLICABLE,3 TO 5,UNCODED,PUBLIC,>2000,102.0
380,SUTTON SENIOR CENTER,19 HOUGH RD,SUTTON,MA,1590,25027,WORCESTER,1122.0,"SOCIAL AND PRIVATE CLUBS, LEGIONS, FRATERNITIES",UNCODED,NOT APPLICABLE,NOT APPLICABLE,NOT APPLICABLE,UNCODED,UNCODED,51 TO 100,102.0
381,WORCESTER PUBLIC INEBRIATE PRGM-AODA SVC,PO BOX 17078,WORCESTER,MA,1601,25027,WORCESTER,1122.0,OTHER HEALTHCARE ESTABLISHMENTS,UNCODED,NOT APPLICABLE,UNCODED,NOT APPLICABLE,UNCODED,UNCODED,51 TO 100,102.0
382,GOLDEN LIVING CENTER-WORCHESTER,383 MILL ST,WORCESTER,MA,1602,25027,WORCESTER,1122.0,NURSING HOME,UNCODED,NOT APPLICABLE,101 TO 500,NOT APPLICABLE,UNCODED,PUBLIC,>2000,94.0
383,WORCESTER STATE COLLEGE,486 CHANDLER ST,WORCESTER,MA,1602,25027,WORCESTER,1122.0,4 YEAR COLLEGE & UNIVERSITIES,UNCODED,OVER 5000,NOT APPLICABLE,NOT APPLICABLE,COMPASS,PUBLIC,>2000,102.0
384,G STANLEY HALL SCHOOL,4 MANN ST,WORCESTER,MA,1602,25027,WORCESTER,1122.0,PRIMARY SCHOOL,UNCODED,250 AND LESS,NOT APPLICABLE,NOT APPLICABLE,UNCODED,PRIVATE,101 TO 250,102.0
385,FAIRLAWN REHABILITATION HOSPITAL,189 MAY ST,WORCESTER,MA,1602,25027,WORCESTER,1122.0,HOSPITALS,1-250,NOT APPLICABLE,101 TO 500,NOT APPLICABLE,SODEXO,UNCODED,>2000,73.6
386,JEREMIAHS INN-SUBSTANCE ABUSE TREATMENT,PO BOX 30035,WORCESTER,MA,1603,25027,WORCESTER,1122.0,OTHER HEALTHCARE ESTABLISHMENTS,UNCODED,NOT APPLICABLE,UNCODED,NOT APPLICABLE,UNCODED,UNCODED,51 TO 100,102.0
387,HEARD STREET DISCOVERY ACADEMY,200 HEARD ST,WORCESTER,MA,1603,25027,WORCESTER,1122.0,PRIMARY SCHOOL,UNCODED,251 TO 500,NOT APPLICABLE,NOT APPLICABLE,UNCODED,PRIVATE,251 TO 500,102.0
388,HOME FOR AGED WOMEN WASHBURN HOUSE,1183 MAIN ST,WORCESTER,MA,1603,25027,WORCESTER,1122.0,NURSING HOME,UNCODED,NOT APPLICABLE,1 TO 50,NOT APPLICABLE,UNCODED,PUBLIC,501 TO 1000,25.0
389,SEVEN HILLS ADULT DAY HEALTH PROGRAM,81 HOPE AVE,WORCESTER,MA,1603,25027,WORCESTER,1122.0,"CENTERS FOR REHABILITATION AND READAPTION, ADULT DAY CARE",UNCODED,NOT APPLICABLE,51 TO 100,NOT APPLICABLE,UNCODED,UNCODED,251 TO 500,102.0
390,CANTERBURY STREET ELEMENTARY SCHOOL,129 CANTERBURY ST,WORCESTER,MA,1603,25027,WORCESTER,1122.0,PRIMARY SCHOOL,UNCODED,251 TO 500,NOT APPLICABLE,NOT APPLICABLE,UNCODED,PRIVATE,251 TO 500,102.0
391,COMM HEALTHLINK YOUTH-FAMILY SRVS AODA,275 BELMONT ST,WORCESTER,MA,1604,25027,WORCESTER,1122.0,OTHER HEALTHCARE ESTABLISHMENTS,UNCODED,NOT APPLICABLE,UNCODED,NOT APPLICABLE,UNCODED,UNCODED,51 TO 100,102.0
392,WORCESTER STATE HOSPITAL,305 BELMONT ST,WORCESTER,MA,1604,25027,WORCESTER,1122.0,HOSPITALS,251-500,NOT APPLICABLE,101 TO 500,NOT APPLICABLE,UNCODED,UNCODED,>2000,120.4
393,YOU INC-SUBSTANCE ABUSE TREATMENT PRGMS,81 PLANTATION ST,WORCESTER,MA,1604,25027,WORCESTER,1122.0,OTHER HEALTHCARE ESTABLISHMENTS,UNCODED,NOT APPLICABLE,UNCODED,NOT APPLICABLE,UNCODED,UNCODED,51 TO 100,102.0
394,SAINT FRANCIS HOME,101 PLANTATION ST,WORCESTER,MA,1604,25027,WORCESTER,1122.0,NURSING HOME,UNCODED,NOT APPLICABLE,101 TO 500,NOT APPLICABLE,UNCODED,PUBLIC,>2000,129.0
395,BLAIRE HOUSE OF WORCESTER,116 HOUGHTON ST,WORCESTER,MA,1604,25027,WORCESTER,1122.0,NURSING HOME,UNCODED,NOT APPLICABLE,51 TO 100,NOT APPLICABLE,UNCODED,PUBLIC,1001 TO 2000,71.0
396,RADIUS HEALTHCARE CENTER AT WORCESTER,119 PROVIDENCE ST,WORCESTER,MA,1604,25027,WORCESTER,1122.0,NURSING HOME,UNCODED,NOT APPLICABLE,101 TO 500,NOT APPLICABLE,UNCODED,PUBLIC,>2000,123.0
397,GUILD OF ST AGNES-GRANITE STREET DAYCARE,133 GRANITE ST,WORCESTER,MA,1604,25027,WORCESTER,1122.0,"PRE-K, KINDERGARTEN, CHILD CARE",UNCODED,UNCODED,NOT APPLICABLE,NOT APPLICABLE,UNCODED,UNCODED,501 TO 1000,102.0
398,SPECTRUM HEALTH SYS OTPTNT SVCS-AODA,585 LINCOLN ST,WORCESTER,MA,1605,25027,WORCESTER,1122.0,OTHER HEALTHCARE ESTABLISHMENTS,UNCODED,NOT APPLICABLE,UNCODED,NOT APPLICABLE,UNCODED,UNCODED,51 TO 100,102.0
399,AUTUMN VILLAGE,25 ORIOL DR,WORCESTER,MA,1605,25027,WORCESTER,1122.0,NURSING HOME,UNCODED,NOT APPLICABLE,101 TO 500,NOT APPLICABLE,UNCODED,PUBLIC,>2000,142.0
400,NOTRE DAME LONG TERM CARE CENTER,559 PLANTATION ST,WORCESTER,MA,1605,25027,WORCESTER,1122.0,NURSING HOME,UNCODED,NOT APPLICABLE,101 TO 500,NOT APPLICABLE,UNCODED,PUBLIC,>2000,121.0
401,KEY PROGRAM,104 LINCOLN ST,WORCESTER,MA,1605,25027,WORCESTER,1122.0,"CENTERS FOR REHABILITATION AND READAPTION, ADULT DAY CARE",UNCODED,NOT APPLICABLE,UNCODED,NOT APPLICABLE,UNCODED,UNCODED,51 TO 100,102.0
402,ADCARE HOSPITAL OF WORCESTER,107 LINCOLN ST,WORCESTER,MA,1605,25027,WORCESTER,1122.0,HOSPITALS,251-500,NOT APPLICABLE,101 TO 500,NOT APPLICABLE,OTHER CONTRACTED,UNCODED,>2000,99.2
403,UNIV OF MASSACHUSETTS MEM REHABILITATION,15 BELMONT ST,WORCESTER,MA,1605,25027,WORCESTER,1122.0,"CENTERS FOR REHABILITATION AND READAPTION, ADULT DAY CARE",UNCODED,NOT APPLICABLE,UNCODED,NOT APPLICABLE,UNCODED,UNCODED,51 TO 100,102.0
404,H L WILLIS STARTING POINT RSDNTL TRTMNT,25 CATHARINE ST,WORCESTER,MA,1605,25027,WORCESTER,1122.0,"CENTERS FOR REHABILITATION AND READAPTION, ADULT DAY CARE",UNCODED,NOT APPLICABLE,UNCODED,NOT APPLICABLE,UNCODED,UNCODED,51 TO 100,102.0
405,CHRISTOPHER HOUSE OF WORCESTER,10 MARY SCANO DR,WORCESTER,MA,1605,25027,WORCESTER,1122.0,NURSING HOME,UNCODED,NOT APPLICABLE,101 TO 500,NOT APPLICABLE,OTHER CONTRACTED,PUBLIC,>2000,153.0
406,WORCESTER TECHNICAL HIGH SCHOOL,1 SKYLINE DR,WORCESTER,MA,1605,25027,WORCESTER,1122.0,SECONDARY SCHOOL,UNCODED,501 TO 1000,NOT APPLICABLE,NOT APPLICABLE,UNCODED,PRIVATE,501 TO 1000,102.0
407,UMASS MEMORIAL MEDICAL CENTER,119 BELMONT ST,WORCESTER,MA,1605,25027,WORCESTER,1122.0,HOSPITALS,UNCODED,NOT APPLICABLE,101 TO 500,NOT APPLICABLE,COMPASS,UNCODED,>2000,102.0
408,WINTER HILL REST HOME,24 CHESTER ST,WORCESTER,MA,1605,25027,WORCESTER,1122.0,ASSISTED LIVING,UNCODED,NOT APPLICABLE,1 TO 50,NOT APPLICABLE,UNCODED,PUBLIC,501 TO 1000,102.0
409,LINDA FAY GRIFFIN HOUSE-SBSTNC ABUSE SVC,15 NORTHAMPTON ST,WORCESTER,MA,1605,25027,WORCESTER,1122.0,OTHER HEALTHCARE ESTABLISHMENTS,UNCODED,NOT APPLICABLE,UNCODED,NOT APPLICABLE,UNCODED,UNCODED,51 TO 100,102.0
410,GREAT BROOK VALLEY HEALTH CENTER-AODA,19 TACOMA ST,WORCESTER,MA,1605,25027,WORCESTER,1122.0,OTHER HEALTHCARE ESTABLISHMENTS,UNCODED,NOT APPLICABLE,UNCODED,NOT APPLICABLE,UNCODED,UNCODED,51 TO 100,102.0
411,SUMMIT ELDERCARE-FALLON ADULT DAY CARE,277 E MOUNTAIN ST,WORCESTER,MA,1606,25027,WORCESTER,1122.0,"CENTERS FOR REHABILITATION AND READAPTION, ADULT DAY CARE",UNCODED,NOT APPLICABLE,101 TO 500,NOT APPLICABLE,UNCODED,UNCODED,501 TO 1000,102.0
412,CLARK STREET DEVELOPMENTAL LEARNING CTR,280 CLARK ST,WORCESTER,MA,1606,25027,WORCESTER,1122.0,PRIMARY SCHOOL,UNCODED,251 TO 500,NOT APPLICABLE,NOT APPLICABLE,UNCODED,PRIVATE,251 TO 500,102.0
413,KNOLLWOOD NURSING CENTER,87 BRIARWOOD CIR,WORCESTER,MA,1606,25027,WORCESTER,1122.0,NURSING HOME,UNCODED,NOT APPLICABLE,51 TO 100,NOT APPLICABLE,UNCODED,PUBLIC,1001 TO 2000,76.0
414,BURNCOAT STREET PREPARATORY SCHOOL,526 BURNCOAT ST,WORCESTER,MA,1606,25027,WORCESTER,1122.0,SECONDARY SCHOOL,UNCODED,250 AND LESS,NOT APPLICABLE,NOT APPLICABLE,UNCODED,PRIVATE,101 TO 250,102.0
415,QUINSIGAMOND COMMUNITY COLLEGE,670 W BOYLSTON ST,WORCESTER,MA,1606,25027,WORCESTER,1122.0,2 YEAR COLLEGE & UNIVERSITIES,UNCODED,OVER 5000,NOT APPLICABLE,NOT APPLICABLE,UNCODED,PUBLIC,>2000,102.0
416,FAITH HOUSE-SUBSTANCE ABUSE TREATMENT,142 BURNCOAT ST,WORCESTER,MA,1606,25027,WORCESTER,1122.0,OTHER HEALTHCARE ESTABLISHMENTS,UNCODED,NOT APPLICABLE,UNCODED,NOT APPLICABLE,UNCODED,UNCODED,51 TO 100,102.0
417,E ORTHODOX HOLY TRINITY NURSING REHB CTR,300 BARBER AVE,WORCESTER,MA,1606,25027,WORCESTER,1122.0,NURSING HOME,UNCODED,NOT APPLICABLE,101 TO 500,NOT APPLICABLE,UNCODED,PUBLIC,>2000,105.0
418,ODD FELLOWS HOME OF MA,104 RANDOLPH RD,WORCESTER,MA,1606,25027,WORCESTER,1122.0,NURSING HOME,UNCODED,NOT APPLICABLE,51 TO 100,NOT APPLICABLE,UNCODED,PUBLIC,1001 TO 2000,82.0
419,ABBY KELLEY FOSTER CHARTER PUBLIC SCH,10 NEW BOND ST,WORCESTER,MA,1606,25027,WORCESTER,1122.0,PRIMARY SCHOOL,UNCODED,1001 TO 2000,NOT APPLICABLE,NOT APPLICABLE,UNCODED,PRIVATE,1001 TO 2000,102.0
420,THE SALTER SCHOOL,155 ARARAT ST,WORCESTER,MA,1606,25027,WORCESTER,1122.0,2 YEAR COLLEGE & UNIVERSITIES,UNCODED,UNCODED,NOT APPLICABLE,NOT APPLICABLE,UNCODED,PRIVATE,51 TO 100,102.0
421,VERNON HILL ELEM4ENTARY SCHOOL,211 PROVIDENCE ST,WORCESTER,MA,1607,25027,WORCESTER,1122.0,PRIMARY SCHOOL,UNCODED,251 TO 500,NOT APPLICABLE,NOT APPLICABLE,UNCODED,PRIVATE,251 TO 500,102.0
422,YOUTH OPPORTUNITIES UPHELD RES TRTMNT,129 BLACKSTONE RIVER RD,WORCESTER,MA,1607,25027,WORCESTER,1122.0,"CENTERS FOR REHABILITATION AND READAPTION, ADULT DAY CARE",UNCODED,NOT APPLICABLE,UNCODED,NOT APPLICABLE,UNCODED,UNCODED,51 TO 100,102.0
423,SAINT VINCENT HOSPITAL,123 SUMMER ST,WORCESTER,MA,1608,25027,WORCESTER,1122.0,HOSPITALS,1000+,NOT APPLICABLE,101 TO 500,NOT APPLICABLE,SODEXO,UNCODED,>2000,201.0
424,HENRY L WILLIS COMMUNITY CTR-OTPTNT AODA,44 FRONT ST,WORCESTER,MA,1608,25027,WORCESTER,1122.0,OTHER HEALTHCARE ESTABLISHMENTS,UNCODED,NOT APPLICABLE,UNCODED,NOT APPLICABLE,UNCODED,UNCODED,51 TO 100,102.0
425,YWCA CHILDCARE CENTER,1 SALEM SQ,WORCESTER,MA,1608,25027,WORCESTER,1122.0,"PRE-K, KINDERGARTEN, CHILD CARE",UNCODED,UNCODED,NOT APPLICABLE,NOT APPLICABLE,UNCODED,UNCODED,501 TO 1000,102.0
426,JEWISH HEALTHCARE CENTER,629 SALISBURY ST,WORCESTER,MA,1609,25027,WORCESTER,1122.0,NURSING HOME,UNCODED,NOT APPLICABLE,101 TO 500,NOT APPLICABLE,UNCODED,PUBLIC,>2000,138.0
427,ASSUMPTION COLLEGE,500 SALISBURY ST,WORCESTER,MA,1609,25027,WORCESTER,1122.0,4 YEAR COLLEGE & UNIVERSITIES,UNCODED,2001 TO 5000,NOT APPLICABLE,NOT APPLICABLE,SODEXO,RELIGIOUS,>2000,102.0
428,WEST SIDE HOUSE,35 FRUIT ST,WORCESTER,MA,1609,25027,WORCESTER,1122.0,NURSING HOME,UNCODED,NOT APPLICABLE,51 TO 100,NOT APPLICABLE,UNCODED,PUBLIC,1001 TO 2000,85.0
429,WORCESTER POLYTECHNIC INSTITUTE,100 INSTITUTE RD,WORCESTER,MA,1609,25027,WORCESTER,1122.0,4 YEAR COLLEGE & UNIVERSITIES,UNCODED,2001 TO 5000,NOT APPLICABLE,NOT APPLICABLE,COMPASS,PRIVATE,>2000,102.0
430,WORCESTER PUBLIC SCHOOL DISTRICT,20 IRVING ST,WORCESTER,MA,1609,25027,WORCESTER,1122.0,SCHOOL DISTRICTS,1000+,OVER 5000,NOT APPLICABLE,10 AND PLUS,UNCODED,PUBLIC,>2000,102.0
431,FAMILY SERVICES OF CENTRAL MA EAS-AODA,31 HARVARD ST,WORCESTER,MA,1609,25027,WORCESTER,1122.0,OTHER HEALTHCARE ESTABLISHMENTS,UNCODED,NOT APPLICABLE,UNCODED,NOT APPLICABLE,UNCODED,UNCODED,51 TO 100,102.0
432,LUTHERAN HOME OF WORCESTER,26 HARVARD ST,WORCESTER,MA,1609,25027,WORCESTER,1122.0,NURSING HOME,UNCODED,NOT APPLICABLE,101 TO 500,NOT APPLICABLE,UNCODED,PUBLIC,>2000,92.0
433,CLARK UNIVERSITY,950 MAIN ST,WORCESTER,MA,1610,25027,WORCESTER,1122.0,4 YEAR COLLEGE & UNIVERSITIES,UNCODED,2001 TO 5000,NOT APPLICABLE,NOT APPLICABLE,SODEXO,PRIVATE,>2000,102.0
434,COLLEGE OF THE HOLY CROSS,1 COLLEGE ST,WORCESTER,MA,1610,25027,WORCESTER,1122.0,4 YEAR COLLEGE & UNIVERSITIES,UNCODED,2001 TO 5000,NOT APPLICABLE,NOT APPLICABLE,SELF-OPERATED,RELIGIOUS,>2000,102.0
435,ST MARY HEALTH CARE,39 QUEEN ST,WORCESTER,MA,1610,25027,WORCESTER,1122.0,NURSING HOME,UNCODED,NOT APPLICABLE,101 TO 500,NOT APPLICABLE,OTHER CONTRACTED,PUBLIC,>2000,119.0
436,FAMILY HEALTH SOCIAL SERVICES CENTER,26 QUEEN ST,WORCESTER,MA,1610,25027,WORCESTER,1122.0,OTHER HEALTHCARE ESTABLISHMENTS,UNCODED,NOT APPLICABLE,UNCODED,NOT APPLICABLE,UNCODED,UNCODED,51 TO 100,102.0
437,COMMUNITY HEALTHLINK-SUBSTANCE ABUSE SVC,72 JAQUES AVE,WORCESTER,MA,1610,25027,WORCESTER,1122.0,OTHER HEALTHCARE ESTABLISHMENTS,UNCODED,NOT APPLICABLE,UNCODED,NOT APPLICABLE,UNCODED,UNCODED,51 TO 100,102.0
438,DALTON REST HOME,453 CAMBRIDGE ST,WORCESTER,MA,1610,25027,WORCESTER,1122.0,ASSISTED LIVING,UNCODED,NOT APPLICABLE,1 TO 50,NOT APPLICABLE,UNCODED,PUBLIC,501 TO 1000,102.0
439,JOHN BAUER SENIOR CENTER,17 WEST ST,PAXTON,MA,1612,25027,WORCESTER,1122.0,"SOCIAL AND PRIVATE CLUBS, LEGIONS, FRATERNITIES",UNCODED,NOT APPLICABLE,NOT APPLICABLE,NOT APPLICABLE,UNCODED,UNCODED,51 TO 100,102.0
440,ANNA MARIA COLLEGE,50 SUNSET LN,PAXTON,MA,1612,25027,WORCESTER,1122.0,4 YEAR COLLEGE & UNIVERSITIES,UNCODED,1001 TO 2000,NOT APPLICABLE,NOT APPLICABLE,SODEXO,RELIGIOUS,1001 TO 2000,102.0
441,BECKER COLLEGE-WORCESTER,PO BOX 15071,WORCESTER,MA,1615,25027,WORCESTER,1122.0,4 YEAR COLLEGE & UNIVERSITIES,UNCODED,1001 TO 2000,NOT APPLICABLE,NOT APPLICABLE,SODEXO,PRIVATE,1001 TO 2000,102.0
442,UMASS MEMORIAL MEDICAL CTR UNIV CAMPUS,55 LAKE AVE N,WORCESTER,MA,1655,25027,WORCESTER,1122.0,HOSPITALS,UNCODED,NOT APPLICABLE,501 TO 1000,NOT APPLICABLE,COMPASS,UNCODED,>2000,102.0
443,SOUTH MIDDLESEX CORRECTIONAL CENTER,PO BOX 850,FRAMINGHAM,MA,1701,25017,MIDDLESEX,1122.0,PRISONS,UNCODED,NOT APPLICABLE,UNCODED,NOT APPLICABLE,UNCODED,UNCODED,>2000,102.0
444,RESIDENT CARE REHAB AND NURSING CENTER,PO BOX 887,FRAMINGHAM,MA,1701,25017,MIDDLESEX,1122.0,NURSING HOME,UNCODED,NOT APPLICABLE,51 TO 100,NOT APPLICABLE,UNCODED,PUBLIC,1001 TO 2000,91.0
445,OAK KNOLL HEALTHCARE CENTER,9 ARBETTER DR,FRAMINGHAM,MA,1701,25017,MIDDLESEX,1122.0,NURSING HOME,UNCODED,NOT APPLICABLE,101 TO 500,NOT APPLICABLE,UNCODED,PUBLIC,>2000,116.0
446,MULBERRY CHILD CARE CENTER,770 COCHITUATE RD,FRAMINGHAM,MA,1701,25017,MIDDLESEX,1122.0,"PRE-K, KINDERGARTEN, CHILD CARE",UNCODED,UNCODED,NOT APPLICABLE,NOT APPLICABLE,UNCODED,UNCODED,501 TO 1000,102.0
447,WAYSIDE HARBINGER HOUSE-SUBSTANCE ABUSE,85 EDGELL RD,FRAMINGHAM,MA,1701,25017,MIDDLESEX,1122.0,OTHER HEALTHCARE ESTABLISHMENTS,UNCODED,NOT APPLICABLE,UNCODED,NOT APPLICABLE,UNCODED,UNCODED,51 TO 100,102.0
448,ST PATRICKS MANOR INC,863 CENTRAL ST,FRAMINGHAM,MA,1701,25017,MIDDLESEX,1122.0,NURSING HOME,UNCODED,NOT APPLICABLE,101 TO 500,NOT APPLICABLE,OTHER CONTRACTED,PUBLIC,>2000,326.0
449,MASSACHUSETTS CORRECTIONAL INSTITUTION,PO BOX 9007,FRAMINGHAM,MA,1701,25017,MIDDLESEX,1122.0,PRISONS,UNCODED,NOT APPLICABLE,UNCODED,NOT APPLICABLE,UNCODED,UNCODED,>2000,102.0
450,FRAMINGHAM STATE COLLEGE,PO BOX 9101,FRAMINGHAM,MA,1701,25017,MIDDLESEX,1122.0,4 YEAR COLLEGE & UNIVERSITIES,UNCODED,OVER 5000,NOT APPLICABLE,NOT APPLICABLE,SODEXO,PUBLIC,>2000,102.0
451,COUNTRYSIDE NURSING HOME,153 WINTER ST,FRAMINGHAM,MA,1702,25017,MIDDLESEX,1122.0,NURSING HOME,UNCODED,NOT APPLICABLE,1 TO 50,NOT APPLICABLE,UNCODED,PUBLIC,501 TO 1000,30.0
452,STAPLES CHILD CARE CENTER,600 STAPLES DR,FRAMINGHAM,MA,1702,25017,MIDDLESEX,1122.0,"PRE-K, KINDERGARTEN, CHILD CARE",UNCODED,UNCODED,NOT APPLICABLE,NOT APPLICABLE,UNCODED,UNCODED,501 TO 1000,102.0
453,CARLYLE HOUSE REHAB NURSING FACILITY,342 WINTER ST,FRAMINGHAM,MA,1702,25017,MIDDLESEX,1122.0,NURSING HOME,UNCODED,NOT APPLICABLE,51 TO 100,NOT APPLICABLE,UNCODED,PUBLIC,1001 TO 2000,55.0
454,KATHLEEN DANIEL REHAB AND NURSING CENTER,485 FRANKLIN ST,FRAMINGHAM,MA,1702,25017,MIDDLESEX,1122.0,NURSING HOME,UNCODED,NOT APPLICABLE,101 TO 500,NOT APPLICABLE,UNCODED,PUBLIC,>2000,122.0
455,METROWEST MEDICAL CENTER,115 LINCOLN ST,FRAMINGHAM,MA,1702,25017,MIDDLESEX,1122.0,HOSPITALS,1000+,NOT APPLICABLE,101 TO 500,NOT APPLICABLE,SODEXO,UNCODED,>2000,161.5
456,WAYSIDE METROWEST COUNCELING CENTER,88 LINCOLN ST,FRAMINGHAM,MA,1702,25017,MIDDLESEX,1122.0,OTHER HEALTHCARE ESTABLISHMENTS,UNCODED,NOT APPLICABLE,UNCODED,NOT APPLICABLE,UNCODED,UNCODED,51 TO 100,102.0
457,WAYSIDE HARBINGER HOUSE-SUBSTANCE ABUSE,98 DENNISON AVE,FRAMINGHAM,MA,1702,25017,MIDDLESEX,1122.0,OTHER HEALTHCARE ESTABLISHMENTS,UNCODED,NOT APPLICABLE,UNCODED,NOT APPLICABLE,UNCODED,UNCODED,51 TO 100,102.0
458,SAGE HOUSE SUBSTANCE ABUSE PROGRAMS,61 CLINTON ST,FRAMINGHAM,MA,1702,25017,MIDDLESEX,1122.0,OTHER HEALTHCARE ESTABLISHMENTS,UNCODED,NOT APPLICABLE,UNCODED,NOT APPLICABLE,UNCODED,UNCODED,51 TO 100,102.0
459,SMOC HEAD START FRAMINGHAM,12 ROXANNA ST,FRAMINGHAM,MA,1702,25017,MIDDLESEX,1122.0,"PRE-K, KINDERGARTEN, CHILD CARE",UNCODED,UNCODED,NOT APPLICABLE,NOT APPLICABLE,UNCODED,UNCODED,501 TO 1000,102.0
460,WINDSOR HOUSE ADULT DAY CENTER,89 BETHANY RD,FRAMINGHAM,MA,1702,25017,MIDDLESEX,1122.0,"CENTERS FOR REHABILITATION AND READAPTION, ADULT DAY CARE",UNCODED,NOT APPLICABLE,1 TO 50,NOT APPLICABLE,UNCODED,UNCODED,101 TO 250,102.0
461,BETHANY HEALTH CARE CENTER,97 BETHANY RD,FRAMINGHAM,MA,1702,25017,MIDDLESEX,1122.0,NURSING HOME,UNCODED,NOT APPLICABLE,101 TO 500,NOT APPLICABLE,OTHER CONTRACTED,PUBLIC,>2000,101.0
462,GENESIS COUNSELING SERVICES INC-AODA SVC,24 UNION AVE,FRAMINGHAM,MA,1702,25017,MIDDLESEX,1122.0,OTHER HEALTHCARE ESTABLISHMENTS,UNCODED,NOT APPLICABLE,UNCODED,NOT APPLICABLE,UNCODED,UNCODED,51 TO 100,102.0
463,THE BRIDGE HOUSE-SUBSTANCE ABUSE SERVICE,PO BOX 136,FRAMINGHAM,MA,1704,25017,MIDDLESEX,1122.0,OTHER HEALTHCARE ESTABLISHMENTS,UNCODED,NOT APPLICABLE,UNCODED,NOT APPLICABLE,UNCODED,UNCODED,51 TO 100,102.0
464,DOUGLAS ELEMENTARY SCHOOL,21 ELM ST,ACTON,MA,1720,25017,MIDDLESEX,1122.0,PRIMARY SCHOOL,UNCODED,501 TO 1000,NOT APPLICABLE,NOT APPLICABLE,UNCODED,PRIVATE,501 TO 1000,102.0
465,INFANT TODDLER CHILDRENS CENTER,149 CENTRAL ST,ACTON,MA,1720,25017,MIDDLESEX,1122.0,"PRE-K, KINDERGARTEN, CHILD CARE",UNCODED,UNCODED,NOT APPLICABLE,NOT APPLICABLE,UNCODED,UNCODED,501 TO 1000,102.0
466,BOUNDARIES THERAPY CENTER-SUBSTANCE ABS,518 GREAT RD,ACTON,MA,1720,25017,MIDDLESEX,1122.0,OTHER HEALTHCARE ESTABLISHMENTS,UNCODED,NOT APPLICABLE,UNCODED,NOT APPLICABLE,UNCODED,UNCODED,51 TO 100,102.0
467,LIFE CARE CENTERS OF ACTON,1 GREAT RD,ACTON,MA,1720,25017,MIDDLESEX,1122.0,NURSING HOME,UNCODED,NOT APPLICABLE,101 TO 500,NOT APPLICABLE,UNCODED,PUBLIC,>2000,102.0
468,ASSABET HUMAN SERVICES-SUBSTANCE ABUSE,77 POWDERMILL RD,ACTON,MA,1720,25017,MIDDLESEX,1122.0,OTHER HEALTHCARE ESTABLISHMENTS,UNCODED,NOT APPLICABLE,UNCODED,NOT APPLICABLE,UNCODED,UNCODED,51 TO 100,102.0
469,CAMP TEL NOAR,30 MAIN ST,ASHLAND,MA,1721,25017,MIDDLESEX,1122.0,"CENTERS FOR CHILDREN, SUMMER CAMPS",UNCODED,NOT APPLICABLE,NOT APPLICABLE,NOT APPLICABLE,UNCODED,UNCODED,>2000,102.0
470,CAMP PEMBROKE,30 MAIN ST,ASHLAND,MA,1721,25017,MIDDLESEX,1122.0,"CENTERS FOR CHILDREN, SUMMER CAMPS",UNCODED,NOT APPLICABLE,NOT APPLICABLE,NOT APPLICABLE,UNCODED,UNCODED,>2000,102.0
471,ASHLAND PUBLIC SCHOOL DISTRICT,87 W UNION ST,ASHLAND,MA,1721,25017,MIDDLESEX,1122.0,SCHOOL DISTRICTS,1-250,2001 TO 5000,NOT APPLICABLE,3 TO 5,UNCODED,PUBLIC,>2000,102.0
472,MULBERRY CHILDCARE,367 POND ST,ASHLAND,MA,1721,25017,MIDDLESEX,1122.0,"PRE-K, KINDERGARTEN, CHILD CARE",UNCODED,UNCODED,NOT APPLICABLE,NOT APPLICABLE,OTHER CONTRACTED,UNCODED,501 TO 1000,102.0
473,MIDDLESEX COMMUNITY COLLEGE,591 SPRINGS RD,BEDFORD,MA,1730,25017,MIDDLESEX,1122.0,2 YEAR COLLEGE & UNIVERSITIES,UNCODED,OVER 5000,NOT APPLICABLE,NOT APPLICABLE,OTHER CONTRACTED,PUBLIC,>2000,102.0
474,EDITH N ROGERS MEM VET HOSP-LTC,200 SPRINGS RD,BEDFORD,MA,1730,25017,MIDDLESEX,1122.0,NURSING HOME,UNCODED,NOT APPLICABLE,101 TO 500,NOT APPLICABLE,UNCODED,PUBLIC,>2000,250.0
475,CARLETON-WILLARD VILLAGE,100 OLD BILLERICA RD,BEDFORD,MA,1730,25017,MIDDLESEX,1122.0,NURSING HOME,UNCODED,NOT APPLICABLE,51 TO 100,NOT APPLICABLE,UNCODED,PUBLIC,>2000,89.0
476,LT ELEAZER DAVIS ELEMENTARY SCHOOL,410 DAVIS RD,BEDFORD,MA,1730,25017,MIDDLESEX,1122.0,PRIMARY SCHOOL,UNCODED,501 TO 1000,NOT APPLICABLE,NOT APPLICABLE,UNCODED,PUBLIC,501 TO 1000,102.0
477,RECREATION KIDS CLUB,10 MUDGE WAY,BEDFORD,MA,1730,25017,MIDDLESEX,1122.0,"PRE-K, KINDERGARTEN, CHILD CARE",UNCODED,UNCODED,NOT APPLICABLE,NOT APPLICABLE,UNCODED,UNCODED,501 TO 1000,102.0
478,NASHOBA REGIONAL SCHOOL DISTRICT,50 MECHANIC ST,BOLTON,MA,1740,25027,WORCESTER,1122.0,SCHOOL DISTRICTS,251-500,2001 TO 5000,NOT APPLICABLE,6 TO 9,UNCODED,PUBLIC,>2000,102.0
479,NORTHEASTERN CORRECTIONAL CENTER,PO BOX 1069,CONCORD,MA,1742,25017,MIDDLESEX,1122.0,PRISONS,UNCODED,NOT APPLICABLE,UNCODED,NOT APPLICABLE,UNCODED,UNCODED,>2000,102.0
480,FENN SCHOOL SUMMER DAY CAMP,516 MONUMENT ST,CONCORD,MA,1742,25017,MIDDLESEX,1122.0,"CENTERS FOR CHILDREN, SUMMER CAMPS",UNCODED,NOT APPLICABLE,NOT APPLICABLE,NOT APPLICABLE,UNCODED,UNCODED,>2000,102.0
481,CONCORD ACADEMY SUMMER CAMP,166 MAIN ST,CONCORD,MA,1742,25017,MIDDLESEX,1122.0,"CENTERS FOR CHILDREN, SUMMER CAMPS",UNCODED,NOT APPLICABLE,NOT APPLICABLE,NOT APPLICABLE,UNCODED,UNCODED,>2000,102.0
482,WALDEN REHABILITATION-NURSING CENTER,785 MAIN ST,CONCORD,MA,1742,25017,MIDDLESEX,1122.0,NURSING HOME,UNCODED,NOT APPLICABLE,101 TO 500,NOT APPLICABLE,UNCODED,PUBLIC,>2000,103.0
483,CONCORD HEALTH CARE CENTER,57 OLD ROAD TO 9 ACRE COR,CONCORD,MA,1742,25017,MIDDLESEX,1122.0,NURSING HOME,UNCODED,NOT APPLICABLE,101 TO 500,NOT APPLICABLE,OTHER CONTRACTED,PUBLIC,>2000,124.0
484,MEADOW RIDGE-WALDEN STREET SCHOOL,148 WALDEN ST,CONCORD,MA,1742,25017,MIDDLESEX,1122.0,"CENTERS FOR REHABILITATION AND READAPTION, ADULT DAY CARE",UNCODED,NOT APPLICABLE,UNCODED,NOT APPLICABLE,UNCODED,UNCODED,51 TO 100,102.0
485,ELIOT COMMUNITY HUMAN SERVICES,111 OLD ROAD TO 9 ACRE COR,CONCORD,MA,1742,25017,MIDDLESEX,1122.0,"CENTERS FOR REHABILITATION AND READAPTION, ADULT DAY CARE",UNCODED,NOT APPLICABLE,UNCODED,NOT APPLICABLE,UNCODED,UNCODED,51 TO 100,102.0
486,EMERSON REHAB TCU,133 OLD ROAD TO 9 ACRE COR,CONCORD,MA,1742,25017,MIDDLESEX,1122.0,NURSING HOME,UNCODED,NOT APPLICABLE,1 TO 50,NOT APPLICABLE,UNCODED,PUBLIC,501 TO 1000,17.0
487,DEACONESS ABUNDANT LIFE COMMUNITY,80 DEACONESS RD,CONCORD,MA,1742,25017,MIDDLESEX,1122.0,ASSISTED LIVING,UNCODED,NOT APPLICABLE,101 TO 500,NOT APPLICABLE,UNCODED,PUBLIC,>2000,40.0
488,MASSACHUSETTS CORRECTIONAL INSTITUTION,PO BOX 9106,CONCORD,MA,1742,25017,MIDDLESEX,1122.0,PRISONS,UNCODED,NOT APPLICABLE,UNCODED,NOT APPLICABLE,UNCODED,UNCODED,>2000,102.0
489,HOLLISTON SENIOR CENTER,150 GOULDING ST,HOLLISTON,MA,1746,25017,MIDDLESEX,1122.0,"SOCIAL AND PRIVATE CLUBS, LEGIONS, FRATERNITIES",UNCODED,NOT APPLICABLE,NOT APPLICABLE,NOT APPLICABLE,UNCODED,UNCODED,51 TO 100,102.0
490,CONTINUING CARE CENTER AT HOPEDALE,325 S MAIN ST,HOPEDALE,MA,1747,25027,WORCESTER,1122.0,NURSING HOME,UNCODED,NOT APPLICABLE,51 TO 100,NOT APPLICABLE,UNCODED,PUBLIC,1001 TO 2000,75.0
491,SERENITY HOUSE SMOC-SUBSTANCE ABUSE SVCS,PO BOX 344,HOPKINTON,MA,1748,25017,MIDDLESEX,1122.0,OTHER HEALTHCARE ESTABLISHMENTS,UNCODED,NOT APPLICABLE,UNCODED,NOT APPLICABLE,UNCODED,UNCODED,51 TO 100,102.0
492,NEXT GENERATION CHILDRENS CENTER,2 WOOD ST,HOPKINTON,MA,1748,25017,MIDDLESEX,1122.0,"PRE-K, KINDERGARTEN, CHILD CARE",UNCODED,UNCODED,NOT APPLICABLE,NOT APPLICABLE,UNCODED,UNCODED,501 TO 1000,102.0
493,HOPKINTON PUBLIC SCHOOL DISTRICT,89 HAYDEN ROWE ST,HOPKINTON,MA,1748,25017,MIDDLESEX,1122.0,SCHOOL DISTRICTS,UNCODED,2001 TO 5000,NOT APPLICABLE,3 TO 5,UNCODED,PUBLIC,>2000,102.0
494,HOPKINTON SENIOR CENTER,18 MAIN ST,HOPKINTON,MA,1748,25017,MIDDLESEX,1122.0,"SOCIAL AND PRIVATE CLUBS, LEGIONS, FRATERNITIES",UNCODED,NOT APPLICABLE,NOT APPLICABLE,NOT APPLICABLE,UNCODED,UNCODED,51 TO 100,102.0
495,JOHN F KENNEDY MIDDLE SCHOOL,201 MANNING ST,HUDSON,MA,1749,25017,MIDDLESEX,1122.0,PRIMARY SCHOOL,UNCODED,251 TO 500,NOT APPLICABLE,NOT APPLICABLE,UNCODED,PRIVATE,251 TO 500,102.0
496,HUDSON PUBLIC SCHOOLS,155 APSLEY ST,HUDSON,MA,1749,25017,MIDDLESEX,1122.0,SCHOOL DISTRICTS,251-500,2001 TO 5000,NOT APPLICABLE,6 TO 9,UNCODED,PUBLIC,>2000,102.0
497,HUDSON SENIOR CENTER,29 CHURCH ST,HUDSON,MA,1749,25017,MIDDLESEX,1122.0,"SOCIAL AND PRIVATE CLUBS, LEGIONS, FRATERNITIES",UNCODED,NOT APPLICABLE,NOT APPLICABLE,NOT APPLICABLE,UNCODED,UNCODED,51 TO 100,102.0
498,ASSABET VALLEY REGIONAL VOC SCHOOL DIST,215 FITCHBURG ST,MARLBOROUGH,MA,1752,25017,MIDDLESEX,1122.0,SCHOOL DISTRICTS,UNCODED,501 TO 1000,NOT APPLICABLE,1,UNCODED,PUBLIC,501 TO 1000,102.0
499,ASSABET VALLEY REG VOC-TECH HIGH SCHOOL,215 FITCHBURG ST,MARLBOROUGH,MA,1752,25017,MIDDLESEX,1122.0,SECONDARY SCHOOL,UNCODED,501 TO 1000,NOT APPLICABLE,NOT APPLICABLE,UNCODED,PUBLIC,501 TO 1000,102.0
500,MARLBOROUGH HOSPITAL,157 UNION ST,MARLBOROUGH,MA,1752,25017,MIDDLESEX,1122.0,HOSPITALS,UNCODED,NOT APPLICABLE,51 TO 100,NOT APPLICABLE,UNCODED,UNCODED,1001 TO 2000,102.0
501,MARLBOROUGH HILLS HEALTH CARE CENTER,121 NORTHBORO RD E,MARLBOROUGH,MA,1752,25017,MIDDLESEX,1122.0,NURSING HOME,UNCODED,NOT APPLICABLE,101 TO 500,NOT APPLICABLE,OTHER CONTRACTED,PUBLIC,>2000,176.0
502,MARLBOROUGH PUBLIC SCHOOL DISTRICT,17 WASHINGTON ST,MARLBOROUGH,MA,1752,25017,MIDDLESEX,1122.0,SCHOOL DISTRICTS,501-750,2001 TO 5000,NOT APPLICABLE,6 TO 9,UNCODED,PUBLIC,>2000,102.0
503,NEXT GENERATION CHILDRENS CENTER OF MARL,201 CEDAR HILL ST,MARLBOROUGH,MA,1752,25017,MIDDLESEX,1122.0,"PRE-K, KINDERGARTEN, CHILD CARE",UNCODED,UNCODED,NOT APPLICABLE,NOT APPLICABLE,UNCODED,UNCODED,501 TO 1000,102.0
504,ADVOCATES COMMUNITY COUNSELING,340 MAPLE ST,MARLBOROUGH,MA,1752,25017,MIDDLESEX,1122.0,OTHER HEALTHCARE ESTABLISHMENTS,UNCODED,NOT APPLICABLE,UNCODED,NOT APPLICABLE,UNCODED,UNCODED,51 TO 100,102.0
505,KINDERCARE LEARNING CENTER,496 BOSTON POST RD E,MARLBOROUGH,MA,1752,25017,MIDDLESEX,1122.0,"PRE-K, KINDERGARTEN, CHILD CARE",UNCODED,UNCODED,NOT APPLICABLE,NOT APPLICABLE,UNCODED,UNCODED,501 TO 1000,102.0
506,MARIE ESTHER HEALTH CENTER,720 BOSTON POST RD E,MARLBOROUGH,MA,1752,25017,MIDDLESEX,1122.0,NURSING HOME,UNCODED,NOT APPLICABLE,1 TO 50,NOT APPLICABLE,UNCODED,PUBLIC,1001 TO 2000,29.0
507,MARLBORO COUNCIL ON AGING SENIOR CTR,250 MAIN ST,MARLBOROUGH,MA,1752,25017,MIDDLESEX,1122.0,"SOCIAL AND PRIVATE CLUBS, LEGIONS, FRATERNITIES",UNCODED,NOT APPLICABLE,NOT APPLICABLE,NOT APPLICABLE,UNCODED,UNCODED,51 TO 100,102.0
508,BRIGHT HORIZONS AT SOLOMON PARK,150 DONALD LYNCH BLVD,MARLBOROUGH,MA,1752,25017,MIDDLESEX,1122.0,"PRE-K, KINDERGARTEN, CHILD CARE",UNCODED,UNCODED,NOT APPLICABLE,NOT APPLICABLE,UNCODED,UNCODED,501 TO 1000,102.0
509,MAYNARD PUBLIC SCHOOL DISTRICT,12 BANCROFT ST,MAYNARD,MA,1754,25017,MIDDLESEX,1122.0,SCHOOL DISTRICTS,1-250,1001 TO 2000,NOT APPLICABLE,3 TO 5,UNCODED,PUBLIC,1001 TO 2000,102.0
510,GERIATRIC AUTHORITY OF MILFORD,1 COUNTRYSIDE DR,MILFORD,MA,1757,25027,WORCESTER,1122.0,NURSING HOME,UNCODED,NOT APPLICABLE,51 TO 100,NOT APPLICABLE,UNCODED,PUBLIC,1001 TO 2000,83.0
511,EVERGREEN CENTER RESIDENTIAL CENTER,345 FORTUNE BLVD,MILFORD,MA,1757,25027,WORCESTER,1122.0,"CENTERS FOR REHABILITATION AND READAPTION, ADULT DAY CARE",UNCODED,NOT APPLICABLE,UNCODED,NOT APPLICABLE,UNCODED,PRIVATE,51 TO 100,102.0
512,MOTHER HUBBARD PRESCHOOL INC,76 SCHOOL ST,MILFORD,MA,1757,25027,WORCESTER,1122.0,"PRE-K, KINDERGARTEN, CHILD CARE",UNCODED,UNCODED,NOT APPLICABLE,NOT APPLICABLE,UNCODED,UNCODED,501 TO 1000,102.0
513,MILFORD REGIONAL MEDICAL CENTER,14 PROSPECT ST,MILFORD,MA,1757,25027,WORCESTER,1122.0,HOSPITALS,1000+,NOT APPLICABLE,101 TO 500,NOT APPLICABLE,SODEXO,UNCODED,>2000,100.5
514,BLAIR HOUSE OF MILFORD,20 CLAFLIN ST,MILFORD,MA,1757,25027,WORCESTER,1122.0,NURSING HOME,UNCODED,NOT APPLICABLE,51 TO 100,NOT APPLICABLE,UNCODED,PUBLIC,1001 TO 2000,63.0
515,MILFORD SENIOR CENTER,60 N BOW ST,MILFORD,MA,1757,25027,WORCESTER,1122.0,"SOCIAL AND PRIVATE CLUBS, LEGIONS, FRATERNITIES",UNCODED,NOT APPLICABLE,NOT APPLICABLE,NOT APPLICABLE,UNCODED,UNCODED,51 TO 100,102.0
516,RIVERBEND OF SOUTH NATICK,34 LINCOLN STREET EXT,NATICK,MA,1760,25017,MIDDLESEX,1122.0,NURSING HOME,UNCODED,NOT APPLICABLE,51 TO 100,NOT APPLICABLE,UNCODED,PUBLIC,1001 TO 2000,41.0
517,BRANDON SCHOOL-RESIDENTIAL TREATMENT CTR,27 WINTER ST,NATICK,MA,1760,25017,MIDDLESEX,1122.0,"CENTERS FOR REHABILITATION AND READAPTION, ADULT DAY CARE",UNCODED,NOT APPLICABLE,UNCODED,NOT APPLICABLE,UNCODED,PRIVATE,51 TO 100,102.0
518,BEAUMONT REHABILITATION-SKILLED NURSING,3 VISION DR,NATICK,MA,1760,25017,MIDDLESEX,1122.0,NURSING HOME,UNCODED,NOT APPLICABLE,51 TO 100,NOT APPLICABLE,COMPASS,PUBLIC,1001 TO 2000,51.0
519,THE NEXT GENERATION CHILDRENS CENTER,15 STRATHMORE RD,NATICK,MA,1760,25017,MIDDLESEX,1122.0,"PRE-K, KINDERGARTEN, CHILD CARE",UNCODED,UNCODED,NOT APPLICABLE,NOT APPLICABLE,UNCODED,UNCODED,501 TO 1000,102.0
520,CAMP MATOAKA,32 LANES END,NATICK,MA,1760,25017,MIDDLESEX,1122.0,"CENTERS FOR CHILDREN, SUMMER CAMPS",UNCODED,NOT APPLICABLE,NOT APPLICABLE,NOT APPLICABLE,UNCODED,UNCODED,>2000,102.0
521,NATICK PUBLIC SCHOOL DISTRICT,13 E CENTRAL ST,NATICK,MA,1760,25017,MIDDLESEX,1122.0,SCHOOL DISTRICTS,251-500,2001 TO 5000,NOT APPLICABLE,6 TO 9,UNCODED,PUBLIC,>2000,102.0
522,THE TOBIN SCHOOL,73 COTTAGE ST,NATICK,MA,1760,25017,MIDDLESEX,1122.0,"PRE-K, KINDERGARTEN, CHILD CARE",UNCODED,UNCODED,NOT APPLICABLE,NOT APPLICABLE,UNCODED,UNCODED,501 TO 1000,102.0
523,MARY ANN MORSE NURSING AND REHAB,45 UNION ST,NATICK,MA,1760,25017,MIDDLESEX,1122.0,NURSING HOME,UNCODED,NOT APPLICABLE,101 TO 500,NOT APPLICABLE,UNCODED,PUBLIC,>2000,109.0
524,METROWEST MEDICAL CENTER-TCU,67 UNION ST,NATICK,MA,1760,25017,MIDDLESEX,1122.0,NURSING HOME,UNCODED,NOT APPLICABLE,1 TO 50,NOT APPLICABLE,UNCODED,PUBLIC,501 TO 1000,25.0
525,PINE HILL ELEMENTARY SCHOOL,10 PINE HILL LN,SHERBORN,MA,1770,25017,MIDDLESEX,1122.0,PRIMARY SCHOOL,UNCODED,251 TO 500,NOT APPLICABLE,NOT APPLICABLE,UNCODED,PUBLIC,251 TO 500,102.0
526,SOUTHBOROUGH COUNCIL ON AGING SENIOR CTR,9 CORDAVILLE RD,SOUTHBOROUGH,MA,1772,25027,WORCESTER,1122.0,"SOCIAL AND PRIVATE CLUBS, LEGIONS, FRATERNITIES",UNCODED,NOT APPLICABLE,NOT APPLICABLE,NOT APPLICABLE,UNCODED,UNCODED,51 TO 100,102.0
527,NEW ENGLAND CENTER FOR CHILDREN,33 TURNPIKE RD,SOUTHBOROUGH,MA,1772,25027,WORCESTER,1122.0,"CENTERS FOR REHABILITATION AND READAPTION, ADULT DAY CARE",UNCODED,NOT APPLICABLE,UNCODED,NOT APPLICABLE,UNCODED,UNCODED,51 TO 100,102.0
528,LINCOLN PUBLIC SCHOOL DISTRICT,6 BALLFIELD RD,LINCOLN,MA,1773,25017,MIDDLESEX,1122.0,SCHOOL DISTRICTS,1-250,1001 TO 2000,NOT APPLICABLE,3 TO 5,UNCODED,PUBLIC,1001 TO 2000,102.0
529,CAMP SEWATARO,1 LIBERTY LEDGE,SUDBURY,MA,1776,25017,MIDDLESEX,1122.0,"CENTERS FOR CHILDREN, SUMMER CAMPS",UNCODED,NOT APPLICABLE,NOT APPLICABLE,NOT APPLICABLE,UNCODED,UNCODED,>2000,102.0
530,CAMP BAUERCREST,20 NORMANDY DR,SUDBURY,MA,1776,25017,MIDDLESEX,1122.0,"CENTERS FOR CHILDREN, SUMMER CAMPS",UNCODED,NOT APPLICABLE,NOT APPLICABLE,NOT APPLICABLE,UNCODED,UNCODED,>2000,102.0
531,WINGATE AT SUDBURY REHAB-NURSING FAC,136 BOSTON POST RD,SUDBURY,MA,1776,25017,MIDDLESEX,1122.0,NURSING HOME,UNCODED,NOT APPLICABLE,101 TO 500,NOT APPLICABLE,UNCODED,PUBLIC,>2000,125.0
532,NEXT GENERATION CHILDRENS CENTER OF SUDB,307 BOSTON POST RD,SUDBURY,MA,1776,25017,MIDDLESEX,1122.0,"PRE-K, KINDERGARTEN, CHILD CARE",UNCODED,UNCODED,NOT APPLICABLE,NOT APPLICABLE,UNCODED,UNCODED,501 TO 1000,102.0
533,SUDBURY PINES EXTENDED CARE FACILITY,642 BOSTON POST RD,SUDBURY,MA,1776,25017,MIDDLESEX,1122.0,NURSING HOME,UNCODED,NOT APPLICABLE,51 TO 100,NOT APPLICABLE,UNCODED,PUBLIC,1001 TO 2000,83.0
534,FAIRBANK SENIOR CENTER,40 FAIRBANK RD,SUDBURY,MA,1776,25017,MIDDLESEX,1122.0,"SOCIAL AND PRIVATE CLUBS, LEGIONS, FRATERNITIES",UNCODED,NOT APPLICABLE,NOT APPLICABLE,NOT APPLICABLE,UNCODED,UNCODED,51 TO 100,102.0
535,SUDBURY PUBLIC SCHOOL DISTRICT,40 FAIRBANK RD,SUDBURY,MA,1776,25017,MIDDLESEX,1122.0,SCHOOL DISTRICTS,251-500,2001 TO 5000,NOT APPLICABLE,3 TO 5,UNCODED,PUBLIC,>2000,102.0
536,WAYLAND PUBLIC SCHOOL DISTRICT,PO BOX 408,WAYLAND,MA,1778,25017,MIDDLESEX,1122.0,SCHOOL DISTRICTS,UNCODED,2001 TO 5000,NOT APPLICABLE,3 TO 5,UNCODED,PUBLIC,>2000,102.0
537,WAYLAND COA SENIOR CITIZENS CENTER,41 COCHITUATE RD,WAYLAND,MA,1778,25017,MIDDLESEX,1122.0,"SOCIAL AND PRIVATE CLUBS, LEGIONS, FRATERNITIES",UNCODED,NOT APPLICABLE,NOT APPLICABLE,NOT APPLICABLE,UNCODED,UNCODED,51 TO 100,102.0
538,WAYLAND NURSING AND REHAB CENTER,188 COMMONWEALTH RD,WAYLAND,MA,1778,25017,MIDDLESEX,1122.0,NURSING HOME,UNCODED,NOT APPLICABLE,1 TO 50,NOT APPLICABLE,UNCODED,PUBLIC,501 TO 1000,39.0
539,WOBURN NURSING CENTER,PO BOX 272,WOBURN,MA,1801,25017,MIDDLESEX,1122.0,NURSING HOME,UNCODED,NOT APPLICABLE,101 TO 500,NOT APPLICABLE,UNCODED,PUBLIC,>2000,136.0
540,ITT TECHNICAL INSTITUTE,10 FORBES RD,WOBURN,MA,1801,25017,MIDDLESEX,1122.0,TECHNICAL AND TRADE SCHOOLS,UNCODED,251 TO 500,NOT APPLICABLE,NOT APPLICABLE,UNCODED,PRIVATE,251 TO 500,102.0
541,WOBURN PUBLIC SCHOOL DISTRICT,55 LOCUST ST,WOBURN,MA,1801,25017,MIDDLESEX,1122.0,SCHOOL DISTRICTS,251-500,2001 TO 5000,NOT APPLICABLE,10 AND PLUS,UNCODED,PUBLIC,>2000,102.0
542,NEW ENGLAND REHAB HOSPITAL,2 REHABILITATION WAY,WOBURN,MA,1801,25017,MIDDLESEX,1122.0,HOSPITALS,251-500,NOT APPLICABLE,101 TO 500,NOT APPLICABLE,SODEXO,UNCODED,>2000,110.8
543,CAB HEALTH AND RECOVERY SERVICES-AODA,800 W CUMMINGS PARK,WOBURN,MA,1801,25017,MIDDLESEX,1122.0,OTHER HEALTHCARE ESTABLISHMENTS,UNCODED,NOT APPLICABLE,UNCODED,NOT APPLICABLE,UNCODED,UNCODED,51 TO 100,102.0
544,ARBOUR COUNSELING SERVICES-SBSTNC ABUSE,500 W CUMMINGS PARK,WOBURN,MA,1801,25017,MIDDLESEX,1122.0,OTHER HEALTHCARE ESTABLISHMENTS,UNCODED,NOT APPLICABLE,UNCODED,NOT APPLICABLE,UNCODED,UNCODED,51 TO 100,102.0
545,COOPERATIVE ELDER/ADULT DC-BURLINGTON,37 B ST,BURLINGTON,MA,1803,25017,MIDDLESEX,1122.0,"CENTERS FOR REHABILITATION AND READAPTION, ADULT DAY CARE",UNCODED,NOT APPLICABLE,1 TO 50,NOT APPLICABLE,UNCODED,UNCODED,101 TO 250,102.0
546,KINDER CARE LEARNING CENTER,133 CAMBRIDGE ST,BURLINGTON,MA,1803,25017,MIDDLESEX,1122.0,"PRE-K, KINDERGARTEN, CHILD CARE",UNCODED,UNCODED,NOT APPLICABLE,NOT APPLICABLE,OTHER CONTRACTED,UNCODED,501 TO 1000,102.0
547,TENDER LEARNING CENTRE AND KIDS CLUB,87 2ND AVE,BURLINGTON,MA,1803,25017,MIDDLESEX,1122.0,"PRE-K, KINDERGARTEN, CHILD CARE",UNCODED,UNCODED,NOT APPLICABLE,NOT APPLICABLE,UNCODED,UNCODED,501 TO 1000,102.0
548,SHAWSHEEN SCHOOL,18 MAGNOLIA AVE,ANDOVER,MA,1810,25009,ESSEX,1122.0,PRIMARY SCHOOL,UNCODED,251 TO 500,NOT APPLICABLE,NOT APPLICABLE,UNCODED,PRIVATE,251 TO 500,102.0
549,MASSACHUSETTS SCHOOL LAW-ANDOVER,500 FEDERAL ST,ANDOVER,MA,1810,25009,ESSEX,1122.0,TECHNICAL AND TRADE SCHOOLS,UNCODED,501 TO 1000,NOT APPLICABLE,NOT APPLICABLE,UNCODED,PRIVATE,501 TO 1000,102.0
550,GREATER LAWRENCE REGIONAL VOC DISTRICT,57 RIVER RD,ANDOVER,MA,1810,25009,ESSEX,1122.0,SCHOOL DISTRICTS,UNCODED,1001 TO 2000,NOT APPLICABLE,1,UNCODED,PUBLIC,1001 TO 2000,102.0
551,GREATER LAWRENCE TECHNICAL HIGH SCHOOL,57 RIVER RD,ANDOVER,MA,1810,25009,ESSEX,1122.0,SECONDARY SCHOOL,UNCODED,1001 TO 2000,NOT APPLICABLE,NOT APPLICABLE,UNCODED,PUBLIC,1001 TO 2000,102.0
552,ACADEMY MANOR GENISIS ELDERCARE,89 MORTON ST,ANDOVER,MA,1810,25009,ESSEX,1122.0,NURSING HOME,UNCODED,NOT APPLICABLE,101 TO 500,NOT APPLICABLE,UNCODED,PUBLIC,>2000,153.0
553,SHAWSHEEN EXTENDED DAY,65 PHILLIPS ST,ANDOVER,MA,1810,25009,ESSEX,1122.0,"PRE-K, KINDERGARTEN, CHILD CARE",UNCODED,UNCODED,NOT APPLICABLE,NOT APPLICABLE,UNCODED,UNCODED,501 TO 1000,102.0
554,ISHAM HEALTH CENTER,180 MAIN ST,ANDOVER,MA,1810,25009,ESSEX,1122.0,HOSPITALS,UNCODED,NOT APPLICABLE,1 TO 50,NOT APPLICABLE,UNCODED,UNCODED,501 TO 1000,102.0
555,HENRY C SANBORN ELEMENTARY SCHOOL,84 LOVEJOY RD,ANDOVER,MA,1810,25009,ESSEX,1122.0,PRIMARY SCHOOL,UNCODED,251 TO 500,NOT APPLICABLE,NOT APPLICABLE,UNCODED,PUBLIC,251 TO 500,102.0
556,WINGATE AT ANDOVER REHAB-SNF,80 ANDOVER ST,ANDOVER,MA,1810,25009,ESSEX,1122.0,NURSING HOME,UNCODED,NOT APPLICABLE,101 TO 500,NOT APPLICABLE,UNCODED,PUBLIC,>2000,128.0
557,NEXT GENERATION CHILDRENS CENTER,516 S MAIN ST,ANDOVER,MA,1810,25009,ESSEX,1122.0,"PRE-K, KINDERGARTEN, CHILD CARE",UNCODED,UNCODED,NOT APPLICABLE,NOT APPLICABLE,UNCODED,UNCODED,501 TO 1000,102.0
558,BILLERICA HOUSE OF CORR-SHERIFF DEPT,PO BOX 565,BILLERICA,MA,1821,25017,MIDDLESEX,1122.0,PRISONS,UNCODED,NOT APPLICABLE,UNCODED,NOT APPLICABLE,UNCODED,UNCODED,51 TO 100,102.0
559,BILLERICA PUBLIC SCHOOLS,365 BOSTON RD,BILLERICA,MA,1821,25017,MIDDLESEX,1122.0,SCHOOL DISTRICTS,501-750,OVER 5000,NOT APPLICABLE,6 TO 9,UNCODED,PUBLIC,>2000,102.0
560,SHAWSHEEN VALLEY REGIONAL VOC TECH DIST,100 COOK ST,BILLERICA,MA,1821,25017,MIDDLESEX,1122.0,SCHOOL DISTRICTS,UNCODED,1001 TO 2000,NOT APPLICABLE,1,UNCODED,PUBLIC,1001 TO 2000,102.0
561,CASTLE HILL ADULT DAY-HEALTH CARE,PO BOX 404,CHELMSFORD,MA,1824,25017,MIDDLESEX,1122.0,"CENTERS FOR REHABILITATION AND READAPTION, ADULT DAY CARE",UNCODED,NOT APPLICABLE,1 TO 50,NOT APPLICABLE,UNCODED,UNCODED,101 TO 250,102.0
562,PALM MANOR-GENISIS ELDERCARE,40 PARKHURST RD,CHELMSFORD,MA,1824,25017,MIDDLESEX,1122.0,NURSING HOME,UNCODED,NOT APPLICABLE,101 TO 500,NOT APPLICABLE,UNCODED,PUBLIC,>2000,113.0
563,MERRIMAC SPECIAL EDUCATION COLLABORATIVE,114 TURNPIKE RD,CHELMSFORD,MA,1824,25017,MIDDLESEX,1122.0,SCHOOL DISTRICTS,UNCODED,UNCODED,NOT APPLICABLE,UNCODED,UNCODED,PUBLIC,51 TO 100,102.0
564,KLUB KID TOO,160 TURNPIKE RD,CHELMSFORD,MA,1824,25017,MIDDLESEX,1122.0,"PRE-K, KINDERGARTEN, CHILD CARE",UNCODED,UNCODED,NOT APPLICABLE,NOT APPLICABLE,UNCODED,UNCODED,501 TO 1000,102.0
565,KNOWLEDGE BEGINNINGS-BILLERICA RD,261 BILLERICA RD,CHELMSFORD,MA,1824,25017,MIDDLESEX,1122.0,"PRE-K, KINDERGARTEN, CHILD CARE",UNCODED,UNCODED,NOT APPLICABLE,NOT APPLICABLE,UNCODED,UNCODED,501 TO 1000,102.0
566,SUNNY ACRES NURSING REHAB CENTER,254 BILLERICA RD,CHELMSFORD,MA,1824,25017,MIDDLESEX,1122.0,NURSING HOME,UNCODED,NOT APPLICABLE,51 TO 100,NOT APPLICABLE,UNCODED,PUBLIC,1001 TO 2000,90.0
567,DRACUT COUNCIL ON AGING SENIOR CENTER,951 MAMMOTH RD,DRACUT,MA,1826,25017,MIDDLESEX,1122.0,"SOCIAL AND PRIVATE CLUBS, LEGIONS, FRATERNITIES",UNCODED,NOT APPLICABLE,NOT APPLICABLE,NOT APPLICABLE,UNCODED,UNCODED,51 TO 100,102.0
568,LITTLE ANGELS DAYCARE-LA ADVENTURE CLUB,90 ARLINGTON ST,DRACUT,MA,1826,25017,MIDDLESEX,1122.0,"PRE-K, KINDERGARTEN, CHILD CARE",UNCODED,UNCODED,NOT APPLICABLE,NOT APPLICABLE,UNCODED,UNCODED,501 TO 1000,102.0
569,WINGATE AT HAVERHILL,190 NORTH AVE,HAVERHILL,MA,1830,25009,ESSEX,1122.0,NURSING HOME,UNCODED,NOT APPLICABLE,101 TO 500,NOT APPLICABLE,UNCODED,PUBLIC,>2000,118.0
570,NORTHERN ESSEX COMMUNITY COLLEGE,100 ELLIOTT ST,HAVERHILL,MA,1830,25009,ESSEX,1122.0,2 YEAR COLLEGE & UNIVERSITIES,UNCODED,OVER 5000,NOT APPLICABLE,NOT APPLICABLE,UNCODED,PUBLIC,>2000,102.0
571,THE OXFORD FACILITY,689 MAIN ST,HAVERHILL,MA,1830,25009,ESSEX,1122.0,NURSING HOME,UNCODED,NOT APPLICABLE,101 TO 500,NOT APPLICABLE,UNCODED,PUBLIC,>2000,115.0
572,HAVERHILL CNCL ON AGING SENIOR CENTER,10 WELCOME ST,HAVERHILL,MA,1830,25009,ESSEX,1122.0,"SOCIAL AND PRIVATE CLUBS, LEGIONS, FRATERNITIES",UNCODED,NOT APPLICABLE,NOT APPLICABLE,NOT APPLICABLE,UNCODED,UNCODED,51 TO 100,102.0
573,PHOENIX EAST THERAPEUTIC COMMUNITY-AODA,20 NEWCOMB ST,HAVERHILL,MA,1830,25009,ESSEX,1122.0,OTHER HEALTHCARE ESTABLISHMENTS,UNCODED,NOT APPLICABLE,UNCODED,NOT APPLICABLE,UNCODED,UNCODED,51 TO 100,102.0
574,HAVERHILL PUBLIC SCHOOL DISTRICT,4 SUMMER ST,HAVERHILL,MA,1830,25009,ESSEX,1122.0,SCHOOL DISTRICTS,751-999,OVER 5000,NOT APPLICABLE,10 AND PLUS,UNCODED,PUBLIC,>2000,102.0
575,WHITTIER REHABILITATION HOSPITAL,76 SUMMER ST,HAVERHILL,MA,1830,25009,ESSEX,1122.0,HOSPITALS,UNCODED,NOT APPLICABLE,51 TO 100,NOT APPLICABLE,UNCODED,UNCODED,1001 TO 2000,102.0
576,HEALTH-EDUCATION SVC-OTPTNT SBSTNC ABUSE,60 MERRIMACK ST,HAVERHILL,MA,1830,25009,ESSEX,1122.0,OTHER HEALTHCARE ESTABLISHMENTS,UNCODED,NOT APPLICABLE,UNCODED,NOT APPLICABLE,UNCODED,UNCODED,51 TO 100,102.0
577,PENACOOK PLACE,150 WATER ST,HAVERHILL,MA,1830,25009,ESSEX,1122.0,NURSING HOME,UNCODED,NOT APPLICABLE,101 TO 500,NOT APPLICABLE,COMPASS,PUBLIC,>2000,131.0
578,BAKER KATZ NURSING HOME,194 BOARDMAN ST,HAVERHILL,MA,1830,25009,ESSEX,1122.0,NURSING HOME,UNCODED,NOT APPLICABLE,51 TO 100,NOT APPLICABLE,UNCODED,PUBLIC,1001 TO 2000,65.0
579,MERRIMACK VALLEY HOSPITAL TCU,140 LINCOLN AVE,HAVERHILL,MA,1830,25009,ESSEX,1122.0,NURSING HOME,UNCODED,NOT APPLICABLE,1 TO 50,NOT APPLICABLE,UNCODED,PUBLIC,501 TO 1000,25.0
580,LAKEVIEW HOUSE NURSING HOME,PO BOX 1598,HAVERHILL,MA,1831,25009,ESSEX,1122.0,NURSING HOME,UNCODED,NOT APPLICABLE,1 TO 50,NOT APPLICABLE,UNCODED,PUBLIC,1001 TO 2000,25.0
581,HANNAH DUSTON HEALTHCARE CENTER,126 MONUMENT ST,HAVERHILL,MA,1832,25009,ESSEX,1122.0,NURSING HOME,UNCODED,NOT APPLICABLE,101 TO 500,NOT APPLICABLE,UNCODED,PUBLIC,>2000,113.0
582,BALDPATE HOSPITAL,83 BALDPATE RD,GEORGETOWN,MA,1833,25009,ESSEX,1122.0,HOSPITALS,UNCODED,NOT APPLICABLE,1 TO 50,NOT APPLICABLE,OTHER CONTRACTED,UNCODED,1001 TO 2000,102.0
583,GROVELAND COUNCIL ON AGING,183 MAIN ST,GROVELAND,MA,1834,25009,ESSEX,1122.0,"SOCIAL AND PRIVATE CLUBS, LEGIONS, FRATERNITIES",UNCODED,NOT APPLICABLE,NOT APPLICABLE,NOT APPLICABLE,UNCODED,UNCODED,51 TO 100,102.0
584,GREATER LAWRENCE FAMILY HEALTH CTR-AODA,208 BROADWAY,LAWRENCE,MA,1840,25009,ESSEX,1122.0,OTHER HEALTHCARE ESTABLISHMENTS,UNCODED,NOT APPLICABLE,UNCODED,NOT APPLICABLE,UNCODED,UNCODED,51 TO 100,102.0
585,HABIT OPCO-SUBSTANCE ABUSE TREATMENT,599 CANAL ST,LAWRENCE,MA,1840,25009,ESSEX,1122.0,OTHER HEALTHCARE ESTABLISHMENTS,UNCODED,NOT APPLICABLE,UNCODED,NOT APPLICABLE,UNCODED,UNCODED,51 TO 100,102.0
586,FAMILY SERVICE INC-SUBSTANCE ABUSE PRGMS,430 N CANAL ST,LAWRENCE,MA,1840,25009,ESSEX,1122.0,OTHER HEALTHCARE ESTABLISHMENTS,UNCODED,NOT APPLICABLE,UNCODED,NOT APPLICABLE,UNCODED,UNCODED,51 TO 100,102.0
587,GLFHC-NE CTR FOR HLTHY COMMUNITIES-AODA,101 AMESBURY ST,LAWRENCE,MA,1840,25009,ESSEX,1122.0,OTHER HEALTHCARE ESTABLISHMENTS,UNCODED,NOT APPLICABLE,UNCODED,NOT APPLICABLE,UNCODED,UNCODED,51 TO 100,102.0
588,GREATER LAWRENCE YWCA CHILDRENS CENTER,38 LAWRENCE ST,LAWRENCE,MA,1840,25009,ESSEX,1122.0,"PRE-K, KINDERGARTEN, CHILD CARE",UNCODED,UNCODED,NOT APPLICABLE,NOT APPLICABLE,UNCODED,UNCODED,501 TO 1000,102.0
589,MERRIMACK VALLEY YMCA CHILDCARE,40 LAWRENCE ST,LAWRENCE,MA,1840,25009,ESSEX,1122.0,"PRE-K, KINDERGARTEN, CHILD CARE",UNCODED,UNCODED,NOT APPLICABLE,NOT APPLICABLE,UNCODED,UNCODED,501 TO 1000,102.0
590,LAWRENCE SENIOR CENTER,155 HAVERHILL ST,LAWRENCE,MA,1840,25009,ESSEX,1122.0,"SOCIAL AND PRIVATE CLUBS, LEGIONS, FRATERNITIES",UNCODED,NOT APPLICABLE,NOT APPLICABLE,NOT APPLICABLE,UNCODED,UNCODED,51 TO 100,102.0
591,HEALTH AND EDUCATION SERVICES-SBSTNC ABS,30 GENERAL ST,LAWRENCE,MA,1840,25009,ESSEX,1122.0,OTHER HEALTHCARE ESTABLISHMENTS,UNCODED,NOT APPLICABLE,UNCODED,NOT APPLICABLE,UNCODED,UNCODED,51 TO 100,102.0
592,PSYCHOLOGICAL CENTER-SUBSTANCE ABUSE SVC,11 UNION ST,LAWRENCE,MA,1840,25009,ESSEX,1122.0,OTHER HEALTHCARE ESTABLISHMENTS,UNCODED,NOT APPLICABLE,UNCODED,NOT APPLICABLE,UNCODED,UNCODED,51 TO 100,102.0
593,BERKELEY RETIREMENT AND NURSING CENTER,150 BERKELEY ST,LAWRENCE,MA,1841,25009,ESSEX,1122.0,NURSING HOME,UNCODED,NOT APPLICABLE,1 TO 50,NOT APPLICABLE,UNCODED,PUBLIC,501 TO 1000,18.0
594,ESSEX COUNTY SHERIFF DEPT CORR ALT CTR,165 MARSTON ST,LAWRENCE,MA,1841,25009,ESSEX,1122.0,PRISONS,UNCODED,NOT APPLICABLE,UNCODED,NOT APPLICABLE,UNCODED,UNCODED,51 TO 100,102.0
595,GERMAN HOME,374 HOWARD ST,LAWRENCE,MA,1841,25009,ESSEX,1122.0,SENIOR LIVING,UNCODED,NOT APPLICABLE,1 TO 50,NOT APPLICABLE,UNCODED,PUBLIC,501 TO 1000,102.0
596,M I ADULT DAY HEALTH CARE CENTER,189 MAPLE ST,LAWRENCE,MA,1841,25009,ESSEX,1122.0,ASSISTED LIVING,UNCODED,NOT APPLICABLE,51 TO 100,NOT APPLICABLE,UNCODED,UNCODED,251 TO 500,102.0
597,MARY IMMACULATE RESTORATIVE CENTER,172 LAWRENCE ST,LAWRENCE,MA,1841,25009,ESSEX,1122.0,NURSING HOME,UNCODED,NOT APPLICABLE,101 TO 500,NOT APPLICABLE,UNCODED,PUBLIC,>2000,222.0
598,PSYCHOLOGICAL CENTER-WOMENS VIEW-AODA,582 HAVERHILL ST,LAWRENCE,MA,1841,25009,ESSEX,1122.0,OTHER HEALTHCARE ESTABLISHMENTS,UNCODED,NOT APPLICABLE,UNCODED,NOT APPLICABLE,UNCODED,UNCODED,51 TO 100,102.0
599,PEGASUS HOUSE-PSYCHOLOGICAL CENTER-AODA,482 LOWELL ST,LAWRENCE,MA,1841,25009,ESSEX,1122.0,OTHER HEALTHCARE ESTABLISHMENTS,UNCODED,NOT APPLICABLE,UNCODED,NOT APPLICABLE,UNCODED,UNCODED,51 TO 100,102.0
600,SUNBRIDGE CARE AND REHAB-WOOD MILL,800 ESSEX ST,LAWRENCE,MA,1841,25009,ESSEX,1122.0,NURSING HOME,UNCODED,NOT APPLICABLE,51 TO 100,NOT APPLICABLE,UNCODED,PUBLIC,1001 TO 2000,80.0
601,LAWRENCE GENERAL HOSPITAL,PO BOX 189,LAWRENCE,MA,1842,25009,ESSEX,1122.0,HOSPITALS,1000+,NOT APPLICABLE,101 TO 500,NOT APPLICABLE,ARAMARK,UNCODED,>2000,149.2
602,LAWRENCE PUBLIC SCHOOL DISTRICT,PO BOX 1498,LAWRENCE,MA,1842,25009,ESSEX,1122.0,SCHOOL DISTRICTS,UNCODED,OVER 5000,NOT APPLICABLE,10 AND PLUS,UNCODED,PUBLIC,>2000,102.0
603,LITTLE SPROUTS AT THE INDUSTRIAL PARK,20 BALLARD WAY,LAWRENCE,MA,1843,25009,ESSEX,1122.0,"PRE-K, KINDERGARTEN, CHILD CARE",UNCODED,UNCODED,NOT APPLICABLE,NOT APPLICABLE,UNCODED,UNCODED,501 TO 1000,102.0
604,LATCHKEY COMMUNITY DAYCARE CENTER,32 GROTON ST,LAWRENCE,MA,1843,25009,ESSEX,1122.0,"PRE-K, KINDERGARTEN, CHILD CARE",UNCODED,UNCODED,NOT APPLICABLE,NOT APPLICABLE,UNCODED,UNCODED,501 TO 1000,102.0
605,SUNBRIDGE CRE AND REHAB-COLONIAL HEIGHTS,555 S UNION ST,LAWRENCE,MA,1843,25009,ESSEX,1122.0,NURSING HOME,UNCODED,NOT APPLICABLE,51 TO 100,NOT APPLICABLE,UNCODED,PUBLIC,1001 TO 2000,69.0
606,MSPCC FAMILY COUNSELING CTR-AODA PRGMS,439 S UNION ST,LAWRENCE,MA,1843,25009,ESSEX,1122.0,OTHER HEALTHCARE ESTABLISHMENTS,UNCODED,NOT APPLICABLE,UNCODED,NOT APPLICABLE,UNCODED,UNCODED,51 TO 100,102.0
607,DAYBREAK SHELTER-SUBSTANCE ABUSE PROGRAM,75 N PARISH RD,LAWRENCE,MA,1843,25009,ESSEX,1122.0,OTHER HEALTHCARE ESTABLISHMENTS,UNCODED,NOT APPLICABLE,UNCODED,NOT APPLICABLE,UNCODED,UNCODED,51 TO 100,102.0
608,MARSH GRAMMER SCHOOL,309 PELHAM ST,METHUEN,MA,1844,25009,ESSEX,1122.0,PRIMARY SCHOOL,UNCODED,1001 TO 2000,NOT APPLICABLE,NOT APPLICABLE,UNCODED,PRIVATE,1001 TO 2000,102.0
609,LITTLE SPROUTS CHILD ENRICHMENT CENTER,13 BRANCH ST,METHUEN,MA,1844,25009,ESSEX,1122.0,"PRE-K, KINDERGARTEN, CHILD CARE",UNCODED,UNCODED,NOT APPLICABLE,NOT APPLICABLE,UNCODED,UNCODED,501 TO 1000,102.0
610,METHUEN COUNCIL ON AGING SENIOR CENTER,77 LOWELL ST,METHUEN,MA,1844,25009,ESSEX,1122.0,"SOCIAL AND PRIVATE CLUBS, LEGIONS, FRATERNITIES",UNCODED,NOT APPLICABLE,NOT APPLICABLE,NOT APPLICABLE,UNCODED,UNCODED,51 TO 100,102.0
611,CHILDRENS CENTER,35 LOWELL ST,METHUEN,MA,1844,25009,ESSEX,1122.0,"PRE-K, KINDERGARTEN, CHILD CARE",UNCODED,UNCODED,NOT APPLICABLE,NOT APPLICABLE,UNCODED,UNCODED,501 TO 1000,102.0
612,NEVINS ADULT DAY CARE CENTER,12 INGALLS CT,METHUEN,MA,1844,25009,ESSEX,1122.0,ASSISTED LIVING,UNCODED,NOT APPLICABLE,51 TO 100,NOT APPLICABLE,UNCODED,UNCODED,251 TO 500,102.0
613,METHUEN PUBLIC SCHOOL DISTRICT,10 DITSON PL,METHUEN,MA,1844,25009,ESSEX,1122.0,SCHOOL DISTRICTS,251-500,OVER 5000,NOT APPLICABLE,3 TO 5,UNCODED,PUBLIC,>2000,102.0
614,DONALD P TIMONY GRAMMER SCHOOL,45 PLEASANT VIEW ST,METHUEN,MA,1844,25009,ESSEX,1122.0,PRIMARY SCHOOL,UNCODED,1001 TO 2000,NOT APPLICABLE,NOT APPLICABLE,UNCODED,PRIVATE,1001 TO 2000,102.0
615,METHUEN HEALTH AND REHAB,480 JACKSON ST,METHUEN,MA,1844,25009,ESSEX,1122.0,NURSING HOME,UNCODED,NOT APPLICABLE,101 TO 500,NOT APPLICABLE,UNCODED,PUBLIC,>2000,87.0
616,ST ANNS HOME,100A HAVERHILL ST,METHUEN,MA,1844,25009,ESSEX,1122.0,"CENTERS FOR REHABILITATION AND READAPTION, ADULT DAY CARE",UNCODED,NOT APPLICABLE,UNCODED,NOT APPLICABLE,UNCODED,UNCODED,51 TO 100,102.0
617,ST BASILS SEMINARY,30 EAST ST,METHUEN,MA,1844,25009,ESSEX,1122.0,TECHNICAL AND TRADE SCHOOLS,UNCODED,250 AND LESS,NOT APPLICABLE,NOT APPLICABLE,UNCODED,RELIGIOUS,101 TO 250,102.0
618,ST RAPHAELS TCU AT HOLY FAMILY HOSPITAL,70 EAST ST,METHUEN,MA,1844,25009,ESSEX,1122.0,NURSING HOME,UNCODED,NOT APPLICABLE,1 TO 50,NOT APPLICABLE,UNCODED,PUBLIC,501 TO 1000,9.0
619,SUNBRIDGE CARE AND REHAB-BROADWAY,281 BROADWAY,METHUEN,MA,1844,25009,ESSEX,1122.0,NURSING HOME,UNCODED,NOT APPLICABLE,51 TO 100,NOT APPLICABLE,UNCODED,PUBLIC,1001 TO 2000,75.0
620,NORTH ANDOVER SENIOR CENTER,120R MAIN ST,NORTH ANDOVER,MA,1845,25009,ESSEX,1122.0,"SOCIAL AND PRIVATE CLUBS, LEGIONS, FRATERNITIES",UNCODED,NOT APPLICABLE,NOT APPLICABLE,NOT APPLICABLE,UNCODED,UNCODED,51 TO 100,102.0
621,PRESCOTT HOUSE NURSING HOME,140 PRESCOTT ST,NORTH ANDOVER,MA,1845,25009,ESSEX,1122.0,NURSING HOME,UNCODED,NOT APPLICABLE,101 TO 500,NOT APPLICABLE,UNCODED,PUBLIC,>2000,123.0
622,THE MEADOWS,575 OSGOOD ST,NORTH ANDOVER,MA,1845,25009,ESSEX,1122.0,NURSING HOME,UNCODED,NOT APPLICABLE,51 TO 100,NOT APPLICABLE,UNCODED,PUBLIC,501 TO 1000,43.0
623,MERRIMACK COLLEGE,315 TURNPIKE ST,NORTH ANDOVER,MA,1845,25009,ESSEX,1122.0,4 YEAR COLLEGE & UNIVERSITIES,UNCODED,2001 TO 5000,NOT APPLICABLE,NOT APPLICABLE,SODEXO,RELIGIOUS,>2000,102.0
624,SUTTON HILL NURSING CENTER,1801 TURNPIKE ST,NORTH ANDOVER,MA,1845,25009,ESSEX,1122.0,NURSING HOME,UNCODED,NOT APPLICABLE,101 TO 500,NOT APPLICABLE,UNCODED,PUBLIC,>2000,132.0
625,CAMP RUNELS-MACHAGAMEE,1740 TURNPIKE ST,NORTH ANDOVER,MA,1845,25009,ESSEX,1122.0,"CENTERS FOR CHILDREN, SUMMER CAMPS",UNCODED,NOT APPLICABLE,NOT APPLICABLE,NOT APPLICABLE,UNCODED,UNCODED,>2000,102.0
626,LOWELL HEALTHCARE CENTER,19 VARNUM ST,LOWELL,MA,1850,25017,MIDDLESEX,1122.0,NURSING HOME,UNCODED,NOT APPLICABLE,101 TO 500,NOT APPLICABLE,OTHER CONTRACTED,PUBLIC,>2000,157.0
627,TOWN COUNTRY NURSING CENTER,259 BALDWIN ST,LOWELL,MA,1851,25017,MIDDLESEX,1122.0,NURSING HOME,UNCODED,NOT APPLICABLE,51 TO 100,NOT APPLICABLE,UNCODED,PUBLIC,1001 TO 2000,78.0
628,WILLOW MANOR GENESIS HEALTHCARE,30 PRINCETON BLVD,LOWELL,MA,1851,25017,MIDDLESEX,1122.0,NURSING HOME,UNCODED,NOT APPLICABLE,51 TO 100,NOT APPLICABLE,UNCODED,PUBLIC,1001 TO 2000,83.0
629,BAILEY INTERNATIONAL ELEMENTARY SCHOOL,175 CAMPBELL DR,LOWELL,MA,1851,25017,MIDDLESEX,1122.0,PRIMARY SCHOOL,UNCODED,251 TO 500,NOT APPLICABLE,NOT APPLICABLE,UNCODED,PUBLIC,251 TO 500,102.0
630,LITTLE SPROUTS AT CROSS POINT,900 CHELMSFORD ST,LOWELL,MA,1851,25017,MIDDLESEX,1122.0,"PRE-K, KINDERGARTEN, CHILD CARE",UNCODED,UNCODED,NOT APPLICABLE,NOT APPLICABLE,UNCODED,UNCODED,501 TO 1000,102.0
631,SAINTS MEDICAL CENTER,1 HOSPITAL DR,LOWELL,MA,1852,25017,MIDDLESEX,1122.0,HOSPITALS,751-999,NOT APPLICABLE,101 TO 500,NOT APPLICABLE,SELF-OPERATED,UNCODED,>2000,76.8
632,CENTER FOR FAMILY DEVELOPMENT-AODA PRGMS,45 MERRIMACK ST,LOWELL,MA,1852,25017,MIDDLESEX,1122.0,OTHER HEALTHCARE ESTABLISHMENTS,UNCODED,NOT APPLICABLE,UNCODED,NOT APPLICABLE,UNCODED,UNCODED,51 TO 100,102.0
633,LOWELL PUBLIC SCHOOL DISTRICT,155 MERRIMACK ST,LOWELL,MA,1852,25017,MIDDLESEX,1122.0,SCHOOL DISTRICTS,1000+,OVER 5000,NOT APPLICABLE,10 AND PLUS,UNCODED,PUBLIC,>2000,102.0
634,SOUTH BAY EARLY INTERVENTION PRGM-AODA,77 E MERRIMACK ST,LOWELL,MA,1852,25017,MIDDLESEX,1122.0,OTHER HEALTHCARE ESTABLISHMENTS,UNCODED,NOT APPLICABLE,UNCODED,NOT APPLICABLE,UNCODED,UNCODED,51 TO 100,102.0
635,LCHC BHVRL HLTH OTPTNT SBSTNC ABUSE SVC,17 WARREN ST,LOWELL,MA,1852,25017,MIDDLESEX,1122.0,OTHER HEALTHCARE ESTABLISHMENTS,UNCODED,NOT APPLICABLE,UNCODED,NOT APPLICABLE,UNCODED,UNCODED,51 TO 100,102.0
636,LOWELL HOUSE-RESIDENTIAL SBSTNC ABUSE,102 APPLETON ST,LOWELL,MA,1852,25017,MIDDLESEX,1122.0,OTHER HEALTHCARE ESTABLISHMENTS,UNCODED,NOT APPLICABLE,UNCODED,NOT APPLICABLE,UNCODED,UNCODED,51 TO 100,102.0
637,LOWELL FAMILY SERVICES-SUBSTANCE ABUSE,99 CHURCH ST,LOWELL,MA,1852,25017,MIDDLESEX,1122.0,OTHER HEALTHCARE ESTABLISHMENTS,UNCODED,NOT APPLICABLE,UNCODED,NOT APPLICABLE,UNCODED,UNCODED,51 TO 100,102.0
638,COMMUNITY TEAMWORK HEAD START-CC,126 PHOENIX AVE,LOWELL,MA,1852,25017,MIDDLESEX,1122.0,"PRE-K, KINDERGARTEN, CHILD CARE",UNCODED,UNCODED,NOT APPLICABLE,NOT APPLICABLE,UNCODED,UNCODED,1001 TO 2000,102.0
639,DYOUVILLE SENIOR CARE,981 VARNUM AVE,LOWELL,MA,1854,25017,MIDDLESEX,1122.0,NURSING HOME,UNCODED,NOT APPLICABLE,101 TO 500,NOT APPLICABLE,UNCODED,PUBLIC,>2000,204.0
640,LOWELL TREATMENT CENTER,391 VARNUM AVE,LOWELL,MA,1854,25017,MIDDLESEX,1122.0,"CENTERS FOR REHABILITATION AND READAPTION, ADULT DAY CARE",UNCODED,NOT APPLICABLE,UNCODED,NOT APPLICABLE,UNCODED,UNCODED,51 TO 100,102.0
641,FAIRHAVEN HEALTHCARE CENTER,476 VARNUM AVE,LOWELL,MA,1854,25017,MIDDLESEX,1122.0,NURSING HOME,UNCODED,NOT APPLICABLE,101 TO 500,NOT APPLICABLE,UNCODED,PUBLIC,>2000,159.0
642,TCU AT LOWELL GENERAL HOSPITAL,295 VARNUM AVE,LOWELL,MA,1854,25017,MIDDLESEX,1122.0,NURSING HOME,UNCODED,NOT APPLICABLE,1 TO 50,NOT APPLICABLE,UNCODED,PUBLIC,501 TO 1000,25.0
643,THE GRIP PROJECT RUNAWAY-HOMELESS,35 VARNUM AVE,LOWELL,MA,1854,25017,MIDDLESEX,1122.0,RUNAWAY & HOMELESS CENTERS,UNCODED,NOT APPLICABLE,NOT APPLICABLE,NOT APPLICABLE,UNCODED,UNCODED,51 TO 100,102.0
644,UNIVERSITY OF MASSACHUETTS-LOWELL,1 UNIVERSITY AVE,LOWELL,MA,1854,25017,MIDDLESEX,1122.0,4 YEAR COLLEGE & UNIVERSITIES,UNCODED,OVER 5000,NOT APPLICABLE,NOT APPLICABLE,ARAMARK,PUBLIC,>2000,102.0
645,CTI CHILDRENS CORNER DAY CARE CENTER,554 PAWTUCKET ST,LOWELL,MA,1854,25017,MIDDLESEX,1122.0,"PRE-K, KINDERGARTEN, CHILD CARE",UNCODED,UNCODED,NOT APPLICABLE,NOT APPLICABLE,UNCODED,UNCODED,501 TO 1000,102.0
646,HABIT OPCO-SUBSTANCE ABUSE TREATMENT,650 SUFFOLK ST,LOWELL,MA,1854,25017,MIDDLESEX,1122.0,OTHER HEALTHCARE ESTABLISHMENTS,UNCODED,NOT APPLICABLE,UNCODED,NOT APPLICABLE,UNCODED,UNCODED,51 TO 100,102.0
647,ST PATRICKS SCHOOL AND EDUCATIONAL CTR,311 ADAMS ST,LOWELL,MA,1854,25017,MIDDLESEX,1122.0,PRIMARY SCHOOL,UNCODED,250 AND LESS,NOT APPLICABLE,NOT APPLICABLE,UNCODED,PRIVATE,101 TO 250,102.0
648,LOWELL HOUSE-OTPTNT SUBSTANCE ABUSE SVCS,555 MERRIMACK ST,LOWELL,MA,1854,25017,MIDDLESEX,1122.0,OTHER HEALTHCARE ESTABLISHMENTS,UNCODED,NOT APPLICABLE,UNCODED,NOT APPLICABLE,UNCODED,UNCODED,51 TO 100,102.0
649,LOWELL COUNCIL OF AGING SENIOR CENTER,276 BROADWAY ST,LOWELL,MA,1854,25017,MIDDLESEX,1122.0,"SOCIAL AND PRIVATE CLUBS, LEGIONS, FRATERNITIES",UNCODED,NOT APPLICABLE,NOT APPLICABLE,NOT APPLICABLE,UNCODED,UNCODED,51 TO 100,102.0
650,FREDRICK N SWEETSIR ELEMENTARY SCHOOL,104 CHURCH ST,MERRIMAC,MA,1860,25009,ESSEX,1122.0,PRIMARY SCHOOL,UNCODED,251 TO 500,NOT APPLICABLE,NOT APPLICABLE,UNCODED,PUBLIC,251 TO 500,102.0
651,MERRIMAC SENIOR CENTER,100 E MAIN ST,MERRIMAC,MA,1860,25009,ESSEX,1122.0,"SOCIAL AND PRIVATE CLUBS, LEGIONS, FRATERNITIES",UNCODED,NOT APPLICABLE,NOT APPLICABLE,NOT APPLICABLE,UNCODED,UNCODED,51 TO 100,102.0
652,NEW ENGLAND PEDIATRIC CARE,78 BOSTON RD,NORTH BILLERICA,MA,1862,25017,MIDDLESEX,1122.0,NURSING HOME,UNCODED,NOT APPLICABLE,51 TO 100,NOT APPLICABLE,UNCODED,PUBLIC,1001 TO 2000,74.0
653,LIFE CARE CENTER-MERRIMACK VALLEY,80 BOSTON RD,NORTH BILLERICA,MA,1862,25017,MIDDLESEX,1122.0,NURSING HOME,UNCODED,NOT APPLICABLE,101 TO 500,NOT APPLICABLE,UNCODED,PUBLIC,>2000,115.0
654,KINDERCARE LEARNING CENTER,179 BOSTON RD,NORTH BILLERICA,MA,1862,25017,MIDDLESEX,1122.0,"PRE-K, KINDERGARTEN, CHILD CARE",UNCODED,UNCODED,NOT APPLICABLE,NOT APPLICABLE,UNCODED,UNCODED,501 TO 1000,102.0
655,CHELMSFORD SENIOR CENTER,75 GROTON RD,NORTH CHELMSFORD,MA,1863,25017,MIDDLESEX,1122.0,"SOCIAL AND PRIVATE CLUBS, LEGIONS, FRATERNITIES",UNCODED,NOT APPLICABLE,NOT APPLICABLE,NOT APPLICABLE,UNCODED,UNCODED,51 TO 100,102.0
656,KNOWLEDGE BEGINNINGS RESEARCH PK,11 RESEARCH PL,NORTH CHELMSFORD,MA,1863,25017,MIDDLESEX,1122.0,"PRE-K, KINDERGARTEN, CHILD CARE",UNCODED,UNCODED,NOT APPLICABLE,NOT APPLICABLE,UNCODED,UNCODED,501 TO 1000,102.0
657,MULBERRY CHILDCARE PRESCHOOL,48 MAIN ST,NORTH READING,MA,1864,25017,MIDDLESEX,1122.0,"PRE-K, KINDERGARTEN, CHILD CARE",UNCODED,UNCODED,NOT APPLICABLE,NOT APPLICABLE,OTHER CONTRACTED,UNCODED,501 TO 1000,102.0
658,EDITH A O LEARY SENIOR CENTER,157 PARK ST,NORTH READING,MA,1864,25017,MIDDLESEX,1122.0,"SOCIAL AND PRIVATE CLUBS, LEGIONS, FRATERNITIES",UNCODED,NOT APPLICABLE,NOT APPLICABLE,NOT APPLICABLE,UNCODED,UNCODED,51 TO 100,102.0
659,READING CNCL ON AGING SR CTR,49 PLEASANT ST,READING,MA,1867,25017,MIDDLESEX,1122.0,"SOCIAL AND PRIVATE CLUBS, LEGIONS, FRATERNITIES",UNCODED,NOT APPLICABLE,NOT APPLICABLE,NOT APPLICABLE,UNCODED,UNCODED,51 TO 100,102.0
660,WINGATE AT READING,1364 MAIN ST,READING,MA,1867,25017,MIDDLESEX,1122.0,NURSING HOME,UNCODED,NOT APPLICABLE,101 TO 500,NOT APPLICABLE,UNCODED,PUBLIC,>2000,121.0
661,READING PUBLIC SCHOOL DISTRICT,82 OAKLAND RD,READING,MA,1867,25017,MIDDLESEX,1122.0,SCHOOL DISTRICTS,251-500,2001 TO 5000,NOT APPLICABLE,6 TO 9,UNCODED,PUBLIC,>2000,102.0
662,BURBANK YMCA PRESCHOOL-AFTER SCHOOL PROG,36 ARTHUR B LORD DR,READING,MA,1867,25017,MIDDLESEX,1122.0,"PRE-K, KINDERGARTEN, CHILD CARE",UNCODED,UNCODED,NOT APPLICABLE,NOT APPLICABLE,UNCODED,UNCODED,501 TO 1000,102.0
663,DANIELS HOUSE NURSING HOME,59 MIDDLESEX AVE,READING,MA,1867,25017,MIDDLESEX,1122.0,NURSING HOME,UNCODED,NOT APPLICABLE,1 TO 50,NOT APPLICABLE,UNCODED,PUBLIC,501 TO 1000,30.0
664,MIDDLESEX DUIL PROGRAM-SBSTNC ABUSE PRGM,PO BOX 149,TEWKSBURY,MA,1876,25017,MIDDLESEX,1122.0,OTHER HEALTHCARE ESTABLISHMENTS,UNCODED,NOT APPLICABLE,UNCODED,NOT APPLICABLE,UNCODED,UNCODED,51 TO 100,102.0
665,KNOWLEDGE BEGINNINGS-TEWKSBURY,200 OLD MAIN ST,TEWKSBURY,MA,1876,25017,MIDDLESEX,1122.0,"PRE-K, KINDERGARTEN, CHILD CARE",UNCODED,UNCODED,NOT APPLICABLE,NOT APPLICABLE,OTHER CONTRACTED,UNCODED,501 TO 1000,102.0
666,SENIOR CITIZEN CENTER-TEWKSBURY,175 CHANDLER ST,TEWKSBURY,MA,1876,25017,MIDDLESEX,1122.0,"SOCIAL AND PRIVATE CLUBS, LEGIONS, FRATERNITIES",UNCODED,NOT APPLICABLE,NOT APPLICABLE,NOT APPLICABLE,UNCODED,UNCODED,51 TO 100,102.0
667,TEWKSBURY HOSPITAL,365 EAST ST,TEWKSBURY,MA,1876,25017,MIDDLESEX,1122.0,HOSPITALS,751-999,NOT APPLICABLE,501 TO 1000,NOT APPLICABLE,UNCODED,UNCODED,>2000,315.0
668,BLAIRE HOUSE OF TEWKSBURY,10 ERLIN TER,TEWKSBURY,MA,1876,25017,MIDDLESEX,1122.0,NURSING HOME,UNCODED,NOT APPLICABLE,101 TO 500,NOT APPLICABLE,UNCODED,PUBLIC,>2000,111.0
669,JOHN F RYAN ELEMENTARY SCHOOL,135 PLEASANT ST,TEWKSBURY,MA,1876,25017,MIDDLESEX,1122.0,PRIMARY SCHOOL,UNCODED,501 TO 1000,NOT APPLICABLE,NOT APPLICABLE,UNCODED,PRIVATE,501 TO 1000,102.0
670,LITTLE ANGELS DAYCARE -ADVENTURE CLUB,262 MIDDLESEX RD,TYNGSBORO,MA,1879,25017,MIDDLESEX,1122.0,"PRE-K, KINDERGARTEN, CHILD CARE",UNCODED,UNCODED,NOT APPLICABLE,NOT APPLICABLE,UNCODED,UNCODED,501 TO 1000,102.0
671,THE ACADEMY OF NOTRE DAME,180 MIDDLESEX RD,TYNGSBORO,MA,1879,25017,MIDDLESEX,1122.0,SECONDARY SCHOOL,UNCODED,501 TO 1000,NOT APPLICABLE,NOT APPLICABLE,UNCODED,PRIVATE,501 TO 1000,102.0
672,TYNGSBORO COUNCIL ON AGING SR COMM CTR,180 LAKEVIEW AVE,TYNGSBORO,MA,1879,25017,MIDDLESEX,1122.0,"SOCIAL AND PRIVATE CLUBS, LEGIONS, FRATERNITIES",UNCODED,NOT APPLICABLE,NOT APPLICABLE,NOT APPLICABLE,UNCODED,UNCODED,51 TO 100,102.0
673,GREATER LOWELL VOCATIONAL TECHNICAL DIST,250 PAWTUCKET BLVD,TYNGSBORO,MA,1879,25017,MIDDLESEX,1122.0,SCHOOL DISTRICTS,UNCODED,1001 TO 2000,NOT APPLICABLE,1,UNCODED,PUBLIC,1001 TO 2000,102.0
674,ACTIVE DAY-ADULT DAY CARE SERVICES,607 NORTH AVE,WAKEFIELD,MA,1880,25017,MIDDLESEX,1122.0,"CENTERS FOR REHABILITATION AND READAPTION, ADULT DAY CARE",UNCODED,NOT APPLICABLE,1 TO 50,NOT APPLICABLE,OTHER CONTRACTED,UNCODED,101 TO 250,102.0
675,KIRKWOOD HOUSE INC,202 MAIN ST,WAKEFIELD,MA,1880,25017,MIDDLESEX,1122.0,NURSING HOME,UNCODED,NOT APPLICABLE,1 TO 50,NOT APPLICABLE,UNCODED,PUBLIC,501 TO 1000,26.0
676,WAKEFIELD COUNCIL ON AGING SENIOR CENTER,30 CONVERSE ST,WAKEFIELD,MA,1880,25017,MIDDLESEX,1122.0,"SOCIAL AND PRIVATE CLUBS, LEGIONS, FRATERNITIES",UNCODED,NOT APPLICABLE,NOT APPLICABLE,NOT APPLICABLE,UNCODED,UNCODED,51 TO 100,102.0
677,NORTHEAST METRO REGIONAL VOC SCH DIST,100 HEMLOCK RD,WAKEFIELD,MA,1880,25017,MIDDLESEX,1122.0,SCHOOL DISTRICTS,1-250,1001 TO 2000,NOT APPLICABLE,1,UNCODED,PUBLIC,1001 TO 2000,102.0
678,WAKEFIELD PUBLIC SCHOOLS,60 FARM ST,WAKEFIELD,MA,1880,25017,MIDDLESEX,1122.0,SCHOOL DISTRICTS,251-500,2001 TO 5000,NOT APPLICABLE,6 TO 9,UNCODED,PUBLIC,>2000,102.0
679,HARBORSIDE HEALTHCARE WAKEFIELD,1 BATHOL ST,WAKEFIELD,MA,1880,25017,MIDDLESEX,1122.0,"CENTERS FOR REHABILITATION AND READAPTION, ADULT DAY CARE",UNCODED,NOT APPLICABLE,101 TO 500,NOT APPLICABLE,UNCODED,PUBLIC,>2000,110.3
680,GREENWOODS NURSING REHAB CENTER,90 GREENWOOD ST,WAKEFIELD,MA,1880,25017,MIDDLESEX,1122.0,NURSING HOME,UNCODED,NOT APPLICABLE,1 TO 50,NOT APPLICABLE,UNCODED,PUBLIC,501 TO 1000,35.0
681,RIVERSIDE COMMUNITY CARE CENTER,338 MAIN ST,WAKEFIELD,MA,1880,25017,MIDDLESEX,1122.0,"CENTERS FOR REHABILITATION AND READAPTION, ADULT DAY CARE",UNCODED,NOT APPLICABLE,UNCODED,NOT APPLICABLE,UNCODED,UNCODED,51 TO 100,102.0
682,RIVERSIDE OUTPATIENT CENTER-AODA PROGRAM,338 MAIN ST,WAKEFIELD,MA,1880,25017,MIDDLESEX,1122.0,OTHER HEALTHCARE ESTABLISHMENTS,UNCODED,NOT APPLICABLE,UNCODED,NOT APPLICABLE,UNCODED,UNCODED,51 TO 100,102.0
683,LLOYD G BLANCHARD MIDDLE SCHOOL,14 WEST ST,WESTFORD,MA,1886,25017,MIDDLESEX,1122.0,PRIMARY SCHOOL,UNCODED,501 TO 1000,NOT APPLICABLE,NOT APPLICABLE,UNCODED,PUBLIC,501 TO 1000,102.0
684,WESTFORD PUBLIC SCHOOL DISTRICT,23 DEPOT ST,WESTFORD,MA,1886,25017,MIDDLESEX,1122.0,SCHOOL DISTRICTS,251-500,2001 TO 5000,NOT APPLICABLE,6 TO 9,UNCODED,PUBLIC,>2000,102.0
685,NASHOBA VALLEY TECHNICAL HIGH SCH DIST,100 LITTLETON RD,WESTFORD,MA,1886,25017,MIDDLESEX,1122.0,SCHOOL DISTRICTS,UNCODED,501 TO 1000,NOT APPLICABLE,1,UNCODED,PUBLIC,501 TO 1000,102.0
686,WESTFORD HOUSE-GENESIS ELDERCARE,3 PARK DR,WESTFORD,MA,1886,25017,MIDDLESEX,1122.0,NURSING HOME,UNCODED,NOT APPLICABLE,101 TO 500,NOT APPLICABLE,UNCODED,PUBLIC,>2000,114.0
687,KINDERCARE LEARNING CENTER,26 CARLISLE RD,WESTFORD,MA,1886,25017,MIDDLESEX,1122.0,"PRE-K, KINDERGARTEN, CHILD CARE",UNCODED,UNCODED,NOT APPLICABLE,NOT APPLICABLE,OTHER CONTRACTED,UNCODED,501 TO 1000,102.0
688,NEXT GENERATION CHILDRENS CTROF WESTFORD,9 POWER RD,WESTFORD,MA,1886,25017,MIDDLESEX,1122.0,"PRE-K, KINDERGARTEN, CHILD CARE",UNCODED,UNCODED,NOT APPLICABLE,NOT APPLICABLE,UNCODED,UNCODED,501 TO 1000,102.0
689,CAMERON SENIOR CENTER,PO BOX 2223,WESTFORD,MA,1886,25017,MIDDLESEX,1122.0,"SOCIAL AND PRIVATE CLUBS, LEGIONS, FRATERNITIES",UNCODED,NOT APPLICABLE,NOT APPLICABLE,NOT APPLICABLE,UNCODED,UNCODED,51 TO 100,102.0
690,WILMINGTON PUBLIC SCHOOL DISTRICT,161 CHURCH ST,WILMINGTON,MA,1887,25017,MIDDLESEX,1122.0,SCHOOL DISTRICTS,251-500,2001 TO 5000,NOT APPLICABLE,6 TO 9,UNCODED,PUBLIC,>2000,102.0
691,WOODBRIAR REHAB-SKILLED NURSING CENTER,90 WEST ST,WILMINGTON,MA,1887,25017,MIDDLESEX,1122.0,NURSING HOME,UNCODED,NOT APPLICABLE,101 TO 500,NOT APPLICABLE,UNCODED,PUBLIC,>2000,136.0
692,THE WILMINGTON HEALTH CARE CENTER,750 WOBURN ST,WILMINGTON,MA,1887,25017,MIDDLESEX,1122.0,NURSING HOME,UNCODED,NOT APPLICABLE,101 TO 500,NOT APPLICABLE,OTHER CONTRACTED,PUBLIC,>2000,119.0
693,WINCHESTER NURSING CENTER,PO BOX 490,WINCHESTER,MA,1890,25017,MIDDLESEX,1122.0,NURSING HOME,UNCODED,NOT APPLICABLE,101 TO 500,NOT APPLICABLE,UNCODED,PUBLIC,>2000,115.0
694,WINCHESTER HOSPITAL,41 HIGHLAND AVE,WINCHESTER,MA,1890,25017,MIDDLESEX,1122.0,HOSPITALS,1000+,NOT APPLICABLE,101 TO 500,NOT APPLICABLE,SODEXO,UNCODED,>2000,148.9
695,CREATIVE CORNER CHILDRENS LEARNING CENTE,11 SHERIDAN CIR,WINCHESTER,MA,1890,25017,MIDDLESEX,1122.0,"PRE-K, KINDERGARTEN, CHILD CARE",UNCODED,UNCODED,NOT APPLICABLE,NOT APPLICABLE,UNCODED,UNCODED,501 TO 1000,102.0
696,PROJECT COPE-OTPTNT SUBSTANCE ABUSE SVCS,181 UNION ST,LYNN,MA,1901,25009,ESSEX,1122.0,OTHER HEALTHCARE ESTABLISHMENTS,UNCODED,NOT APPLICABLE,UNCODED,NOT APPLICABLE,UNCODED,UNCODED,51 TO 100,102.0
697,LYNN COMM HLTH CENTER-BHVRL HLTHCR AODA,269 UNION ST,LYNN,MA,1901,25009,ESSEX,1122.0,OTHER HEALTHCARE ESTABLISHMENTS,UNCODED,NOT APPLICABLE,UNCODED,NOT APPLICABLE,UNCODED,UNCODED,51 TO 100,102.0
698,LYNN COA SENIOR CENTER,8 SILSBEE ST,LYNN,MA,1901,25009,ESSEX,1122.0,"SOCIAL AND PRIVATE CLUBS, LEGIONS, FRATERNITIES",UNCODED,NOT APPLICABLE,NOT APPLICABLE,NOT APPLICABLE,UNCODED,UNCODED,51 TO 100,102.0
699,LIFE CARE CENTER OF NORTH SHORE,111 BIRCH ST,LYNN,MA,1902,25009,ESSEX,1122.0,NURSING HOME,UNCODED,NOT APPLICABLE,101 TO 500,NOT APPLICABLE,UNCODED,PUBLIC,>2000,111.0
700,ABBOTT HOUSE NURSING HOME,28 ESSEX ST,LYNN,MA,1902,25009,ESSEX,1122.0,NURSING HOME,UNCODED,NOT APPLICABLE,51 TO 100,NOT APPLICABLE,UNCODED,PUBLIC,1001 TO 2000,49.0
701,CAB HLTH-RECOVERY SVCS RYAN HOUSE-AODA,100 GREEN ST,LYNN,MA,1902,25009,ESSEX,1122.0,OTHER HEALTHCARE ESTABLISHMENTS,UNCODED,NOT APPLICABLE,UNCODED,NOT APPLICABLE,UNCODED,UNCODED,51 TO 100,102.0
702,CAB HEALTH-RECOVERY SERVICE SBSTNC ABUSE,110 GREEN ST,LYNN,MA,1902,25009,ESSEX,1122.0,OTHER HEALTHCARE ESTABLISHMENTS,UNCODED,NOT APPLICABLE,UNCODED,NOT APPLICABLE,UNCODED,UNCODED,51 TO 100,102.0
703,ATLANTIC REST HOME,60 ATLANTIC ST,LYNN,MA,1902,25009,ESSEX,1122.0,ASSISTED LIVING,UNCODED,NOT APPLICABLE,1 TO 50,NOT APPLICABLE,UNCODED,PUBLIC,501 TO 1000,102.0
704,LYNN SHORE REST HOME,37 BREED ST,LYNN,MA,1902,25009,ESSEX,1122.0,ASSISTED LIVING,UNCODED,NOT APPLICABLE,1 TO 50,NOT APPLICABLE,UNCODED,PUBLIC,501 TO 1000,102.0
705,CEREBRAL PALSY ASSOC-FAC FOR CHILDREN,103 JOHNSON ST,LYNN,MA,1902,25009,ESSEX,1122.0,"CENTERS FOR REHABILITATION AND READAPTION, ADULT DAY CARE",UNCODED,NOT APPLICABLE,UNCODED,NOT APPLICABLE,UNCODED,UNCODED,51 TO 100,102.0
706,LAWRENCE MANOR NURSING HOME,26 HENRY AVE,LYNN,MA,1902,25009,ESSEX,1122.0,NURSING HOME,UNCODED,NOT APPLICABLE,1 TO 50,NOT APPLICABLE,UNCODED,PUBLIC,501 TO 1000,25.0
707,GREATER LYNN YMCA-BUILDING BLOCKS,20 NEPTUNE BLVD,LYNN,MA,1902,25009,ESSEX,1122.0,"PRE-K, KINDERGARTEN, CHILD CARE",UNCODED,UNCODED,NOT APPLICABLE,NOT APPLICABLE,UNCODED,UNCODED,501 TO 1000,102.0
708,GIRLS INC OF LYNN-SUBSTANCE ABUSE TRTMNT,88 BROAD ST,LYNN,MA,1902,25009,ESSEX,1122.0,OTHER HEALTHCARE ESTABLISHMENTS,UNCODED,NOT APPLICABLE,UNCODED,NOT APPLICABLE,UNCODED,UNCODED,51 TO 100,102.0
709,GREGG NEIGHBORHOOD HOUSE,PO BOX 932,LYNN,MA,1903,25009,ESSEX,1122.0,"PRE-K, KINDERGARTEN, CHILD CARE",UNCODED,UNCODED,NOT APPLICABLE,NOT APPLICABLE,UNCODED,UNCODED,501 TO 1000,102.0
710,BAY RIDGE HOSPITAL,60 GRANITE ST,LYNN,MA,1904,25009,ESSEX,1122.0,HOSPITALS,UNCODED,NOT APPLICABLE,51 TO 100,NOT APPLICABLE,UNCODED,UNCODED,1001 TO 2000,102.0
711,PHILLIPS MANOR NURSING HOME,28 LINWOOD RD,LYNN,MA,1905,25009,ESSEX,1122.0,NURSING HOME,UNCODED,NOT APPLICABLE,1 TO 50,NOT APPLICABLE,UNCODED,PUBLIC,501 TO 1000,24.0
712,LYNN PUBLIC SCHOOL DISTRICT,90 COMMERCIAL ST,LYNN,MA,1905,25009,ESSEX,1122.0,SCHOOL DISTRICTS,1000+,OVER 5000,NOT APPLICABLE,10 AND PLUS,UNCODED,PUBLIC,>2000,102.0
713,HARBORSIDE HEALTHCARE-NORTHSHORE,266 LINCOLN AVE,SAUGUS,MA,1906,25009,ESSEX,1122.0,ASSISTED LIVING,UNCODED,NOT APPLICABLE,51 TO 100,NOT APPLICABLE,UNCODED,PUBLIC,1001 TO 2000,76.0
714,SAUGUS COUNCIL ON AGING-SENIOR CENTER,466 CENTRAL ST,SAUGUS,MA,1906,25009,ESSEX,1122.0,"SOCIAL AND PRIVATE CLUBS, LEGIONS, FRATERNITIES",UNCODED,NOT APPLICABLE,NOT APPLICABLE,NOT APPLICABLE,UNCODED,UNCODED,51 TO 100,102.0
715,SWAMPSCOTT COUNCIL ON AGING SENIOR CTR,89 BURRILL ST,SWAMPSCOTT,MA,1907,25009,ESSEX,1122.0,"SOCIAL AND PRIVATE CLUBS, LEGIONS, FRATERNITIES",UNCODED,NOT APPLICABLE,NOT APPLICABLE,NOT APPLICABLE,UNCODED,UNCODED,51 TO 100,102.0
716,SHIRAT HAYAM PRESCHOOL,55 ATLANTIC AVE,SWAMPSCOTT,MA,1907,25009,ESSEX,1122.0,"PRE-K, KINDERGARTEN, CHILD CARE",UNCODED,UNCODED,NOT APPLICABLE,NOT APPLICABLE,UNCODED,UNCODED,501 TO 1000,102.0
717,MARIAN COURT COLLEGE,35 LITTLES POINT RD,SWAMPSCOTT,MA,1907,25009,ESSEX,1122.0,2 YEAR COLLEGE & UNIVERSITIES,UNCODED,250 AND LESS,NOT APPLICABLE,NOT APPLICABLE,UNCODED,PRIVATE,101 TO 250,102.0
718,JEWISH REHABILITATION CENTER-NORTH SHORE,330 PARADISE RD,SWAMPSCOTT,MA,1907,25009,ESSEX,1122.0,NURSING HOME,UNCODED,NOT APPLICABLE,101 TO 500,NOT APPLICABLE,UNCODED,PUBLIC,>2000,169.0
719,JESMOND NURSING HOME,271 NAHANT RD,NAHANT,MA,1908,25009,ESSEX,1122.0,NURSING HOME,UNCODED,NOT APPLICABLE,51 TO 100,NOT APPLICABLE,UNCODED,PUBLIC,1001 TO 2000,53.0
720,NAHANT COUNCIL ON AGING-SENIOR CENTER,334 NAHANT RD,NAHANT,MA,1908,25009,ESSEX,1122.0,"SOCIAL AND PRIVATE CLUBS, LEGIONS, FRATERNITIES",UNCODED,NOT APPLICABLE,NOT APPLICABLE,NOT APPLICABLE,UNCODED,UNCODED,51 TO 100,102.0
721,AMESBURY VILLAGE,22 MAPLE ST,AMESBURY,MA,1913,25009,ESSEX,1122.0,NURSING HOME,UNCODED,NOT APPLICABLE,101 TO 500,NOT APPLICABLE,OTHER CONTRACTED,PUBLIC,>2000,100.0
722,PROGRESS HOUSE-SUBSTANCE ABUSE TREATMENT,39 HIGH ST,AMESBURY,MA,1913,25009,ESSEX,1122.0,OTHER HEALTHCARE ESTABLISHMENTS,UNCODED,NOT APPLICABLE,UNCODED,NOT APPLICABLE,UNCODED,UNCODED,51 TO 100,102.0
723,AMESBURY SENIOR CENTER,9 SCHOOL ST,AMESBURY,MA,1913,25009,ESSEX,1122.0,"SOCIAL AND PRIVATE CLUBS, LEGIONS, FRATERNITIES",UNCODED,NOT APPLICABLE,NOT APPLICABLE,NOT APPLICABLE,UNCODED,UNCODED,51 TO 100,102.0
724,HARBORSIDE HEALTH CARE-MAPLEWOOD,6 MORRILL PL,AMESBURY,MA,1913,25009,ESSEX,1122.0,"CENTERS FOR REHABILITATION AND READAPTION, ADULT DAY CARE",UNCODED,NOT APPLICABLE,101 TO 500,NOT APPLICABLE,UNCODED,PUBLIC,>2000,108.0
725,MONTSERRAT COLLEGE OF ART,PO BOX 26,BEVERLY,MA,1915,25009,ESSEX,1122.0,4 YEAR COLLEGE & UNIVERSITIES,UNCODED,251 TO 500,NOT APPLICABLE,NOT APPLICABLE,UNCODED,PRIVATE,251 TO 500,102.0
726,BEVERLY HOSPITAL,85 HERRICK ST,BEVERLY,MA,1915,25009,ESSEX,1122.0,HOSPITALS,1000+,NOT APPLICABLE,101 TO 500,NOT APPLICABLE,SODEXO,UNCODED,>2000,200.2
727,STERLING YMCA CHILDRENS ENRICHMENT CENTE,254 ESSEX ST,BEVERLY,MA,1915,25009,ESSEX,1122.0,"PRE-K, KINDERGARTEN, CHILD CARE",UNCODED,UNCODED,NOT APPLICABLE,NOT APPLICABLE,UNCODED,UNCODED,501 TO 1000,102.0
728,HARBORLIGHT MONTESSORI INFANT-TODDLER CC,243 ESSEX ST,BEVERLY,MA,1915,25009,ESSEX,1122.0,"PRE-K, KINDERGARTEN, CHILD CARE",UNCODED,UNCODED,NOT APPLICABLE,NOT APPLICABLE,UNCODED,UNCODED,501 TO 1000,102.0
729,ESSEX PARK REHABILITATION AND NURSING,265 ESSEX ST,BEVERLY,MA,1915,25009,ESSEX,1122.0,NURSING HOME,UNCODED,NOT APPLICABLE,101 TO 500,NOT APPLICABLE,OTHER CONTRACTED,PUBLIC,>2000,135.0
730,ENDICOTT COLLEGE,376 HALE ST,BEVERLY,MA,1915,25009,ESSEX,1122.0,4 YEAR COLLEGE & UNIVERSITIES,UNCODED,2001 TO 5000,NOT APPLICABLE,NOT APPLICABLE,SODEXO,PRIVATE,>2000,102.0
731,BEVERLY SCHOOL FOR THE DEAF,6 ECHO AVE,BEVERLY,MA,1915,25009,ESSEX,1122.0,"CENTERS FOR REHABILITATION AND READAPTION, ADULT DAY CARE",UNCODED,NOT APPLICABLE,UNCODED,NOT APPLICABLE,UNCODED,UNCODED,51 TO 100,102.0
732,BEVERLY PUBLIC SCHOOLS,502 CABOT ST,BEVERLY,MA,1915,25009,ESSEX,1122.0,SCHOOL DISTRICTS,251-500,2001 TO 5000,NOT APPLICABLE,6 TO 9,UNCODED,PUBLIC,>2000,102.0
733,SHORE COUNTRY DAY SCHOOL,545 CABOT ST,BEVERLY,MA,1915,25009,ESSEX,1122.0,PRIMARY SCHOOL,UNCODED,251 TO 500,NOT APPLICABLE,NOT APPLICABLE,UNCODED,PRIVATE,251 TO 500,102.0
734,LEDGEWOOD REHAB-SKILLED NURSING CENTER,87 HERRICK ST,BEVERLY,MA,1915,25009,ESSEX,1122.0,NURSING HOME,UNCODED,NOT APPLICABLE,101 TO 500,NOT APPLICABLE,UNCODED,PUBLIC,>2000,119.0
735,BEVERLY COUNCIL ON AGING SENIOR CENTER,90 COLON ST,BEVERLY,MA,1915,25009,ESSEX,1122.0,"SOCIAL AND PRIVATE CLUBS, LEGIONS, FRATERNITIES",UNCODED,NOT APPLICABLE,NOT APPLICABLE,NOT APPLICABLE,UNCODED,UNCODED,51 TO 100,102.0
736,NORTH SHORE COUNSELING CTR OTPTNT AODA,23 BROADWAY,BEVERLY,MA,1915,25009,ESSEX,1122.0,OTHER HEALTHCARE ESTABLISHMENTS,UNCODED,NOT APPLICABLE,UNCODED,NOT APPLICABLE,UNCODED,UNCODED,51 TO 100,102.0
737,HEALTH AND EDUCATION SERVICES-AODA SVCS,156 CABOT ST,BEVERLY,MA,1915,25009,ESSEX,1122.0,OTHER HEALTHCARE ESTABLISHMENTS,UNCODED,NOT APPLICABLE,UNCODED,NOT APPLICABLE,UNCODED,UNCODED,51 TO 100,102.0
738,BEVERLY CHILDRENS LEARNING CENTER,600 CUMMINGS CTR,BEVERLY,MA,1915,25009,ESSEX,1122.0,"PRE-K, KINDERGARTEN, CHILD CARE",UNCODED,UNCODED,NOT APPLICABLE,NOT APPLICABLE,UNCODED,UNCODED,501 TO 1000,102.0
739,BRIGHT HORIZONS AT CUMMINGS CENTER,400 CUMMINGS CTR,BEVERLY,MA,1915,25009,ESSEX,1122.0,"PRE-K, KINDERGARTEN, CHILD CARE",UNCODED,UNCODED,NOT APPLICABLE,NOT APPLICABLE,UNCODED,UNCODED,501 TO 1000,102.0
740,CAMP ROTARY,PO BOX 270,BOXFORD,MA,1921,25009,ESSEX,1122.0,"CENTERS FOR CHILDREN, SUMMER CAMPS",UNCODED,NOT APPLICABLE,NOT APPLICABLE,NOT APPLICABLE,UNCODED,UNCODED,>2000,102.0
741,BOXFORD COUNCIL OF AGING SENIOR CENTER,4 MIDDLETON RD,BOXFORD,MA,1921,25009,ESSEX,1122.0,"SOCIAL AND PRIVATE CLUBS, LEGIONS, FRATERNITIES",UNCODED,NOT APPLICABLE,NOT APPLICABLE,NOT APPLICABLE,UNCODED,UNCODED,51 TO 100,102.0
742,TRITON REGIONAL SCHOOL DISTRICT,112 ELM ST,BYFIELD,MA,1922,25009,ESSEX,1122.0,SCHOOL DISTRICTS,251-500,2001 TO 5000,NOT APPLICABLE,3 TO 5,UNCODED,PUBLIC,>2000,102.0
743,NORTH SHORE COMMUNITY COLLEGE,PO BOX 3340,DANVERS,MA,1923,25009,ESSEX,1122.0,2 YEAR COLLEGE & UNIVERSITIES,UNCODED,OVER 5000,NOT APPLICABLE,NOT APPLICABLE,OTHER CONTRACTED,PUBLIC,>2000,102.0
744,MERIDIAN ADULT DAY CENTER,5 ELECTRONICS AVE,DANVERS,MA,1923,25009,ESSEX,1122.0,"CENTERS FOR REHABILITATION AND READAPTION, ADULT DAY CARE",UNCODED,NOT APPLICABLE,1 TO 50,NOT APPLICABLE,UNCODED,UNCODED,101 TO 250,102.0
745,CEDAR GLEN,44 SUMMER ST,DANVERS,MA,1923,25009,ESSEX,1122.0,NURSING HOME,UNCODED,NOT APPLICABLE,51 TO 100,NOT APPLICABLE,UNCODED,PUBLIC,1001 TO 2000,90.0
746,DANVERS COUNCIL ON AGING SENIOR CENTER,25 STONE ST,DANVERS,MA,1923,25009,ESSEX,1122.0,"SOCIAL AND PRIVATE CLUBS, LEGIONS, FRATERNITIES",UNCODED,NOT APPLICABLE,NOT APPLICABLE,NOT APPLICABLE,UNCODED,UNCODED,51 TO 100,102.0
747,HUNT NURSING RETIRMENT HOME,90 LINDALL ST,DANVERS,MA,1923,25009,ESSEX,1122.0,NURSING HOME,UNCODED,NOT APPLICABLE,101 TO 500,NOT APPLICABLE,OTHER CONTRACTED,PUBLIC,>2000,110.0
748,DANVERS TWIN OAKS,63 LOCUST ST,DANVERS,MA,1923,25009,ESSEX,1122.0,ASSISTED LIVING,UNCODED,NOT APPLICABLE,101 TO 500,NOT APPLICABLE,UNCODED,PUBLIC,>2000,92.0
749,DANVERS PUBLIC SCHOOLS,64 CABOT RD,DANVERS,MA,1923,25009,ESSEX,1122.0,SCHOOL DISTRICTS,251-500,2001 TO 5000,NOT APPLICABLE,6 TO 9,UNCODED,PUBLIC,>2000,102.0
750,RADIUS HEALTHCARE CENTER AT DANVERS,56 LIBERTY ST,DANVERS,MA,1923,25009,ESSEX,1122.0,NURSING HOME,UNCODED,NOT APPLICABLE,101 TO 500,NOT APPLICABLE,UNCODED,PUBLIC,>2000,142.0
751,CATHOLIC CHARITIES-SUBSTANCE ABUSE SVCS,140 COMMONWEALTH AVE,DANVERS,MA,1923,25009,ESSEX,1122.0,OTHER HEALTHCARE ESTABLISHMENTS,UNCODED,NOT APPLICABLE,UNCODED,NOT APPLICABLE,UNCODED,UNCODED,51 TO 100,102.0
752,CAB HEALTH-RECOVERY SERVICE-ADLSCNT AODA,111 MIDDLETON RD,DANVERS,MA,1923,25009,ESSEX,1122.0,OTHER HEALTHCARE ESTABLISHMENTS,UNCODED,NOT APPLICABLE,UNCODED,NOT APPLICABLE,UNCODED,UNCODED,51 TO 100,102.0
753,DAY BY DAY ADULT DAY CARE,4R BLACKBURN CTR,GLOUCESTER,MA,1930,25009,ESSEX,1122.0,"CENTERS FOR REHABILITATION AND READAPTION, ADULT DAY CARE",UNCODED,NOT APPLICABLE,1 TO 50,NOT APPLICABLE,UNCODED,UNCODED,101 TO 250,102.0
754,PATHWAY FOR CHILDREN-YOUNG FAMILY,29 EMERSON AVE,GLOUCESTER,MA,1930,25009,ESSEX,1122.0,"PRE-K, KINDERGARTEN, CHILD CARE",UNCODED,UNCODED,NOT APPLICABLE,NOT APPLICABLE,UNCODED,UNCODED,501 TO 1000,102.0
755,GLOUCESTER PUBLIC SCHOOL DISTRICT,6 SCHOOL HOUSE RD,GLOUCESTER,MA,1930,25009,ESSEX,1122.0,SCHOOL DISTRICTS,251-500,2001 TO 5000,NOT APPLICABLE,6 TO 9,UNCODED,PUBLIC,>2000,102.0
756,GOLDEN LIVING CENTER-GLOUCESTER,272 WASHINGTON ST,GLOUCESTER,MA,1930,25009,ESSEX,1122.0,NURSING HOME,UNCODED,NOT APPLICABLE,101 TO 500,NOT APPLICABLE,OTHER CONTRACTED,PUBLIC,>2000,86.0
757,SEACOAST NURSING CENTER REHAB,292 WASHINGTON ST,GLOUCESTER,MA,1930,25009,ESSEX,1122.0,NURSING HOME,UNCODED,NOT APPLICABLE,101 TO 500,NOT APPLICABLE,UNCODED,PUBLIC,>2000,133.0
758,ADDISON GILBERT HOSPITAL,298 WASHINGTON ST,GLOUCESTER,MA,1930,25009,ESSEX,1122.0,HOSPITALS,UNCODED,NOT APPLICABLE,51 TO 100,NOT APPLICABLE,UNCODED,UNCODED,1001 TO 2000,102.0
759,MOORES WAY-SUBSTANCE ABUSE SERVICES,23 DUNCAN ST,GLOUCESTER,MA,1930,25009,ESSEX,1122.0,OTHER HEALTHCARE ESTABLISHMENTS,UNCODED,NOT APPLICABLE,UNCODED,NOT APPLICABLE,UNCODED,UNCODED,51 TO 100,102.0
760,ESSEX AGRICULTURE AND TECH HIGH SCHOOL,PO BOX 362,HATHORNE,MA,1937,25009,ESSEX,1122.0,SECONDARY SCHOOL,UNCODED,251 TO 500,NOT APPLICABLE,NOT APPLICABLE,UNCODED,PUBLIC,251 TO 500,102.0
761,ESSEX AGRCLTL-TECHNICAL HIGH SCHL DIST,PO BOX 362,HATHORNE,MA,1937,25009,ESSEX,1122.0,SCHOOL DISTRICTS,UNCODED,251 TO 500,NOT APPLICABLE,1,UNCODED,PUBLIC,251 TO 500,102.0
762,HOGAN REGIONAL CENTER-RESIDENTIAL TRTMNT,PO BOX A,HATHORNE,MA,1937,25009,ESSEX,1122.0,"CENTERS FOR REHABILITATION AND READAPTION, ADULT DAY CARE",UNCODED,NOT APPLICABLE,UNCODED,NOT APPLICABLE,COMPASS,UNCODED,51 TO 100,102.0
763,IPSWICH PUBLIC SCHOOL DISTRICT,1 LORD SQ,IPSWICH,MA,1938,25009,ESSEX,1122.0,SCHOOL DISTRICTS,251-500,2001 TO 5000,NOT APPLICABLE,3 TO 5,UNCODED,PUBLIC,>2000,102.0
764,CALDWELL SKILLED NURSING AND REHAB CTR,16 GREEN ST,IPSWICH,MA,1938,25009,ESSEX,1122.0,NURSING HOME,UNCODED,NOT APPLICABLE,51 TO 100,NOT APPLICABLE,UNCODED,PUBLIC,1001 TO 2000,50.0
765,LYNNFIELD COUNCIL ON AGING SENIOR CENTER,525 SALEM ST,LYNNFIELD,MA,1940,25009,ESSEX,1122.0,"SOCIAL AND PRIVATE CLUBS, LEGIONS, FRATERNITIES",UNCODED,NOT APPLICABLE,NOT APPLICABLE,NOT APPLICABLE,UNCODED,UNCODED,51 TO 100,102.0
766,MANCHESTER ESSEX REGIONAL SCHOOL DIST,PO BOX 1407,MANCHESTER,MA,1944,25009,ESSEX,1122.0,SCHOOL DISTRICTS,1-250,1001 TO 2000,NOT APPLICABLE,3 TO 5,UNCODED,PUBLIC,1001 TO 2000,102.0
767,MANCHESTER ESSEX REG MIDDLE / HIGH SCH,36 LINCOLN ST,MANCHESTER,MA,1944,25009,ESSEX,1122.0,SECONDARY SCHOOL,UNCODED,501 TO 1000,NOT APPLICABLE,NOT APPLICABLE,UNCODED,PUBLIC,501 TO 1000,102.0
768,MARBLEHEAD CHILDRENS CENTER,21 TIOGA WAY,MARBLEHEAD,MA,1945,25009,ESSEX,1122.0,"PRE-K, KINDERGARTEN, CHILD CARE",UNCODED,UNCODED,NOT APPLICABLE,NOT APPLICABLE,UNCODED,UNCODED,501 TO 1000,102.0
769,MARBLEHEAD COUNSELING CENTER-SBSTNC ABS,66 CLIFTON AVE,MARBLEHEAD,MA,1945,25009,ESSEX,1122.0,OTHER HEALTHCARE ESTABLISHMENTS,UNCODED,NOT APPLICABLE,UNCODED,NOT APPLICABLE,UNCODED,UNCODED,51 TO 100,102.0
770,MARBLEHEAD COA SENIOR CENTER,10 HUMPHREY ST,MARBLEHEAD,MA,1945,25009,ESSEX,1122.0,"SOCIAL AND PRIVATE CLUBS, LEGIONS, FRATERNITIES",UNCODED,NOT APPLICABLE,NOT APPLICABLE,NOT APPLICABLE,UNCODED,UNCODED,51 TO 100,102.0
771,DEVEREUX HOUSE NURSING HOME,39 LAFAYETTE ST,MARBLEHEAD,MA,1945,25009,ESSEX,1122.0,NURSING HOME,UNCODED,NOT APPLICABLE,51 TO 100,NOT APPLICABLE,UNCODED,PUBLIC,1001 TO 2000,61.0
772,LAFAYETTE CONVALESCENT HOME,25 LAFAYETTE ST,MARBLEHEAD,MA,1945,25009,ESSEX,1122.0,NURSING HOME,UNCODED,NOT APPLICABLE,51 TO 100,NOT APPLICABLE,UNCODED,PUBLIC,1001 TO 2000,63.0
773,JEWISH COMMUNITY CTR-NORTH SHORE CC,4 COMMUNITY RD,MARBLEHEAD,MA,1945,25009,ESSEX,1122.0,"PRE-K, KINDERGARTEN, CHILD CARE",UNCODED,UNCODED,NOT APPLICABLE,NOT APPLICABLE,UNCODED,UNCODED,501 TO 1000,102.0
774,ESSEX COUNTY JAIL-SHERIFFS OFFICE,PO BOX 807,MIDDLETON,MA,1949,25009,ESSEX,1122.0,PRISONS,UNCODED,NOT APPLICABLE,UNCODED,NOT APPLICABLE,UNCODED,UNCODED,51 TO 100,102.0
775,TURNING POINT SUBSTANCE ABUSE SERVICES,PO BOX 548,NEWBURYPORT,MA,1950,25009,ESSEX,1122.0,OTHER HEALTHCARE ESTABLISHMENTS,UNCODED,NOT APPLICABLE,UNCODED,NOT APPLICABLE,UNCODED,UNCODED,51 TO 100,102.0
776,LINK HOUSE SUBSTANCE ABUSE SERVICES,37 WASHINGTON ST,NEWBURYPORT,MA,1950,25009,ESSEX,1122.0,OTHER HEALTHCARE ESTABLISHMENTS,UNCODED,NOT APPLICABLE,UNCODED,NOT APPLICABLE,UNCODED,UNCODED,51 TO 100,102.0
777,NEWBURYPORT MONTESSORI SCHOOL INC,20 PLEASANT ST,NEWBURYPORT,MA,1950,25009,ESSEX,1122.0,"PRE-K, KINDERGARTEN, CHILD CARE",UNCODED,UNCODED,NOT APPLICABLE,NOT APPLICABLE,UNCODED,UNCODED,501 TO 1000,102.0
778,BRIGHAM MANOR NURSING AND REHAB CENTER,77 HIGH ST,NEWBURYPORT,MA,1950,25009,ESSEX,1122.0,NURSING HOME,UNCODED,NOT APPLICABLE,51 TO 100,NOT APPLICABLE,UNCODED,PUBLIC,1001 TO 2000,64.0
779,PORT HEALTHCARE CENTER,113 LOW ST,NEWBURYPORT,MA,1950,25009,ESSEX,1122.0,NURSING HOME,UNCODED,NOT APPLICABLE,51 TO 100,NOT APPLICABLE,UNCODED,PUBLIC,1001 TO 2000,94.0
780,ANNA JAQUES HOSPITAL SUBACUTE UNIT,25 HIGHLAND AVE,NEWBURYPORT,MA,1950,25009,ESSEX,1122.0,NURSING HOME,UNCODED,NOT APPLICABLE,1 TO 50,NOT APPLICABLE,OTHER CONTRACTED,PUBLIC,501 TO 1000,25.0
781,MULBERRY CHILD CARE AND PRESCHOOL,1 DANIEL LUCY WAY,NEWBURYPORT,MA,1950,25009,ESSEX,1122.0,"PRE-K, KINDERGARTEN, CHILD CARE",UNCODED,UNCODED,NOT APPLICABLE,NOT APPLICABLE,UNCODED,UNCODED,501 TO 1000,102.0
782,HARBOR SCHOOLS-RESIDENTIAL CENTER,26 ROLFES LN,NEWBURY,MA,1951,25009,ESSEX,1122.0,"CENTERS FOR REHABILITATION AND READAPTION, ADULT DAY CARE",UNCODED,NOT APPLICABLE,UNCODED,NOT APPLICABLE,UNCODED,UNCODED,51 TO 100,102.0
783,WILLIAM HILTON SENIOR CENTER,43 LAFAYETTE RD,SALISBURY,MA,1952,25009,ESSEX,1122.0,"SOCIAL AND PRIVATE CLUBS, LEGIONS, FRATERNITIES",UNCODED,NOT APPLICABLE,NOT APPLICABLE,NOT APPLICABLE,UNCODED,UNCODED,51 TO 100,102.0
784,PEABODY KINDERCARE LEARNING CENTER,520 LOWELL ST,PEABODY,MA,1960,25009,ESSEX,1122.0,"PRE-K, KINDERGARTEN, CHILD CARE",UNCODED,UNCODED,NOT APPLICABLE,NOT APPLICABLE,OTHER CONTRACTED,UNCODED,501 TO 1000,102.0
785,RENAISSANCE GARDENS AT BROOKSBY VILLAGE,400 BROOKSBY VILLAGE DR,PEABODY,MA,1960,25009,ESSEX,1122.0,NURSING HOME,UNCODED,NOT APPLICABLE,101 TO 500,NOT APPLICABLE,UNCODED,PUBLIC,>2000,98.0
786,PEABODY GLEN HEALTH CARE CENTER,199 ANDOVER ST,PEABODY,MA,1960,25009,ESSEX,1122.0,NURSING HOME,UNCODED,NOT APPLICABLE,101 TO 500,NOT APPLICABLE,OTHER CONTRACTED,PUBLIC,>2000,130.0
787,ROSEWOOD NURSING-REHABILITATION CENTER,22 JOHNSON ST,PEABODY,MA,1960,25009,ESSEX,1122.0,NURSING HOME,UNCODED,NOT APPLICABLE,101 TO 500,NOT APPLICABLE,UNCODED,PUBLIC,>2000,128.0
788,CATHOLIC CHARITIES-PEABODY CHILDCARE,13 PULASKI ST,PEABODY,MA,1960,25009,ESSEX,1122.0,"PRE-K, KINDERGARTEN, CHILD CARE",UNCODED,UNCODED,NOT APPLICABLE,NOT APPLICABLE,UNCODED,UNCODED,501 TO 1000,102.0
789,PILGRIM REHAB-SKILLED NURSING FACILITY,96 FOREST ST,PEABODY,MA,1960,25009,ESSEX,1122.0,NURSING HOME,UNCODED,NOT APPLICABLE,101 TO 500,NOT APPLICABLE,OTHER CONTRACTED,PUBLIC,>2000,128.0
790,PETER A TORIGIAN COMM LIFE-SENIOR CTR,79 CENTRAL ST,PEABODY,MA,1960,25009,ESSEX,1122.0,"SOCIAL AND PRIVATE CLUBS, LEGIONS, FRATERNITIES",UNCODED,NOT APPLICABLE,NOT APPLICABLE,NOT APPLICABLE,UNCODED,UNCODED,51 TO 100,102.0
791,KINDRED HOSPITAL-BOSTON NORTH SHORE,15 KING ST,PEABODY,MA,1960,25009,ESSEX,1122.0,HOSPITALS,UNCODED,NOT APPLICABLE,51 TO 100,NOT APPLICABLE,UNCODED,UNCODED,1001 TO 2000,102.0
792,INN TRANSITION-SUBSTANCE ABUSE TREATMENT,42 WASHINGTON ST,PEABODY,MA,1960,25009,ESSEX,1122.0,OTHER HEALTHCARE ESTABLISHMENTS,UNCODED,NOT APPLICABLE,UNCODED,NOT APPLICABLE,UNCODED,UNCODED,51 TO 100,102.0
793,RAINBOW NURSING CENTER,210 LOWELL ST,PEABODY,MA,1960,25009,ESSEX,1122.0,NURSING HOME,UNCODED,NOT APPLICABLE,1 TO 50,NOT APPLICABLE,UNCODED,PUBLIC,501 TO 1000,25.0
794,PEABODY PUBLIC SCHOOL DISTRICT,21 JOHNSON ST,PEABODY,MA,1960,25009,ESSEX,1122.0,SCHOOL DISTRICTS,UNCODED,OVER 5000,NOT APPLICABLE,10 AND PLUS,UNCODED,PUBLIC,>2000,102.0
795,LANDMARK SCHOOL RESIDENTIAL TREATMENT,PO BOX 227,PRIDES CROSSING,MA,1965,25009,ESSEX,1122.0,"CENTERS FOR REHABILITATION AND READAPTION, ADULT DAY CARE",UNCODED,NOT APPLICABLE,UNCODED,NOT APPLICABLE,UNCODED,UNCODED,51 TO 100,102.0
796,DEN-MAR REHAB AND NURSING CENTER,44 SOUTH ST,ROCKPORT,MA,1966,25009,ESSEX,1122.0,NURSING HOME,UNCODED,NOT APPLICABLE,51 TO 100,NOT APPLICABLE,UNCODED,PUBLIC,1001 TO 2000,70.0
797,SEA VIEW RETREAT,PO BOX 277,ROWLEY,MA,1969,25009,ESSEX,1122.0,NURSING HOME,UNCODED,NOT APPLICABLE,51 TO 100,NOT APPLICABLE,UNCODED,PUBLIC,1001 TO 2000,52.0
798,HEALTH ED SVC-SOLSTICE ADOLESCENT PROG,PO BOX 522,ROWLEY,MA,1969,25009,ESSEX,1122.0,"CENTERS FOR REHABILITATION AND READAPTION, ADULT DAY CARE",UNCODED,NOT APPLICABLE,UNCODED,NOT APPLICABLE,UNCODED,UNCODED,51 TO 100,102.0
799,ROWLEY COUNCIL AGING SENIOR CENTER,PO BOX 523,ROWLEY,MA,1969,25009,ESSEX,1122.0,"SOCIAL AND PRIVATE CLUBS, LEGIONS, FRATERNITIES",UNCODED,NOT APPLICABLE,NOT APPLICABLE,NOT APPLICABLE,UNCODED,UNCODED,51 TO 100,102.0
800,SALEM PUBLIC SCHOOL DISTRICT,29 HIGHLAND AVE,SALEM,MA,1970,25009,ESSEX,1122.0,SCHOOL DISTRICTS,501-750,2001 TO 5000,NOT APPLICABLE,6 TO 9,UNCODED,PUBLIC,>2000,102.0
801,NORTH SHORE CHILDRENS HOSPITAL,57 HIGHLAND AVE,SALEM,MA,1970,25009,ESSEX,1122.0,HOSPITALS,UNCODED,NOT APPLICABLE,1 TO 50,NOT APPLICABLE,UNCODED,UNCODED,501 TO 1000,102.0
802,NORTH SHORE MEDICAL CENTER SALEM CAMPUS,81 HIGHLAND AVE,SALEM,MA,1970,25009,ESSEX,1122.0,HOSPITALS,UNCODED,NOT APPLICABLE,101 TO 500,NOT APPLICABLE,COMPASS,UNCODED,>2000,102.0
803,SHAUGHNESSY-KAPLAN REHAB HOSPITAL SNF,1 DOVE AVE,SALEM,MA,1970,25009,ESSEX,1122.0,NURSING HOME,UNCODED,NOT APPLICABLE,1 TO 50,NOT APPLICABLE,ARAMARK,PUBLIC,501 TO 1000,33.0
804,SALEM COUNCIL ON AGING SENIOR CENTER,5 BROAD ST,SALEM,MA,1970,25009,ESSEX,1122.0,"SOCIAL AND PRIVATE CLUBS, LEGIONS, FRATERNITIES",UNCODED,NOT APPLICABLE,NOT APPLICABLE,NOT APPLICABLE,UNCODED,UNCODED,51 TO 100,102.0
805,HEALTH-EDUCATION SERVICES-OTPTNT AODA,162 FEDERAL ST,SALEM,MA,1970,25009,ESSEX,1122.0,OTHER HEALTHCARE ESTABLISHMENTS,UNCODED,NOT APPLICABLE,UNCODED,NOT APPLICABLE,UNCODED,UNCODED,51 TO 100,102.0
806,SALEM YMCA EARLY LEARNING AND AFTER SCHL,1 SEWALL ST,SALEM,MA,1970,25009,ESSEX,1122.0,"PRE-K, KINDERGARTEN, CHILD CARE",UNCODED,UNCODED,NOT APPLICABLE,NOT APPLICABLE,UNCODED,UNCODED,501 TO 1000,102.0
807,GROSVENOR PARK NURSING CENTER,7 LORING HILLS AVE,SALEM,MA,1970,25009,ESSEX,1122.0,NURSING HOME,UNCODED,NOT APPLICABLE,101 TO 500,NOT APPLICABLE,OTHER CONTRACTED,PUBLIC,>2000,121.0
808,NSMC OUTPATIENT MENTAL HEALTH SVCS-AODA,172 LAFAYETTE ST,SALEM,MA,1970,25009,ESSEX,1122.0,OTHER HEALTHCARE ESTABLISHMENTS,UNCODED,NOT APPLICABLE,UNCODED,NOT APPLICABLE,UNCODED,UNCODED,51 TO 100,102.0
809,SALEM STATE COLLEGE,352 LAFAYETTE ST,SALEM,MA,1970,25009,ESSEX,1122.0,4 YEAR COLLEGE & UNIVERSITIES,UNCODED,OVER 5000,NOT APPLICABLE,NOT APPLICABLE,COMPASS,PUBLIC,>2000,102.0
810,CASP-SUBSTANCE ABUSE TREATMENT PROGRAMS,27 CONGRESS ST,SALEM,MA,1970,25009,ESSEX,1122.0,OTHER HEALTHCARE ESTABLISHMENTS,UNCODED,NOT APPLICABLE,UNCODED,NOT APPLICABLE,UNCODED,UNCODED,51 TO 100,102.0
811,PINGREE EXPERIENCE CAMP,537 HIGHLAND ST,SOUTH HAMILTON,MA,1982,25009,ESSEX,1122.0,"CENTERS FOR CHILDREN, SUMMER CAMPS",UNCODED,NOT APPLICABLE,NOT APPLICABLE,NOT APPLICABLE,UNCODED,UNCODED,>2000,102.0
812,PINGREE SCHOOL,537 HIGHLAND ST,SOUTH HAMILTON,MA,1982,25009,ESSEX,1122.0,PRIMARY SCHOOL,UNCODED,251 TO 500,NOT APPLICABLE,NOT APPLICABLE,UNCODED,PRIVATE,251 TO 500,102.0
813,GORDON-CONWELL THEOLOGICAL SEMINARY,130 ESSEX ST,SOUTH HAMILTON,MA,1982,25009,ESSEX,1122.0,TECHNICAL AND TRADE SCHOOLS,UNCODED,1001 TO 2000,NOT APPLICABLE,NOT APPLICABLE,SODEXO,UNCODED,1001 TO 2000,102.0
814,MASCONOMET HEALTHCARE CENTER,123 HIGH ST,TOPSFIELD,MA,1983,25009,ESSEX,1122.0,NURSING HOME,UNCODED,NOT APPLICABLE,101 TO 500,NOT APPLICABLE,UNCODED,PUBLIC,>2000,119.0
815,MASCONOMET REGIONAL MIDDLE SCHOOL,20 ENDICOTT RD,TOPSFIELD,MA,1983,25009,ESSEX,1122.0,PRIMARY SCHOOL,UNCODED,501 TO 1000,NOT APPLICABLE,NOT APPLICABLE,UNCODED,PUBLIC,501 TO 1000,102.0
816,HAMILTON-WENHAM REGIONAL SCHOOL DISTRICT,5 SCHOOL ST,WENHAM,MA,1984,25009,ESSEX,1122.0,SCHOOL DISTRICTS,251-500,2001 TO 5000,NOT APPLICABLE,3 TO 5,UNCODED,PUBLIC,>2000,102.0
817,GORDON COLLEGE,255 GRAPEVINE RD,WENHAM,MA,1984,25009,ESSEX,1122.0,4 YEAR COLLEGE & UNIVERSITIES,UNCODED,1001 TO 2000,NOT APPLICABLE,NOT APPLICABLE,SELF-OPERATED,PRIVATE,1001 TO 2000,102.0
818,PENTUCKET MIDDLE SCHOOL,20 MAIN ST,WEST NEWBURY,MA,1985,25009,ESSEX,1122.0,PRIMARY SCHOOL,UNCODED,501 TO 1000,NOT APPLICABLE,NOT APPLICABLE,UNCODED,PRIVATE,501 TO 1000,102.0
819,PENTUCKET REGIONAL SCHOOL DISTRICT,22 MAIN ST,WEST NEWBURY,MA,1985,25009,ESSEX,1122.0,SCHOOL DISTRICTS,251-500,2001 TO 5000,NOT APPLICABLE,6 TO 9,UNCODED,PUBLIC,>2000,102.0
820,WEE FOLK LEARNING CENTER,1178 S MAIN ST,BELLINGHAM,MA,2019,25021,NORFOLK,1122.0,"PRE-K, KINDERGARTEN, CHILD CARE",UNCODED,UNCODED,NOT APPLICABLE,NOT APPLICABLE,UNCODED,UNCODED,501 TO 1000,102.0
821,BELLINGHAM SENIOR CENTER,40 BLACKSTONE ST,BELLINGHAM,MA,2019,25021,NORFOLK,1122.0,"SOCIAL AND PRIVATE CLUBS, LEGIONS, FRATERNITIES",UNCODED,NOT APPLICABLE,NOT APPLICABLE,NOT APPLICABLE,UNCODED,UNCODED,51 TO 100,102.0
822,BELLINGHAM PUBLIC SCHOOL,60 HARPIN ST,BELLINGHAM,MA,2019,25021,NORFOLK,1122.0,PRIMARY SCHOOL,UNCODED,2001 TO 5000,NOT APPLICABLE,NOT APPLICABLE,UNCODED,PUBLIC,>2000,102.0
823,CANTON SENIOR CENTER,PO BOX 54,CANTON,MA,2021,25021,NORFOLK,1122.0,"SOCIAL AND PRIVATE CLUBS, LEGIONS, FRATERNITIES",UNCODED,NOT APPLICABLE,NOT APPLICABLE,NOT APPLICABLE,UNCODED,UNCODED,51 TO 100,102.0
824,COLE HARRINGTON SCHOOL AGE ENRICHMENT,55 PECUNIT ST,CANTON,MA,2021,25021,NORFOLK,1122.0,"PRE-K, KINDERGARTEN, CHILD CARE",UNCODED,UNCODED,NOT APPLICABLE,NOT APPLICABLE,UNCODED,UNCODED,501 TO 1000,102.0
825,BLUE HILLS REGIONAL VOCATIONAL SCH DIST,800 RANDOLPH ST,CANTON,MA,2021,25021,NORFOLK,1122.0,SCHOOL DISTRICTS,UNCODED,501 TO 1000,NOT APPLICABLE,1,UNCODED,PUBLIC,501 TO 1000,102.0
826,HELLENIC NURSING REHAB CENTER,601 SHERMAN ST,CANTON,MA,2021,25021,NORFOLK,1122.0,NURSING HOME,UNCODED,NOT APPLICABLE,101 TO 500,NOT APPLICABLE,OTHER CONTRACTED,PUBLIC,>2000,151.0
827,MASSACHUSETTS HOSPITAL SCHOOL,3 RANDOLPH ST,CANTON,MA,2021,25021,NORFOLK,1122.0,HOSPITALS,UNCODED,NOT APPLICABLE,101 TO 500,NOT APPLICABLE,UNCODED,PUBLIC,>2000,102.0
828,TOWER HILL CENTER FOR HEALTH AND REHAB,1 MEADOWBROOK WAY,CANTON,MA,2021,25021,NORFOLK,1122.0,NURSING HOME,UNCODED,NOT APPLICABLE,101 TO 500,NOT APPLICABLE,UNCODED,PUBLIC,>2000,144.0
829,CANTON PUBLIC SCHOOLS,960 WASHINGTON ST,CANTON,MA,2021,25021,NORFOLK,1122.0,SCHOOL DISTRICTS,251-500,2001 TO 5000,NOT APPLICABLE,3 TO 5,UNCODED,PUBLIC,>2000,102.0
830,MULBERRY CHILD CARE CENTERS INC,440 TURNPIKE ST,CANTON,MA,2021,25021,NORFOLK,1122.0,"PRE-K, KINDERGARTEN, CHILD CARE",UNCODED,UNCODED,NOT APPLICABLE,NOT APPLICABLE,OTHER CONTRACTED,UNCODED,501 TO 1000,102.0
831,ORCHARD COVE,1 DEL POND DR,CANTON,MA,2021,25021,NORFOLK,1122.0,SENIOR LIVING,UNCODED,NOT APPLICABLE,1 TO 50,NOT APPLICABLE,OTHER CONTRACTED,PUBLIC,501 TO 1000,45.0
832,COHASSET KNOLL SKILLED NURSING REHAB FAC,1 CHIEF JUSTICE CUSHING HWY,COHASSET,MA,2025,25021,NORFOLK,1122.0,NURSING HOME,UNCODED,NOT APPLICABLE,51 TO 100,NOT APPLICABLE,UNCODED,PUBLIC,1001 TO 2000,60.0
833,NOBLES DAY CAMP,10 CAMPUS DR,DEDHAM,MA,2026,25021,NORFOLK,1122.0,"CENTERS FOR CHILDREN, SUMMER CAMPS",UNCODED,NOT APPLICABLE,NOT APPLICABLE,NOT APPLICABLE,COMPASS,UNCODED,>2000,102.0
834,NORFOLK COUNTY COR CTR-SHERIFF DEPT,200 WEST ST,DEDHAM,MA,2026,25021,NORFOLK,1122.0,PRISONS,UNCODED,NOT APPLICABLE,UNCODED,NOT APPLICABLE,OTHER CONTRACTED,UNCODED,51 TO 100,102.0
835,HIGHGATE MANOR,10 CAREMATRIX DR,DEDHAM,MA,2026,25021,NORFOLK,1122.0,NURSING HOME,UNCODED,NOT APPLICABLE,101 TO 500,NOT APPLICABLE,UNCODED,PUBLIC,>2000,125.0
836,GOLDEN LIVING CENTER,1007 EAST ST,DEDHAM,MA,2026,25021,NORFOLK,1122.0,NURSING HOME,UNCODED,NOT APPLICABLE,101 TO 500,NOT APPLICABLE,OTHER CONTRACTED,PUBLIC,>2000,115.0
837,DOVER COUNCIL ON AGING-SENIOR CENTER,PO BOX 250,DOVER,MA,2030,25021,NORFOLK,1122.0,"SOCIAL AND PRIVATE CLUBS, LEGIONS, FRATERNITIES",UNCODED,NOT APPLICABLE,NOT APPLICABLE,NOT APPLICABLE,UNCODED,UNCODED,51 TO 100,102.0
838,SUPERVISORY UNION 50,9 JUNCTION ST,DOVER,MA,2030,25021,NORFOLK,1122.0,SCHOOL DISTRICTS,UNCODED,2001 TO 5000,NOT APPLICABLE,3 TO 5,UNCODED,PUBLIC,>2000,102.0
839,LEAGUE SCHOOL-GRTR BOSTON RSDNTL TRTMNT,300 PROVIDENCE HWY,EAST WALPOLE,MA,2032,25021,NORFOLK,1122.0,"CENTERS FOR REHABILITATION AND READAPTION, ADULT DAY CARE",UNCODED,NOT APPLICABLE,UNCODED,NOT APPLICABLE,UNCODED,UNCODED,51 TO 100,102.0
840,CAMP WAZIYATAH,19 VOSE LN,EAST WALPOLE,MA,2032,25021,NORFOLK,1122.0,"CENTERS FOR CHILDREN, SUMMER CAMPS",UNCODED,NOT APPLICABLE,NOT APPLICABLE,NOT APPLICABLE,UNCODED,UNCODED,>2000,102.0
841,HESS COUNTY ELDER SERVICES IN FOXBORO,90 N CARL ANNON CT,FOXBORO,MA,2035,25021,NORFOLK,1122.0,"SOCIAL AND PRIVATE CLUBS, LEGIONS, FRATERNITIES",UNCODED,NOT APPLICABLE,NOT APPLICABLE,NOT APPLICABLE,UNCODED,UNCODED,51 TO 100,102.0
842,FOXBOROUGH PUBLIC SCHOOL DISTRICT,60 SOUTH ST,FOXBORO,MA,2035,25021,NORFOLK,1122.0,SCHOOL DISTRICTS,251-500,2001 TO 5000,NOT APPLICABLE,3 TO 5,UNCODED,PUBLIC,>2000,102.0
843,KENNEDY-DONOVAN CENTER,1 COMMERCIAL ST,FOXBORO,MA,2035,25021,NORFOLK,1122.0,"CENTERS FOR REHABILITATION AND READAPTION, ADULT DAY CARE",UNCODED,NOT APPLICABLE,UNCODED,NOT APPLICABLE,UNCODED,UNCODED,51 TO 100,102.0
844,CGSH-THE NORCAP LODGE-SBSTNC ABUSE SVCS,71 WALNUT ST,FOXBORO,MA,2035,25021,NORFOLK,1122.0,OTHER HEALTHCARE ESTABLISHMENTS,UNCODED,NOT APPLICABLE,UNCODED,NOT APPLICABLE,UNCODED,UNCODED,51 TO 100,102.0
845,FRANKLIN PUBLIC SCHOOL DISTRICT,355 E CENTRAL ST,FRANKLIN,MA,2038,25021,NORFOLK,1122.0,SCHOOL DISTRICTS,251-500,OVER 5000,NOT APPLICABLE,10 AND PLUS,UNCODED,PUBLIC,>2000,102.0
846,DEAN COLLEGE,99 MAIN ST,FRANKLIN,MA,2038,25021,NORFOLK,1122.0,4 YEAR COLLEGE & UNIVERSITIES,UNCODED,1001 TO 2000,NOT APPLICABLE,NOT APPLICABLE,SODEXO,PRIVATE,1001 TO 2000,102.0
847,FRANKLIN SENIOR CENTER,80 W CENTRAL ST,FRANKLIN,MA,2038,25021,NORFOLK,1122.0,"SOCIAL AND PRIVATE CLUBS, LEGIONS, FRATERNITIES",UNCODED,NOT APPLICABLE,NOT APPLICABLE,NOT APPLICABLE,UNCODED,UNCODED,51 TO 100,102.0
848,NEXT GENERATION CHILDRENS CENTER,831 W CENTRAL ST,FRANKLIN,MA,2038,25021,NORFOLK,1122.0,"PRE-K, KINDERGARTEN, CHILD CARE",UNCODED,UNCODED,NOT APPLICABLE,NOT APPLICABLE,UNCODED,UNCODED,501 TO 1000,102.0
849,BRIGHT HORIZONS CHILD DEVELOPMENT CENTER,75 SGT WILLIAM B TERRY DR,HINGHAM,MA,2043,25023,PLYMOUTH,1122.0,"PRE-K, KINDERGARTEN, CHILD CARE",UNCODED,UNCODED,NOT APPLICABLE,NOT APPLICABLE,UNCODED,UNCODED,501 TO 1000,102.0
850,PROJECT TURNABOUT INC-SUBSTANCE ABUSE,224 BEAL ST,HINGHAM,MA,2043,25023,PLYMOUTH,1122.0,OTHER HEALTHCARE ESTABLISHMENTS,UNCODED,NOT APPLICABLE,UNCODED,NOT APPLICABLE,UNCODED,UNCODED,51 TO 100,102.0
851,HARBOR HOUSE REHAB-NURSING CTR,11 CONDITO RD,HINGHAM,MA,2043,25023,PLYMOUTH,1122.0,NURSING HOME,UNCODED,NOT APPLICABLE,101 TO 500,NOT APPLICABLE,UNCODED,PUBLIC,>2000,138.0
852,HINGHAM PUBLIC SCHOOL DISTRICT,220 CENTRAL ST,HINGHAM,MA,2043,25023,PLYMOUTH,1122.0,SCHOOL DISTRICTS,501-750,2001 TO 5000,NOT APPLICABLE,3 TO 5,UNCODED,PUBLIC,>2000,102.0
853,QUEEN ANNES NURSING HOME,50 RECREATION PARK DR,HINGHAM,MA,2043,25023,PLYMOUTH,1122.0,NURSING HOME,UNCODED,NOT APPLICABLE,101 TO 500,NOT APPLICABLE,UNCODED,PUBLIC,>2000,104.0
854,DEERFIELD SENIOR ADC-HINGHAM,20 POND PARK RD,HINGHAM,MA,2043,25023,PLYMOUTH,1122.0,"CENTERS FOR REHABILITATION AND READAPTION, ADULT DAY CARE",UNCODED,NOT APPLICABLE,1 TO 50,NOT APPLICABLE,UNCODED,UNCODED,101 TO 250,102.0
855,HULL PUBLIC SCHOOLS,7 HADASAH WAY,HULL,MA,2045,25023,PLYMOUTH,1122.0,SCHOOL DISTRICTS,1-250,1001 TO 2000,NOT APPLICABLE,3 TO 5,UNCODED,PUBLIC,1001 TO 2000,102.0
856,MANSFIELD COUNCIL ON AGING SENIOR CENTER,PO BOX 232,MANSFIELD,MA,2048,25005,BRISTOL,1122.0,"SOCIAL AND PRIVATE CLUBS, LEGIONS, FRATERNITIES",UNCODED,NOT APPLICABLE,NOT APPLICABLE,NOT APPLICABLE,UNCODED,UNCODED,51 TO 100,102.0
857,NORTH RIVER COUNSELING INC-SBSTNC ABUSE,769 PLAIN ST,MARSHFIELD,MA,2050,25023,PLYMOUTH,1122.0,OTHER HEALTHCARE ESTABLISHMENTS,UNCODED,NOT APPLICABLE,UNCODED,NOT APPLICABLE,UNCODED,UNCODED,51 TO 100,102.0
858,MARSHFIELD PUBLIC SCHOOL DISTRICT,76 S RIVER ST,MARSHFIELD,MA,2050,25023,PLYMOUTH,1122.0,SCHOOL DISTRICTS,251-500,2001 TO 5000,NOT APPLICABLE,6 TO 9,UNCODED,PUBLIC,>2000,102.0
859,EAMES WAY ELEMENTARY SCHOOL,165 EAMES WAY,MARSHFIELD,MA,2050,25023,PLYMOUTH,1122.0,PRIMARY SCHOOL,UNCODED,251 TO 500,NOT APPLICABLE,NOT APPLICABLE,UNCODED,PUBLIC,251 TO 500,102.0
860,MEDFIELD COUNCIL ON AGING SENIOR CENTER,459 MAIN ST,MEDFIELD,MA,2052,25021,NORFOLK,1122.0,"SOCIAL AND PRIVATE CLUBS, LEGIONS, FRATERNITIES",UNCODED,NOT APPLICABLE,NOT APPLICABLE,NOT APPLICABLE,UNCODED,UNCODED,51 TO 100,102.0
861,THOMAS UPHAM HOUSE,519 MAIN ST,MEDFIELD,MA,2052,25021,NORFOLK,1122.0,NURSING HOME,UNCODED,NOT APPLICABLE,1 TO 50,NOT APPLICABLE,UNCODED,PUBLIC,501 TO 1000,40.0
862,MEDWAY SENIOR CENTER,76 OAKLAND ST,MEDWAY,MA,2053,25021,NORFOLK,1122.0,"SOCIAL AND PRIVATE CLUBS, LEGIONS, FRATERNITIES",UNCODED,NOT APPLICABLE,NOT APPLICABLE,NOT APPLICABLE,UNCODED,UNCODED,51 TO 100,102.0
863,MEDWAY COUNTRY MANOR,115 HOLLISTON ST,MEDWAY,MA,2053,25021,NORFOLK,1122.0,NURSING HOME,UNCODED,NOT APPLICABLE,101 TO 500,NOT APPLICABLE,UNCODED,PUBLIC,>2000,105.0
864,MASSACHUSETTS CORRECTIONAL INST-NORFOLK,PO BOX 43,NORFOLK,MA,2056,25021,NORFOLK,1122.0,PRISONS,UNCODED,NOT APPLICABLE,UNCODED,NOT APPLICABLE,UNCODED,UNCODED,>2000,102.0
865,BAY STATE CORRECTIONAL CENTER,PO BOX 73,NORFOLK,MA,2056,25021,NORFOLK,1122.0,PRISONS,UNCODED,NOT APPLICABLE,UNCODED,NOT APPLICABLE,UNCODED,UNCODED,>2000,102.0
866,PONDVILLE CORRECTIONAL CENTER,PO BOX 146,NORFOLK,MA,2056,25021,NORFOLK,1122.0,PRISONS,UNCODED,NOT APPLICABLE,UNCODED,NOT APPLICABLE,UNCODED,UNCODED,>2000,102.0
867,NORFOLK SENIOR CENTER,PO BOX 161,NORFOLK,MA,2056,25021,NORFOLK,1122.0,"SOCIAL AND PRIVATE CLUBS, LEGIONS, FRATERNITIES",UNCODED,NOT APPLICABLE,NOT APPLICABLE,NOT APPLICABLE,UNCODED,UNCODED,51 TO 100,102.0
868,CAMP MEADOWCROFT,260 BOWKER ST,NORWELL,MA,2061,25023,PLYMOUTH,1122.0,"CENTERS FOR CHILDREN, SUMMER CAMPS",UNCODED,NOT APPLICABLE,NOT APPLICABLE,NOT APPLICABLE,UNCODED,UNCODED,>2000,102.0
869,SOUTHWOOD AT NORWELL NURSING CENTER,501 CORDWAINER DR,NORWELL,MA,2061,25023,PLYMOUTH,1122.0,NURSING HOME,UNCODED,NOT APPLICABLE,101 TO 500,NOT APPLICABLE,UNCODED,PUBLIC,>2000,136.0
870,NORWELL KNOLL NURSING HOME,329 WASHINGTON ST,NORWELL,MA,2061,25023,PLYMOUTH,1122.0,NURSING HOME,UNCODED,NOT APPLICABLE,51 TO 100,NOT APPLICABLE,UNCODED,PUBLIC,1001 TO 2000,66.0
871,NORWELL KINDERCARE LEARNING CENTER,380 WASHINGTON ST,NORWELL,MA,2061,25023,PLYMOUTH,1122.0,"PRE-K, KINDERGARTEN, CHILD CARE",UNCODED,UNCODED,NOT APPLICABLE,NOT APPLICABLE,UNCODED,UNCODED,501 TO 1000,102.0
872,NORWELL PUBLIC SCHOOLS,322 MAIN ST,NORWELL,MA,2061,25023,PLYMOUTH,1122.0,SCHOOL DISTRICTS,1-250,2001 TO 5000,NOT APPLICABLE,3 TO 5,UNCODED,PUBLIC,>2000,102.0
873,EXPLORATION SUMMER CAMP,PO BOX 368,NORWOOD,MA,2062,25021,NORFOLK,1122.0,"CENTERS FOR CHILDREN, SUMMER CAMPS",UNCODED,NOT APPLICABLE,NOT APPLICABLE,NOT APPLICABLE,UNCODED,UNCODED,>2000,102.0
874,BILLINGS HUMAN SERVICES-SUBSTANCE ABUSE,275 PROSPECT ST,NORWOOD,MA,2062,25021,NORFOLK,1122.0,OTHER HEALTHCARE ESTABLISHMENTS,UNCODED,NOT APPLICABLE,UNCODED,NOT APPLICABLE,UNCODED,UNCODED,51 TO 100,102.0
875,VICTORIA HAVEN NURSING FACILITY,137 NICHOLS ST,NORWOOD,MA,2062,25021,NORFOLK,1122.0,NURSING HOME,UNCODED,NOT APPLICABLE,1 TO 50,NOT APPLICABLE,UNCODED,PUBLIC,501 TO 1000,27.0
876,GOLDEN LIVING CENTER OF NORWOOD,460 WASHINGTON ST,NORWOOD,MA,2062,25021,NORFOLK,1122.0,NURSING HOME,UNCODED,NOT APPLICABLE,101 TO 500,NOT APPLICABLE,OTHER CONTRACTED,PUBLIC,>2000,94.0
877,CHARLWELL HOUSE NURSING HOME,305 WALPOLE ST,NORWOOD,MA,2062,25021,NORFOLK,1122.0,NURSING HOME,UNCODED,NOT APPLICABLE,101 TO 500,NOT APPLICABLE,UNCODED,PUBLIC,>2000,117.0
878,CARITAS NORWOOD HOSPITAL,800 WASHINGTON ST,NORWOOD,MA,2062,25021,NORFOLK,1122.0,HOSPITALS,1000+,NOT APPLICABLE,101 TO 500,NOT APPLICABLE,SODEXO,UNCODED,>2000,120.1
879,ITT TECHNICAL INSTITUTE,333 BOSTON PROVIDENCE TPKE,NORWOOD,MA,2062,25021,NORFOLK,1122.0,TECHNICAL AND TRADE SCHOOLS,UNCODED,251 TO 500,NOT APPLICABLE,NOT APPLICABLE,UNCODED,PRIVATE,251 TO 500,102.0
880,THE ELLIS NURSING AND REHAB CENTER,135 ELLIS AVE,NORWOOD,MA,2062,25021,NORFOLK,1122.0,NURSING HOME,UNCODED,NOT APPLICABLE,101 TO 500,NOT APPLICABLE,OTHER CONTRACTED,PUBLIC,>2000,159.0
881,NORFOLK ADULT DAY HEALTH CENTER,595 PLEASANT ST,NORWOOD,MA,2062,25021,NORFOLK,1122.0,"CENTERS FOR REHABILITATION AND READAPTION, ADULT DAY CARE",UNCODED,NOT APPLICABLE,51 TO 100,NOT APPLICABLE,UNCODED,UNCODED,251 TO 500,102.0
882,FINE MORTUARY COLLEGE,150 KERRY PL,NORWOOD,MA,2062,25021,NORFOLK,1122.0,2 YEAR COLLEGE & UNIVERSITIES,UNCODED,250 AND LESS,NOT APPLICABLE,NOT APPLICABLE,UNCODED,PRIVATE,101 TO 250,102.0
883,LIFECARE CENTER OF THE SOUTH SHORE,PO BOX 830,SCITUATE,MA,2066,25023,PLYMOUTH,1122.0,NURSING HOME,UNCODED,NOT APPLICABLE,101 TO 500,NOT APPLICABLE,UNCODED,PUBLIC,>2000,115.0
884,SCITUATE PUBLIC SCHOOL DISTRICT,606 CHIEF JUSTICE CUSHING HWY,SCITUATE,MA,2066,25023,PLYMOUTH,1122.0,SCHOOL DISTRICTS,1-250,2001 TO 5000,NOT APPLICABLE,6 TO 9,UNCODED,PUBLIC,>2000,102.0
885,CARDIGAN NURSING HOME,59 COUNTRY WAY,SCITUATE,MA,2066,25023,PLYMOUTH,1122.0,NURSING HOME,UNCODED,NOT APPLICABLE,51 TO 100,NOT APPLICABLE,UNCODED,PUBLIC,1001 TO 2000,55.0
886,SHARON COUNCIL ON AGING SENIOR CENTER,PO BOX 20,SHARON,MA,2067,25021,NORFOLK,1122.0,"SOCIAL AND PRIVATE CLUBS, LEGIONS, FRATERNITIES",UNCODED,NOT APPLICABLE,NOT APPLICABLE,NOT APPLICABLE,UNCODED,UNCODED,51 TO 100,102.0
887,EPOCH SENIOR HEALTHCARE OF SHARON,259 NORWOOD ST,SHARON,MA,2067,25021,NORFOLK,1122.0,NURSING HOME,UNCODED,NOT APPLICABLE,51 TO 100,NOT APPLICABLE,OTHER CONTRACTED,PUBLIC,1001 TO 2000,61.0
888,SHARON COUNTRY DAY CAMP,438 S MAIN ST,SHARON,MA,2067,25021,NORFOLK,1122.0,"CENTERS FOR CHILDREN, SUMMER CAMPS",UNCODED,NOT APPLICABLE,NOT APPLICABLE,NOT APPLICABLE,UNCODED,UNCODED,>2000,102.0
889,HORIZONS FOR YOUTH CAMP,121 LAKEVIEW ST,SHARON,MA,2067,25021,NORFOLK,1122.0,"CENTERS FOR CHILDREN, SUMMER CAMPS",UNCODED,NOT APPLICABLE,NOT APPLICABLE,NOT APPLICABLE,UNCODED,UNCODED,>2000,102.0
890,KINDERCARE LEARNING CENTER 1669,700 S MAIN ST,SHARON,MA,2067,25021,NORFOLK,1122.0,"PRE-K, KINDERGARTEN, CHILD CARE",UNCODED,UNCODED,NOT APPLICABLE,NOT APPLICABLE,UNCODED,UNCODED,501 TO 1000,102.0
891,STOUGHTON COUNCIL ON AGING-SENIOR CENTER,PO BOX 582,STOUGHTON,MA,2072,25021,NORFOLK,1122.0,"SOCIAL AND PRIVATE CLUBS, LEGIONS, FRATERNITIES",UNCODED,NOT APPLICABLE,NOT APPLICABLE,NOT APPLICABLE,UNCODED,UNCODED,51 TO 100,102.0
892,NEW ENGLAND SINAI HOSPITAL AND REHAB CTR,150 YORK ST,STOUGHTON,MA,2072,25021,NORFOLK,1122.0,HOSPITALS,501-750,NOT APPLICABLE,101 TO 500,NOT APPLICABLE,OTHER CONTRACTED,UNCODED,>2000,177.6
893,STRIAR JEWISH COMM CTR ECC-AFTER SCHL,445 CENTRAL ST,STOUGHTON,MA,2072,25021,NORFOLK,1122.0,"PRE-K, KINDERGARTEN, CHILD CARE",UNCODED,UNCODED,NOT APPLICABLE,NOT APPLICABLE,UNCODED,UNCODED,501 TO 1000,102.0
894,STOUGHTON EXTENDED DAY AND PRESCHOOL,137 WALNUT ST,STOUGHTON,MA,2072,25021,NORFOLK,1122.0,"PRE-K, KINDERGARTEN, CHILD CARE",UNCODED,UNCODED,NOT APPLICABLE,NOT APPLICABLE,UNCODED,UNCODED,501 TO 1000,102.0
895,GODDARD REHABILITATION NURSING CENTER,909 SUMNER ST,STOUGHTON,MA,2072,25021,NORFOLK,1122.0,NURSING HOME,UNCODED,NOT APPLICABLE,101 TO 500,NOT APPLICABLE,UNCODED,PUBLIC,1001 TO 2000,58.0
896,COPLEY AT STOUGHTON NURSING CENTER,380 SUMNER ST,STOUGHTON,MA,2072,25021,NORFOLK,1122.0,NURSING HOME,UNCODED,NOT APPLICABLE,101 TO 500,NOT APPLICABLE,UNCODED,PUBLIC,>2000,114.0
897,BLUE HILLS ALZHEIMERS CARE CENTER,1044 PARK ST,STOUGHTON,MA,2072,25021,NORFOLK,1122.0,NURSING HOME,UNCODED,NOT APPLICABLE,51 TO 100,NOT APPLICABLE,UNCODED,PUBLIC,>2000,86.0
898,WALPOLE COUNCIL ON AGING SENIOR CENTER,135 SCHOOL ST,WALPOLE,MA,2081,25021,NORFOLK,1122.0,"SOCIAL AND PRIVATE CLUBS, LEGIONS, FRATERNITIES",UNCODED,NOT APPLICABLE,NOT APPLICABLE,NOT APPLICABLE,UNCODED,UNCODED,51 TO 100,102.0
899,WALPOLE PUBLIC SCHOOL DISTRICT,135 SCHOOL ST,WALPOLE,MA,2081,25021,NORFOLK,1122.0,SCHOOL DISTRICTS,251-500,2001 TO 5000,NOT APPLICABLE,6 TO 9,UNCODED,PUBLIC,>2000,102.0
900,CLARK HOUSE FACILITY,30 LONGWOOD DR,WESTWOOD,MA,2090,25021,NORFOLK,1122.0,NURSING HOME,UNCODED,NOT APPLICABLE,51 TO 100,NOT APPLICABLE,UNCODED,PUBLIC,1001 TO 2000,66.0
901,MULBERRY CHILD CARE AND PRESCHOOL,200 PROVIDENCE HWY,WESTWOOD,MA,2090,25021,NORFOLK,1122.0,"PRE-K, KINDERGARTEN, CHILD CARE",UNCODED,UNCODED,NOT APPLICABLE,NOT APPLICABLE,UNCODED,UNCODED,501 TO 1000,102.0
902,WESTWOOD KINDERCARE LEARNING CENTER,411 PROVIDENCE HWY,WESTWOOD,MA,2090,25021,NORFOLK,1122.0,"PRE-K, KINDERGARTEN, CHILD CARE",UNCODED,UNCODED,NOT APPLICABLE,NOT APPLICABLE,OTHER CONTRACTED,UNCODED,501 TO 1000,102.0
903,DOWNEY STREET ELEMENTARY SCHOOL,250 DOWNEY ST,WESTWOOD,MA,2090,25021,NORFOLK,1122.0,PRIMARY SCHOOL,UNCODED,250 AND LESS,NOT APPLICABLE,NOT APPLICABLE,UNCODED,PUBLIC,101 TO 250,102.0
904,WESTWOOD SENIOR CENTER,210 NAHATAN ST,WESTWOOD,MA,2090,25021,NORFOLK,1122.0,"SOCIAL AND PRIVATE CLUBS, LEGIONS, FRATERNITIES",UNCODED,NOT APPLICABLE,NOT APPLICABLE,NOT APPLICABLE,UNCODED,UNCODED,51 TO 100,102.0
905,WESTWOOD PUBLIC SCHOOL DISTRICT,220 NAHATAN ST,WESTWOOD,MA,2090,25021,NORFOLK,1122.0,SCHOOL DISTRICTS,1-250,2001 TO 5000,NOT APPLICABLE,6 TO 9,UNCODED,PUBLIC,>2000,102.0
906,WM E SHEEHAN INTERMEDIATE ELEMENTARY SCH,549 POND ST,WESTWOOD,MA,2090,25021,NORFOLK,1122.0,PRIMARY SCHOOL,UNCODED,251 TO 500,NOT APPLICABLE,NOT APPLICABLE,UNCODED,PRIVATE,251 TO 500,102.0
907,WESTWOOD LODGE HOSPITAL,45 CLAPBOARDTREE ST,WESTWOOD,MA,2090,25021,NORFOLK,1122.0,HOSPITALS,251-500,NOT APPLICABLE,101 TO 500,NOT APPLICABLE,UNCODED,UNCODED,1001 TO 2000,192.3
908,WRENTHAM SENIOR CENTER,PO BOX 480,WRENTHAM,MA,2093,25021,NORFOLK,1122.0,"SOCIAL AND PRIVATE CLUBS, LEGIONS, FRATERNITIES",UNCODED,NOT APPLICABLE,NOT APPLICABLE,NOT APPLICABLE,UNCODED,UNCODED,51 TO 100,102.0
909,SERENITY HILL NURSING AND REHAB CENTER,655 DEDHAM ST,WRENTHAM,MA,2093,25021,NORFOLK,1122.0,NURSING HOME,UNCODED,NOT APPLICABLE,1 TO 50,NOT APPLICABLE,UNCODED,PUBLIC,501 TO 1000,41.0
910,SCHOOLS OUT-WRENTHAM,120 TAUNTON ST,WRENTHAM,MA,2093,25021,NORFOLK,1122.0,"PRE-K, KINDERGARTEN, CHILD CARE",UNCODED,UNCODED,NOT APPLICABLE,NOT APPLICABLE,UNCODED,UNCODED,501 TO 1000,102.0
911,MAPLES REHAB AND NURSING CENTER,90 TAUNTON ST,WRENTHAM,MA,2093,25021,NORFOLK,1122.0,NURSING HOME,UNCODED,NOT APPLICABLE,101 TO 500,NOT APPLICABLE,UNCODED,PUBLIC,>2000,135.0
912,SPEECH PATHOLOGY-AUDIOLOGY DEPARTMENT,PO BOX 823,BOSTON,MA,2103,25025,SUFFOLK,1122.0,"CENTERS FOR REHABILITATION AND READAPTION, ADULT DAY CARE",UNCODED,NOT APPLICABLE,UNCODED,NOT APPLICABLE,UNCODED,UNCODED,51 TO 100,102.0
913,BOSTON PUBLIC SCHOOL DISTRICT,26 COURT ST,BOSTON,MA,2108,25025,SUFFOLK,1122.0,SCHOOL DISTRICTS,1000+,OVER 5000,NOT APPLICABLE,10 AND PLUS,UNCODED,PUBLIC,>2000,102.0
914,SUFFOLK UNIVERSITY,8 ASHBURTON PL,BOSTON,MA,2108,25025,SUFFOLK,1122.0,4 YEAR COLLEGE & UNIVERSITIES,UNCODED,OVER 5000,NOT APPLICABLE,NOT APPLICABLE,ARAMARK,PRIVATE,>2000,102.0
915,ROBERT F KENNEDY CHILDREN ACTION CORPS,11 BEACON ST,BOSTON,MA,2108,25025,SUFFOLK,1122.0,"CENTERS FOR REHABILITATION AND READAPTION, ADULT DAY CARE",UNCODED,NOT APPLICABLE,UNCODED,NOT APPLICABLE,UNCODED,UNCODED,51 TO 100,102.0
916,ADCARE OUTPATIENT CLINIC-SBSTNC ABUSE,14 BEACON ST,BOSTON,MA,2108,25025,SUFFOLK,1122.0,OTHER HEALTHCARE ESTABLISHMENTS,UNCODED,NOT APPLICABLE,UNCODED,NOT APPLICABLE,UNCODED,UNCODED,51 TO 100,102.0
917,BOSTON ALCOHOL-SUBSTANCE ABUSE PROGRAMS,30 WINTER ST,BOSTON,MA,2108,25025,SUFFOLK,1122.0,OTHER HEALTHCARE ESTABLISHMENTS,UNCODED,NOT APPLICABLE,UNCODED,NOT APPLICABLE,UNCODED,UNCODED,51 TO 100,102.0
918,NEW ENGLAND COLLEGE OF FINANCE,10 HIGH ST,BOSTON,MA,2110,25025,SUFFOLK,1122.0,4 YEAR COLLEGE & UNIVERSITIES,UNCODED,501 TO 1000,NOT APPLICABLE,NOT APPLICABLE,UNCODED,PRIVATE,501 TO 1000,102.0
919,URBAN COLLEGE OF BOSTON,178 TREMONT ST,BOSTON,MA,2111,25025,SUFFOLK,1122.0,2 YEAR COLLEGE & UNIVERSITIES,UNCODED,501 TO 1000,NOT APPLICABLE,NOT APPLICABLE,OTHER CONTRACTED,PRIVATE,501 TO 1000,102.0
920,BRIDGE TROUBLED WATERS-SUBSTANCE ABUSE,47 WEST ST,BOSTON,MA,2111,25025,SUFFOLK,1122.0,OTHER HEALTHCARE ESTABLISHMENTS,UNCODED,NOT APPLICABLE,UNCODED,NOT APPLICABLE,UNCODED,UNCODED,51 TO 100,102.0
921,RED OAK AFTER SCHOOL PROGRAM,885 WASHINGTON ST,BOSTON,MA,2111,25025,SUFFOLK,1122.0,"PRE-K, KINDERGARTEN, CHILD CARE",UNCODED,UNCODED,NOT APPLICABLE,NOT APPLICABLE,UNCODED,UNCODED,501 TO 1000,102.0
922,FLOATING HOSPITAL-CHILDRENS FACILITY,750 WASHINGTON ST,BOSTON,MA,2111,25025,SUFFOLK,1122.0,"CENTERS FOR REHABILITATION AND READAPTION, ADULT DAY CARE",UNCODED,NOT APPLICABLE,UNCODED,NOT APPLICABLE,UNCODED,UNCODED,51 TO 100,102.0
923,TUFTS UNIVERSITY-SCHOOL OF DENTAL MEDICINE,1 KNEELAND ST,BOSTON,MA,2111,25025,SUFFOLK,1122.0,AFFILIATED BUILDINGS,UNCODED,251 TO 500,NOT APPLICABLE,NOT APPLICABLE,UNCODED,PRIVATE,251 TO 500,102.0
924,TUFTS NEW ENGLAND MEDICAL CENTER,750 WASHINGTON ST,BOSTON,MA,2111,25025,SUFFOLK,1122.0,HOSPITALS,1000+,NOT APPLICABLE,101 TO 500,NOT APPLICABLE,OTHER CONTRACTED,UNCODED,>2000,241.2
925,SPAN-SUBSTANCE ABUSE SERVICE,105 CHAUNCY ST,BOSTON,MA,2111,25025,SUFFOLK,1122.0,OTHER HEALTHCARE ESTABLISHMENTS,UNCODED,NOT APPLICABLE,UNCODED,NOT APPLICABLE,UNCODED,UNCODED,51 TO 100,102.0
926,TUFTS UNIVERSITY-SCHOOL OF MEDICINE,136 HARRISON AVE,BOSTON,MA,2111,25025,SUFFOLK,1122.0,AFFILIATED BUILDINGS,UNCODED,UNCODED,NOT APPLICABLE,NOT APPLICABLE,UNCODED,PRIVATE,51 TO 100,102.0
927,BOSTON ASIAN YOUTH ESSENTIAL SVCS-AODA,199 HARRISON AVE,BOSTON,MA,2111,25025,SUFFOLK,1122.0,OTHER HEALTHCARE ESTABLISHMENTS,UNCODED,NOT APPLICABLE,UNCODED,NOT APPLICABLE,UNCODED,UNCODED,51 TO 100,102.0
928,NORTH END WEST END/NSC,1 MICHELANGELO ST,BOSTON,MA,2113,25025,SUFFOLK,1122.0,"SOCIAL AND PRIVATE CLUBS, LEGIONS, FRATERNITIES",UNCODED,NOT APPLICABLE,NOT APPLICABLE,NOT APPLICABLE,UNCODED,UNCODED,51 TO 100,102.0
929,SPAULDING REHABILITATION HOSP NETWORK,125 NASHUA ST,BOSTON,MA,2114,25025,SUFFOLK,1122.0,HOSPITALS,751-999,NOT APPLICABLE,101 TO 500,NOT APPLICABLE,UNCODED,UNCODED,>2000,147.0
930,SUFFOLK COUNTY JAIL,200 NASHUA ST,BOSTON,MA,2114,25025,SUFFOLK,1122.0,PRISONS,UNCODED,NOT APPLICABLE,UNCODED,NOT APPLICABLE,UNCODED,UNCODED,>2000,102.0
931,BAY COVE SUBSTANCE ABUSE TREATMENT CTR,66 CANAL ST,BOSTON,MA,2114,25025,SUFFOLK,1122.0,OTHER HEALTHCARE ESTABLISHMENTS,UNCODED,NOT APPLICABLE,UNCODED,NOT APPLICABLE,UNCODED,UNCODED,51 TO 100,102.0
932,STEP INC-SUBSTANCE ABUSE TREATMENT PRGMS,131 BEVERLY ST,BOSTON,MA,2114,25025,SUFFOLK,1122.0,OTHER HEALTHCARE ESTABLISHMENTS,UNCODED,NOT APPLICABLE,UNCODED,NOT APPLICABLE,UNCODED,UNCODED,51 TO 100,102.0
933,ERICH LINDEMANN MENTAL HEALTH CENTER,25 STANIFORD ST,BOSTON,MA,2114,25025,SUFFOLK,1122.0,HOSPITALS,UNCODED,NOT APPLICABLE,51 TO 100,NOT APPLICABLE,UNCODED,UNCODED,501 TO 1000,102.0
934,SHRINERS HOSPITAL FOR CHILDREN,51 BLOSSOM ST,BOSTON,MA,2114,25025,SUFFOLK,1122.0,HOSPITALS,UNCODED,NOT APPLICABLE,1 TO 50,NOT APPLICABLE,UNCODED,UNCODED,501 TO 1000,102.0
935,MASSACHUSETTS GENERAL HOSPITAL,55 FRUIT ST,BOSTON,MA,2114,25025,SUFFOLK,1122.0,HOSPITALS,1000+,NOT APPLICABLE,501 TO 1000,NOT APPLICABLE,SELF-OPERATED,UNCODED,>2000,757.5
936,MASSACHUSETTS EYE AND EAR INFIRMARY,325 CAMBRIDGE ST,BOSTON,MA,2114,25025,SUFFOLK,1122.0,HOSPITALS,UNCODED,NOT APPLICABLE,1 TO 50,NOT APPLICABLE,UNCODED,UNCODED,501 TO 1000,102.0
937,NEIGHBORHOOD ACTION SENIOR CENTER,35 BOWDOIN ST,BOSTON,MA,2114,25025,SUFFOLK,1122.0,"SOCIAL AND PRIVATE CLUBS, LEGIONS, FRATERNITIES",UNCODED,NOT APPLICABLE,NOT APPLICABLE,NOT APPLICABLE,UNCODED,UNCODED,51 TO 100,102.0
938,BEHRAKIS HEALTH SCIENCE CENTER,30 LEON ST,BOSTON,MA,2115,25025,SUFFOLK,1122.0,"CENTERS FOR REHABILITATION AND READAPTION, ADULT DAY CARE",UNCODED,NOT APPLICABLE,UNCODED,NOT APPLICABLE,UNCODED,UNCODED,51 TO 100,102.0
939,NEW ENGLAND COLLEGE OF OPTOMETRY,424 BEACON ST,BOSTON,MA,2115,25025,SUFFOLK,1122.0,4 YEAR COLLEGE & UNIVERSITIES,UNCODED,251 TO 500,NOT APPLICABLE,NOT APPLICABLE,UNCODED,PRIVATE,251 TO 500,102.0
940,FENWAY COMM HEALTH CENTER-DETOX CLINIC,7 HAVILAND ST,BOSTON,MA,2115,25025,SUFFOLK,1122.0,OTHER HEALTHCARE ESTABLISHMENTS,UNCODED,NOT APPLICABLE,UNCODED,NOT APPLICABLE,UNCODED,UNCODED,51 TO 100,102.0
941,BOSTON ARCHITECTURAL CENTER COLLEGE,320 NEWBURY ST,BOSTON,MA,2115,25025,SUFFOLK,1122.0,4 YEAR COLLEGE & UNIVERSITIES,UNCODED,1001 TO 2000,NOT APPLICABLE,NOT APPLICABLE,UNCODED,PRIVATE,1001 TO 2000,102.0
942,HOME FOR LITTTLE WANDERERS-SBSTNC ABUSE,271 HUNTINGTON AVE,BOSTON,MA,2115,25025,SUFFOLK,1122.0,OTHER HEALTHCARE ESTABLISHMENTS,UNCODED,NOT APPLICABLE,UNCODED,NOT APPLICABLE,UNCODED,UNCODED,51 TO 100,102.0
943,NORTHEASTERN UNIVERSITY,360 HUNTINGTON AVE,BOSTON,MA,2115,25025,SUFFOLK,1122.0,4 YEAR COLLEGE & UNIVERSITIES,UNCODED,OVER 5000,NOT APPLICABLE,NOT APPLICABLE,COMPASS,PRIVATE,>2000,102.0
944,NEW ENGLAND CONSERVATORY OF MUSIC,290 HUNTINGTON AVE,BOSTON,MA,2115,25025,SUFFOLK,1122.0,4 YEAR COLLEGE & UNIVERSITIES,UNCODED,501 TO 1000,NOT APPLICABLE,NOT APPLICABLE,ARAMARK,PUBLIC,501 TO 1000,102.0
945,SCHOOL OF THE MUSEUM OF FINE ARTS,230 FENWAY,BOSTON,MA,2115,25025,SUFFOLK,1122.0,4 YEAR COLLEGE & UNIVERSITIES,UNCODED,501 TO 1000,NOT APPLICABLE,NOT APPLICABLE,COMPASS,PRIVATE,501 TO 1000,102.0
946,CHILDRENS HOSPITAL-BOSTON,300 LONGWOOD AVE,BOSTON,MA,2115,25025,SUFFOLK,1122.0,HOSPITALS,1000+,NOT APPLICABLE,101 TO 500,NOT APPLICABLE,SODEXO,UNCODED,>2000,273.8
947,EMMANUEL COLLEGE,400 FENWAY,BOSTON,MA,2115,25025,SUFFOLK,1122.0,4 YEAR COLLEGE & UNIVERSITIES,UNCODED,1001 TO 2000,NOT APPLICABLE,NOT APPLICABLE,COMPASS,RELIGIOUS,1001 TO 2000,102.0
948,MASSACHUSETTS COLLEGE OF ART,621 HUNTINGTON AVE,BOSTON,MA,2115,25025,SUFFOLK,1122.0,4 YEAR COLLEGE & UNIVERSITIES,UNCODED,1001 TO 2000,NOT APPLICABLE,NOT APPLICABLE,COMPASS,PUBLIC,1001 TO 2000,102.0
949,HARVARD SCHOOL OF DENTAL MEDICINE,188 LONGWOOD AVE,BOSTON,MA,2115,25025,SUFFOLK,1122.0,AFFILIATED BUILDINGS,UNCODED,250 AND LESS,NOT APPLICABLE,NOT APPLICABLE,UNCODED,PRIVATE,101 TO 250,102.0
950,MASSACHUSETTS COLLEGE OF PHARMACY-HEALTH SCIENCE,179 LONGWOOD AVE,BOSTON,MA,2115,25025,SUFFOLK,1122.0,4 YEAR COLLEGE & UNIVERSITIES,UNCODED,2001 TO 5000,NOT APPLICABLE,NOT APPLICABLE,COMPASS,PRIVATE,>2000,102.0
951,SIMMONS COLLEGE,300 FENWAY,BOSTON,MA,2115,25025,SUFFOLK,1122.0,4 YEAR COLLEGE & UNIVERSITIES,UNCODED,2001 TO 5000,NOT APPLICABLE,NOT APPLICABLE,ARAMARK,PRIVATE,>2000,102.0
952,WENTWORTH INSTITUTE OF TECHNOLOGY,550 HUNTINGTON AVE,BOSTON,MA,2115,25025,SUFFOLK,1122.0,4 YEAR COLLEGE & UNIVERSITIES,UNCODED,2001 TO 5000,NOT APPLICABLE,NOT APPLICABLE,COMPASS,PRIVATE,>2000,102.0
953,DANA-FARBER CANCER INSTITUTE,44 BINNEY ST,BOSTON,MA,2115,25025,SUFFOLK,1122.0,HOSPITALS,UNCODED,NOT APPLICABLE,1 TO 50,NOT APPLICABLE,UNCODED,UNCODED,1001 TO 2000,102.0
954,HARVARD UNIVERSITY MEDICAL SCHOOL,25 SHATTUCK ST,BOSTON,MA,2115,25025,SUFFOLK,1122.0,AFFILIATED BUILDINGS,UNCODED,UNCODED,NOT APPLICABLE,NOT APPLICABLE,UNCODED,PRIVATE,51 TO 100,102.0
955,JOHN HANCOCK CHILD CARE CENTER,370 STUART ST,BOSTON,MA,2116,25025,SUFFOLK,1122.0,"PRE-K, KINDERGARTEN, CHILD CARE",UNCODED,UNCODED,NOT APPLICABLE,NOT APPLICABLE,UNCODED,UNCODED,501 TO 1000,102.0
956,FISHER COLLEGE,118 BEACON ST,BOSTON,MA,2116,25025,SUFFOLK,1122.0,4 YEAR COLLEGE & UNIVERSITIES,UNCODED,1001 TO 2000,NOT APPLICABLE,NOT APPLICABLE,ARAMARK,PRIVATE,1001 TO 2000,102.0
957,GIBBS COLLEGE-BOSTON,126 NEWBURY ST,BOSTON,MA,2116,25025,SUFFOLK,1122.0,2 YEAR COLLEGE & UNIVERSITIES,UNCODED,501 TO 1000,NOT APPLICABLE,NOT APPLICABLE,UNCODED,PRIVATE,501 TO 1000,102.0
958,BAY STATE COLLEGE,122 COMMONWEALTH AVE,BOSTON,MA,2116,25025,SUFFOLK,1122.0,4 YEAR COLLEGE & UNIVERSITIES,UNCODED,501 TO 1000,NOT APPLICABLE,NOT APPLICABLE,ARAMARK,PRIVATE,501 TO 1000,102.0
959,SIDNEY BORUM JR HEALTH CENTER-SBSTNC ABS,130 BOYLSTON ST,BOSTON,MA,2116,25025,SUFFOLK,1122.0,OTHER HEALTHCARE ESTABLISHMENTS,UNCODED,NOT APPLICABLE,UNCODED,NOT APPLICABLE,UNCODED,UNCODED,51 TO 100,102.0
960,EMERSON COLLEGE,120 BOYLSTON ST,BOSTON,MA,2116,25025,SUFFOLK,1122.0,4 YEAR COLLEGE & UNIVERSITIES,UNCODED,2001 TO 5000,NOT APPLICABLE,NOT APPLICABLE,ARAMARK,PRIVATE,>2000,102.0
961,CAMP WONDERLAND,147 BERKELEY ST,BOSTON,MA,2116,25025,SUFFOLK,1122.0,"CENTERS FOR CHILDREN, SUMMER CAMPS",UNCODED,NOT APPLICABLE,NOT APPLICABLE,NOT APPLICABLE,UNCODED,UNCODED,>2000,102.0
962,CHINESE GOLDEN AGE CENTER,5 OAK ST W,BOSTON,MA,2116,25025,SUFFOLK,1122.0,"SOCIAL AND PRIVATE CLUBS, LEGIONS, FRATERNITIES",UNCODED,NOT APPLICABLE,NOT APPLICABLE,NOT APPLICABLE,UNCODED,UNCODED,51 TO 100,102.0
963,NEW ENGLAND SCHOOL OF LAW,154 STUART ST,BOSTON,MA,2116,25025,SUFFOLK,1122.0,TECHNICAL AND TRADE SCHOOLS,UNCODED,251 TO 500,NOT APPLICABLE,NOT APPLICABLE,UNCODED,PRIVATE,251 TO 500,102.0
964,LAHI-OASIS SUBSTANCE ABUSE CLINIC,95 BERKELEY ST,BOSTON,MA,2116,25025,SUFFOLK,1122.0,OTHER HEALTHCARE ESTABLISHMENTS,UNCODED,NOT APPLICABLE,UNCODED,NOT APPLICABLE,UNCODED,UNCODED,51 TO 100,102.0
965,BENJAMIN FRANKLIN INST OF TECHNOLOGY,41 BERKELEY ST,BOSTON,MA,2116,25025,SUFFOLK,1122.0,4 YEAR COLLEGE & UNIVERSITIES,UNCODED,251 TO 500,NOT APPLICABLE,NOT APPLICABLE,UNCODED,PRIVATE,251 TO 500,102.0
966,CAB BOSTON TREATMENT CENTER-SBSTNC ABS,784 REAR MASS AVE,BOSTON,MA,2118,25025,SUFFOLK,1122.0,OTHER HEALTHCARE ESTABLISHMENTS,UNCODED,NOT APPLICABLE,UNCODED,NOT APPLICABLE,UNCODED,UNCODED,51 TO 100,102.0
967,HOPE HOUSE-SUBSTANCE ABUSE TREATMENT SVC,PO BOX 180429,BOSTON,MA,2118,25025,SUFFOLK,1122.0,OTHER HEALTHCARE ESTABLISHMENTS,UNCODED,NOT APPLICABLE,UNCODED,NOT APPLICABLE,UNCODED,UNCODED,51 TO 100,102.0
968,SALVATION ARMY HARBOR LIGHT CENTER-AODA,PO BOX 180130,BOSTON,MA,2118,25025,SUFFOLK,1122.0,OTHER HEALTHCARE ESTABLISHMENTS,UNCODED,NOT APPLICABLE,UNCODED,NOT APPLICABLE,UNCODED,UNCODED,51 TO 100,102.0
969,HARRIET TUBMAN HOUSE SENIOR CENTER,566 COLUMBUS AVE,BOSTON,MA,2118,25025,SUFFOLK,1122.0,"SOCIAL AND PRIVATE CLUBS, LEGIONS, FRATERNITIES",UNCODED,NOT APPLICABLE,NOT APPLICABLE,NOT APPLICABLE,UNCODED,UNCODED,51 TO 100,102.0
970,VICTORY HOUSE RECOVERY HOME SBSTNC ABUSE,566 MASSACHUSETTS AVE,BOSTON,MA,2118,25025,SUFFOLK,1122.0,OTHER HEALTHCARE ESTABLISHMENTS,UNCODED,NOT APPLICABLE,UNCODED,NOT APPLICABLE,UNCODED,UNCODED,51 TO 100,102.0
971,SOUTH COVE MANOR,120 SHAWMUT AVE,BOSTON,MA,2118,25025,SUFFOLK,1122.0,NURSING HOME,UNCODED,NOT APPLICABLE,51 TO 100,NOT APPLICABLE,UNCODED,PUBLIC,1001 TO 2000,99.0
972,BOSTON UNIVERSITY-GOLDMAN SCH-DENTAL MED,100 E NEWTON ST,BOSTON,MA,2118,25025,SUFFOLK,1122.0,AFFILIATED BUILDINGS,UNCODED,501 TO 1000,NOT APPLICABLE,NOT APPLICABLE,UNCODED,PRIVATE,501 TO 1000,102.0
973,BOSTON PUBLIC HEALTH COMMISSION-AODA SVC,727 MASSACHUSETTS AVE,BOSTON,MA,2118,25025,SUFFOLK,1122.0,OTHER HEALTHCARE ESTABLISHMENTS,UNCODED,NOT APPLICABLE,UNCODED,NOT APPLICABLE,UNCODED,UNCODED,51 TO 100,102.0
974,DR S C FULLER MENTAL HEALTH CENTER,85 E NEWTON ST,BOSTON,MA,2118,25025,SUFFOLK,1122.0,HOSPITALS,UNCODED,NOT APPLICABLE,1 TO 50,NOT APPLICABLE,UNCODED,UNCODED,501 TO 1000,102.0
975,BOSTON UNIVERSITY MEDICAL SCHOOL,715 ALBANY ST,BOSTON,MA,2118,25025,SUFFOLK,1122.0,AFFILIATED BUILDINGS,UNCODED,501 TO 1000,NOT APPLICABLE,NOT APPLICABLE,UNCODED,PRIVATE,501 TO 1000,102.0
976,HABIT OPCO-SUBSTANCE ABUSE TREATMENT SVC,99 TOPEKA ST,ROXBURY,MA,2118,25025,SUFFOLK,1122.0,OTHER HEALTHCARE ESTABLISHMENTS,UNCODED,NOT APPLICABLE,UNCODED,NOT APPLICABLE,UNCODED,UNCODED,51 TO 100,102.0
977,SUFFOLK COUNTY HOUSE CORR-SHERIFFS OFC,20 BRADSTON ST,BOSTON,MA,2118,25025,SUFFOLK,1122.0,PRISONS,UNCODED,NOT APPLICABLE,UNCODED,NOT APPLICABLE,COMPASS,UNCODED,51 TO 100,102.0
978,VOLUNTEERS OF AMERICA HELLO HOUSE-AODA,686 MASSACHUSETTS AVE,BOSTON,MA,2118,25025,SUFFOLK,1122.0,OTHER HEALTHCARE ESTABLISHMENTS,UNCODED,NOT APPLICABLE,UNCODED,NOT APPLICABLE,UNCODED,UNCODED,51 TO 100,102.0
979,DIMOCK HALFWAY HOUSE-SUBATANCE ABUSE SVC,50 DIMOCK ST,ROXBURY,MA,2119,25025,SUFFOLK,1122.0,OTHER HEALTHCARE ESTABLISHMENTS,UNCODED,NOT APPLICABLE,UNCODED,NOT APPLICABLE,UNCODED,UNCODED,51 TO 100,102.0
980,LATINAS Y NINOS CENTER-SUBSTANCE ABUSE,PO BOX 191540,ROXBURY,MA,2119,25025,SUFFOLK,1122.0,OTHER HEALTHCARE ESTABLISHMENTS,UNCODED,NOT APPLICABLE,UNCODED,NOT APPLICABLE,UNCODED,UNCODED,51 TO 100,102.0
981,DIMOCK COMMUNITY HEALTH CENTER-DETOX,55 DIMOCK ST,ROXBURY,MA,2119,25025,SUFFOLK,1122.0,OTHER HEALTHCARE ESTABLISHMENTS,UNCODED,NOT APPLICABLE,UNCODED,NOT APPLICABLE,UNCODED,UNCODED,51 TO 100,102.0
982,FIRST ASKIA ACADEMY-SUBSTANCE ABUSE PRGM,167 CENTRE ST,ROXBURY,MA,2119,25025,SUFFOLK,1122.0,OTHER HEALTHCARE ESTABLISHMENTS,UNCODED,NOT APPLICABLE,UNCODED,NOT APPLICABLE,UNCODED,UNCODED,51 TO 100,102.0
983,RADIUS SPECIALTY HOSPITAL-BOSTON,59 TOWNSEND ST,ROXBURY,MA,2119,25025,SUFFOLK,1122.0,HOSPITALS,UNCODED,NOT APPLICABLE,101 TO 500,NOT APPLICABLE,UNCODED,UNCODED,>2000,102.0
984,ROXBURY YMCA CHILDCARE AND SCHOOL AGE,285 MARTIN LUTHER KING BLVD,ROXBURY,MA,2119,25025,SUFFOLK,1122.0,"PRE-K, KINDERGARTEN, CHILD CARE",UNCODED,UNCODED,NOT APPLICABLE,NOT APPLICABLE,UNCODED,UNCODED,501 TO 1000,102.0
985,ROXBURY COMP CHC-SBSTNC ABUSE SVC,330 MARTIN LUTHER KING BLVD,ROXBURY,MA,2119,25025,SUFFOLK,1122.0,OTHER HEALTHCARE ESTABLISHMENTS,UNCODED,NOT APPLICABLE,UNCODED,NOT APPLICABLE,UNCODED,UNCODED,51 TO 100,102.0
986,SMILE PRESCHOOL,185 DUDLEY ST,ROXBURY,MA,2119,25025,SUFFOLK,1122.0,"PRE-K, KINDERGARTEN, CHILD CARE",UNCODED,UNCODED,NOT APPLICABLE,NOT APPLICABLE,UNCODED,UNCODED,501 TO 1000,102.0
987,CHILDRENS SVCS OF ROXBURY RSDNTL TRTMNT,504 DUDLEY ST,ROXBURY,MA,2119,25025,SUFFOLK,1122.0,"CENTERS FOR REHABILITATION AND READAPTION, ADULT DAY CARE",UNCODED,NOT APPLICABLE,UNCODED,NOT APPLICABLE,UNCODED,UNCODED,51 TO 100,102.0
988,LA ALIANZA HISPANA YOUTH SERVICES-AODA,409 DUDLEY ST,ROXBURY,MA,2119,25025,SUFFOLK,1122.0,OTHER HEALTHCARE ESTABLISHMENTS,UNCODED,NOT APPLICABLE,UNCODED,NOT APPLICABLE,UNCODED,UNCODED,51 TO 100,102.0
989,RUGGLES STREET MISSION HILL AND GILDAY C,38 HORADAN WAY,ROXBURY CROSSING,MA,2120,25025,SUFFOLK,1122.0,"PRE-K, KINDERGARTEN, CHILD CARE",UNCODED,UNCODED,NOT APPLICABLE,NOT APPLICABLE,UNCODED,UNCODED,501 TO 1000,102.0
990,JUDGE BAKER CHILDREN CENTER,53 PARKER HILL AVE,ROXBURY CROSSING,MA,2120,25025,SUFFOLK,1122.0,"CENTERS FOR REHABILITATION AND READAPTION, ADULT DAY CARE",UNCODED,NOT APPLICABLE,UNCODED,NOT APPLICABLE,UNCODED,UNCODED,51 TO 100,102.0
991,BENJAMIN HEALTH CARE CENTER,120 FISHER AVE,ROXBURY CROSSING,MA,2120,25025,SUFFOLK,1122.0,NURSING HOME,UNCODED,NOT APPLICABLE,101 TO 500,NOT APPLICABLE,OTHER CONTRACTED,PUBLIC,>2000,184.0
992,ROXBURY COMMUNITY COLLEGE,1234 COLUMBUS AVE,ROXBURY CROSSING,MA,2120,25025,SUFFOLK,1122.0,2 YEAR COLLEGE & UNIVERSITIES,UNCODED,2001 TO 5000,NOT APPLICABLE,NOT APPLICABLE,UNCODED,PUBLIC,>2000,102.0
993,CRISPUS ATTUCKS CHILDRENS CENTER,105 CRAWFORD ST,DORCHESTER,MA,2121,25025,SUFFOLK,1122.0,"PRE-K, KINDERGARTEN, CHILD CARE",UNCODED,UNCODED,NOT APPLICABLE,NOT APPLICABLE,UNCODED,UNCODED,501 TO 1000,102.0
994,HAMILTON HOUSE-SUBSTANCE ABUSE TREATMENT,PO BOX 220042,BOSTON,MA,2122,25025,SUFFOLK,1122.0,OTHER HEALTHCARE ESTABLISHMENTS,UNCODED,NOT APPLICABLE,UNCODED,NOT APPLICABLE,UNCODED,UNCODED,51 TO 100,102.0
995,ST JOSEPHS REHAB NURSING CARE CENTER,321 CENTRE ST,DORCHESTER,MA,2122,25025,SUFFOLK,1122.0,NURSING HOME,UNCODED,NOT APPLICABLE,101 TO 500,NOT APPLICABLE,UNCODED,PUBLIC,>2000,117.0
996,KIT CLARK SENIOR SERVICES,1500 DORCHESTER AVE,DORCHESTER,MA,2122,25025,SUFFOLK,1122.0,"CENTERS FOR REHABILITATION AND READAPTION, ADULT DAY CARE",UNCODED,NOT APPLICABLE,1 TO 50,NOT APPLICABLE,UNCODED,UNCODED,101 TO 250,102.0
997,BOWDOIN STREET COMM HEALTH CTR-AODA SVCS,230 BOWDOIN ST,DORCHESTER,MA,2122,25025,SUFFOLK,1122.0,OTHER HEALTHCARE ESTABLISHMENTS,UNCODED,NOT APPLICABLE,UNCODED,NOT APPLICABLE,UNCODED,UNCODED,51 TO 100,102.0
998,DORCHESTER HOUSE-SUBSTANCE ABUSE TRTMNT,1353 DORCHESTER AVE,DORCHESTER,MA,2122,25025,SUFFOLK,1122.0,OTHER HEALTHCARE ESTABLISHMENTS,UNCODED,NOT APPLICABLE,UNCODED,NOT APPLICABLE,UNCODED,UNCODED,51 TO 100,102.0
999,BOSTONIAN NURSING CARE AND REHAB CENTER,337 NEPONSET AVE,DORCHESTER,MA,2122,25025,SUFFOLK,1122.0,NURSING HOME,UNCODED,NOT APPLICABLE,101 TO 500,NOT APPLICABLE,UNCODED,PUBLIC,>2000,110.0
